<?xml version="1.0" encoding="UTF-8"?>
<gpx creator="StravaGPX" xmlns:xsi="http://www.w3.org/2001/XMLSchema-instance" xsi:schemaLocation="http://www.topografix.com/GPX/1/1 http://www.topografix.com/GPX/1/1/gpx.xsd" version="1.1" xmlns="http://www.topografix.com/GPX/1/1">
 <metadata>
  <name>Laukinis trail 24 km ZE ilga naktinis</name>
  <author>
   <name>Julius Tomasevicius</name>
   <link href="https://www.strava.com/athletes/667508"/>
  </author>
  <copyright author="OpenStreetMap contributors">
   <year>2020</year>
   <license>https://www.openstreetmap.org/copyright</license>
  </copyright>
  <link href="https://www.strava.com/routes/2776458702508953996"/>
 </metadata>
 <trk>
  <name>Laukinis trail 24 km ZE ilga naktinis</name>
  <link href="https://www.strava.com/routes/2776458702508953996"/>
  <type>running</type>
  <trkseg>
   <trkpt lat="54.784440000000004" lon="25.334850000000003">
    <ele>118.5</ele>
   </trkpt>
   <trkpt lat="54.784040000000005" lon="25.335300000000004">
    <ele>122.97000000000001</ele>
   </trkpt>
   <trkpt lat="54.78401" lon="25.335400000000003">
    <ele>123.52</ele>
   </trkpt>
   <trkpt lat="54.78399" lon="25.335600000000003">
    <ele>125.14</ele>
   </trkpt>
   <trkpt lat="54.78436000000001" lon="25.335880000000003">
    <ele>127.21000000000001</ele>
   </trkpt>
   <trkpt lat="54.78484" lon="25.33613">
    <ele>128.56</ele>
   </trkpt>
   <trkpt lat="54.785050000000005" lon="25.3362">
    <ele>128.60000000000002</ele>
   </trkpt>
   <trkpt lat="54.78544" lon="25.336150000000004">
    <ele>128.71</ele>
   </trkpt>
   <trkpt lat="54.78593000000001" lon="25.336360000000003">
    <ele>129.04000000000002</ele>
   </trkpt>
   <trkpt lat="54.786440000000006" lon="25.3367">
    <ele>129.01000000000002</ele>
   </trkpt>
   <trkpt lat="54.78689000071025" lon="25.337119995312136">
    <ele>128.79999999999998</ele>
   </trkpt>
   <trkpt lat="54.78734000000001" lon="25.33754">
    <ele>128.99</ele>
   </trkpt>
   <trkpt lat="54.787510000000005" lon="25.33783">
    <ele>129.59</ele>
   </trkpt>
   <trkpt lat="54.787710000000004" lon="25.337870000000002">
    <ele>130.85000000000002</ele>
   </trkpt>
   <trkpt lat="54.78795" lon="25.338040000000003">
    <ele>135.98000000000002</ele>
   </trkpt>
   <trkpt lat="54.788140000000006" lon="25.33827">
    <ele>137.67000000000002</ele>
   </trkpt>
   <trkpt lat="54.78864000000001" lon="25.33828">
    <ele>144.57</ele>
   </trkpt>
   <trkpt lat="54.7886" lon="25.33855">
    <ele>145.37</ele>
   </trkpt>
   <trkpt lat="54.788590000000006" lon="25.33858">
    <ele>145.42000000000002</ele>
   </trkpt>
   <trkpt lat="54.788430000000005" lon="25.33876">
    <ele>146.07</ele>
   </trkpt>
   <trkpt lat="54.78819000000001" lon="25.338800000000003">
    <ele>147.24</ele>
   </trkpt>
   <trkpt lat="54.788090000000004" lon="25.338610000000003">
    <ele>147.36</ele>
   </trkpt>
   <trkpt lat="54.787890000000004" lon="25.338440000000002">
    <ele>147.12</ele>
   </trkpt>
   <trkpt lat="54.787780000000005" lon="25.33866">
    <ele>147.07</ele>
   </trkpt>
   <trkpt lat="54.787710000000004" lon="25.338970000000003">
    <ele>147.16</ele>
   </trkpt>
   <trkpt lat="54.78692" lon="25.339260000000003">
    <ele>152.9</ele>
   </trkpt>
   <trkpt lat="54.786620000000006" lon="25.339460000000003">
    <ele>155.76000000000002</ele>
   </trkpt>
   <trkpt lat="54.78669000000001" lon="25.339710000000004">
    <ele>155.82000000000002</ele>
   </trkpt>
   <trkpt lat="54.78669000000001" lon="25.340220000000002">
    <ele>155.82000000000002</ele>
   </trkpt>
   <trkpt lat="54.78652" lon="25.340230000000002">
    <ele>156.5</ele>
   </trkpt>
   <trkpt lat="54.786280000000005" lon="25.340280000000003">
    <ele>156.75</ele>
   </trkpt>
   <trkpt lat="54.786120000000004" lon="25.340280000000003">
    <ele>156.34</ele>
   </trkpt>
   <trkpt lat="54.786" lon="25.34026">
    <ele>156.24</ele>
   </trkpt>
   <trkpt lat="54.785900000000005" lon="25.340210000000003">
    <ele>156.12</ele>
   </trkpt>
   <trkpt lat="54.785810000000005" lon="25.340270000000004">
    <ele>155.24</ele>
   </trkpt>
   <trkpt lat="54.78562" lon="25.34016">
    <ele>155.22000000000003</ele>
   </trkpt>
   <trkpt lat="54.78544" lon="25.33995">
    <ele>154.59</ele>
   </trkpt>
   <trkpt lat="54.78539000000001" lon="25.339660000000002">
    <ele>155.26000000000002</ele>
   </trkpt>
   <trkpt lat="54.78548000000001" lon="25.339340000000004">
    <ele>156.55</ele>
   </trkpt>
   <trkpt lat="54.78553" lon="25.339000000000002">
    <ele>157.49</ele>
   </trkpt>
   <trkpt lat="54.78553" lon="25.338820000000002">
    <ele>157.82000000000002</ele>
   </trkpt>
   <trkpt lat="54.78558" lon="25.33847">
    <ele>157.60000000000002</ele>
   </trkpt>
   <trkpt lat="54.78557000000001" lon="25.338310000000003">
    <ele>156.76000000000002</ele>
   </trkpt>
   <trkpt lat="54.78549" lon="25.3382">
    <ele>156.05</ele>
   </trkpt>
   <trkpt lat="54.78524" lon="25.337960000000002">
    <ele>154.74</ele>
   </trkpt>
   <trkpt lat="54.78519000000001" lon="25.33781">
    <ele>153.44000000000003</ele>
   </trkpt>
   <trkpt lat="54.785160000000005" lon="25.33764">
    <ele>152.17</ele>
   </trkpt>
   <trkpt lat="54.785160000000005" lon="25.337320000000002">
    <ele>155.11</ele>
   </trkpt>
   <trkpt lat="54.784620000000004" lon="25.337290000000003">
    <ele>154.76000000000002</ele>
   </trkpt>
   <trkpt lat="54.78416000000001" lon="25.337300000000003">
    <ele>151.55</ele>
   </trkpt>
   <trkpt lat="54.78417" lon="25.337290000000003">
    <ele>151.61</ele>
   </trkpt>
   <trkpt lat="54.78392" lon="25.337550000000004">
    <ele>150.48</ele>
   </trkpt>
   <trkpt lat="54.78372" lon="25.33809">
    <ele>148.63</ele>
   </trkpt>
   <trkpt lat="54.783550000000005" lon="25.338620000000002">
    <ele>148.64000000000001</ele>
   </trkpt>
   <trkpt lat="54.78345" lon="25.338790000000003">
    <ele>149.28000000000003</ele>
   </trkpt>
   <trkpt lat="54.78300000019261" lon="25.338524996994824">
    <ele>149.45</ele>
   </trkpt>
   <trkpt lat="54.78255000000001" lon="25.338260000000002">
    <ele>150.31</ele>
   </trkpt>
   <trkpt lat="54.782120000000006" lon="25.3381">
    <ele>150.84</ele>
   </trkpt>
   <trkpt lat="54.78193" lon="25.338130000000003">
    <ele>149.41000000000003</ele>
   </trkpt>
   <trkpt lat="54.78177" lon="25.338410000000003">
    <ele>145.46</ele>
   </trkpt>
   <trkpt lat="54.781530000000004" lon="25.339170000000003">
    <ele>141.19</ele>
   </trkpt>
   <trkpt lat="54.781180000000006" lon="25.339640000000003">
    <ele>138.89000000000001</ele>
   </trkpt>
   <trkpt lat="54.78079" lon="25.34005">
    <ele>137.59</ele>
   </trkpt>
   <trkpt lat="54.780680000000004" lon="25.340700000000002">
    <ele>135.82000000000002</ele>
   </trkpt>
   <trkpt lat="54.780550000000005" lon="25.34064">
    <ele>135.64000000000001</ele>
   </trkpt>
   <trkpt lat="54.780440000000006" lon="25.340660000000003">
    <ele>135.14000000000001</ele>
   </trkpt>
   <trkpt lat="54.78034" lon="25.34064">
    <ele>135.14000000000001</ele>
   </trkpt>
   <trkpt lat="54.779990000000005" lon="25.340760000000003">
    <ele>132.75</ele>
   </trkpt>
   <trkpt lat="54.779900000000005" lon="25.340750000000003">
    <ele>132.75</ele>
   </trkpt>
   <trkpt lat="54.779610000000005" lon="25.340650000000004">
    <ele>131.51999999999998</ele>
   </trkpt>
   <trkpt lat="54.779450000000004" lon="25.34042">
    <ele>130.57000000000002</ele>
   </trkpt>
   <trkpt lat="54.779360000000004" lon="25.340190000000003">
    <ele>129.85000000000002</ele>
   </trkpt>
   <trkpt lat="54.779270000000004" lon="25.340230000000002">
    <ele>129.74</ele>
   </trkpt>
   <trkpt lat="54.7792" lon="25.340480000000003">
    <ele>130.01000000000002</ele>
   </trkpt>
   <trkpt lat="54.77913" lon="25.340600000000002">
    <ele>130.07000000000002</ele>
   </trkpt>
   <trkpt lat="54.77902" lon="25.340660000000003">
    <ele>130.10000000000002</ele>
   </trkpt>
   <trkpt lat="54.77901000000001" lon="25.340490000000003">
    <ele>129.93</ele>
   </trkpt>
   <trkpt lat="54.77904" lon="25.340290000000003">
    <ele>129.63000000000002</ele>
   </trkpt>
   <trkpt lat="54.778960000000005" lon="25.339990000000004">
    <ele>129.03</ele>
   </trkpt>
   <trkpt lat="54.778870000000005" lon="25.339920000000003">
    <ele>129.10000000000002</ele>
   </trkpt>
   <trkpt lat="54.77879000000001" lon="25.339810000000003">
    <ele>129.29000000000002</ele>
   </trkpt>
   <trkpt lat="54.778670000000005" lon="25.339540000000003">
    <ele>129.32000000000002</ele>
   </trkpt>
   <trkpt lat="54.778650000000006" lon="25.339380000000002">
    <ele>129.14000000000001</ele>
   </trkpt>
   <trkpt lat="54.77877" lon="25.339290000000002">
    <ele>128.02</ele>
   </trkpt>
   <trkpt lat="54.778830000000006" lon="25.33914">
    <ele>127.2</ele>
   </trkpt>
   <trkpt lat="54.77891" lon="25.33904">
    <ele>126.38000000000002</ele>
   </trkpt>
   <trkpt lat="54.77897" lon="25.338910000000002">
    <ele>125.42</ele>
   </trkpt>
   <trkpt lat="54.77906" lon="25.338820000000002">
    <ele>124.44000000000001</ele>
   </trkpt>
   <trkpt lat="54.77911" lon="25.338680000000004">
    <ele>123.74000000000001</ele>
   </trkpt>
   <trkpt lat="54.77910000000001" lon="25.338510000000003">
    <ele>123.71000000000001</ele>
   </trkpt>
   <trkpt lat="54.77906" lon="25.33837">
    <ele>124.14000000000001</ele>
   </trkpt>
   <trkpt lat="54.77904" lon="25.338050000000003">
    <ele>125.65</ele>
   </trkpt>
   <trkpt lat="54.779120000000006" lon="25.33751">
    <ele>128.51000000000002</ele>
   </trkpt>
   <trkpt lat="54.77935000000001" lon="25.337470000000003">
    <ele>127.82000000000001</ele>
   </trkpt>
   <trkpt lat="54.77947" lon="25.33752">
    <ele>126.81</ele>
   </trkpt>
   <trkpt lat="54.77958" lon="25.337480000000003">
    <ele>126.74000000000002</ele>
   </trkpt>
   <trkpt lat="54.779720000000005" lon="25.337210000000002">
    <ele>128.49</ele>
   </trkpt>
   <trkpt lat="54.7798" lon="25.33688">
    <ele>130.56</ele>
   </trkpt>
   <trkpt lat="54.77993000000001" lon="25.33659">
    <ele>133.0</ele>
   </trkpt>
   <trkpt lat="54.78002000000001" lon="25.33629">
    <ele>136.14000000000001</ele>
   </trkpt>
   <trkpt lat="54.780010000000004" lon="25.33611">
    <ele>138.14000000000001</ele>
   </trkpt>
   <trkpt lat="54.780280000000005" lon="25.33594">
    <ele>138.88</ele>
   </trkpt>
   <trkpt lat="54.780370000000005" lon="25.33585">
    <ele>139.5</ele>
   </trkpt>
   <trkpt lat="54.78043" lon="25.335700000000003">
    <ele>141.05</ele>
   </trkpt>
   <trkpt lat="54.78045" lon="25.335020000000004">
    <ele>147.3</ele>
   </trkpt>
   <trkpt lat="54.78051000000001" lon="25.334490000000002">
    <ele>149.96</ele>
   </trkpt>
   <trkpt lat="54.78049000000001" lon="25.33414">
    <ele>151.86</ele>
   </trkpt>
   <trkpt lat="54.78043" lon="25.33395">
    <ele>152.93</ele>
   </trkpt>
   <trkpt lat="54.78043" lon="25.33396">
    <ele>154.46</ele>
   </trkpt>
   <trkpt lat="54.780280000000005" lon="25.334090000000003">
    <ele>155.27</ele>
   </trkpt>
   <trkpt lat="54.779680000000006" lon="25.33432">
    <ele>156.51000000000002</ele>
   </trkpt>
   <trkpt lat="54.77897" lon="25.334660000000003">
    <ele>154.50000000000003</ele>
   </trkpt>
   <trkpt lat="54.77845000000001" lon="25.33507">
    <ele>148.61</ele>
   </trkpt>
   <trkpt lat="54.778040000000004" lon="25.335500000000003">
    <ele>144.49</ele>
   </trkpt>
   <trkpt lat="54.77774" lon="25.33567">
    <ele>143.11</ele>
   </trkpt>
   <trkpt lat="54.77734" lon="25.335160000000002">
    <ele>137.74</ele>
   </trkpt>
   <trkpt lat="54.77703" lon="25.33479">
    <ele>133.0</ele>
   </trkpt>
   <trkpt lat="54.7768" lon="25.334750000000003">
    <ele>129.42000000000002</ele>
   </trkpt>
   <trkpt lat="54.77666000000001" lon="25.334410000000002">
    <ele>125.32000000000001</ele>
   </trkpt>
   <trkpt lat="54.776700000000005" lon="25.334270000000004">
    <ele>124.42000000000002</ele>
   </trkpt>
   <trkpt lat="54.77669" lon="25.334100000000003">
    <ele>122.89000000000001</ele>
   </trkpt>
   <trkpt lat="54.77678" lon="25.334030000000002">
    <ele>122.81000000000002</ele>
   </trkpt>
   <trkpt lat="54.776880000000006" lon="25.334010000000003">
    <ele>123.76</ele>
   </trkpt>
   <trkpt lat="54.77704000000001" lon="25.33385">
    <ele>123.89000000000001</ele>
   </trkpt>
   <trkpt lat="54.77714" lon="25.333820000000003">
    <ele>124.61000000000001</ele>
   </trkpt>
   <trkpt lat="54.77732" lon="25.333720000000003">
    <ele>126.13000000000002</ele>
   </trkpt>
   <trkpt lat="54.77769000000001" lon="25.333720000000003">
    <ele>133.07000000000002</ele>
   </trkpt>
   <trkpt lat="54.777750000000005" lon="25.33359">
    <ele>133.73000000000002</ele>
   </trkpt>
   <trkpt lat="54.77779" lon="25.333430000000003">
    <ele>133.01000000000002</ele>
   </trkpt>
   <trkpt lat="54.77788" lon="25.333430000000003">
    <ele>135.28</ele>
   </trkpt>
   <trkpt lat="54.77797" lon="25.33349">
    <ele>138.14000000000001</ele>
   </trkpt>
   <trkpt lat="54.77797" lon="25.33367">
    <ele>139.29000000000002</ele>
   </trkpt>
   <trkpt lat="54.778130000000004" lon="25.333840000000002">
    <ele>143.21</ele>
   </trkpt>
   <trkpt lat="54.77819" lon="25.33398">
    <ele>144.65</ele>
   </trkpt>
   <trkpt lat="54.77828" lon="25.33404">
    <ele>146.42000000000002</ele>
   </trkpt>
   <trkpt lat="54.77835" lon="25.333940000000002">
    <ele>147.28000000000003</ele>
   </trkpt>
   <trkpt lat="54.778420000000004" lon="25.33379">
    <ele>148.04</ele>
   </trkpt>
   <trkpt lat="54.778580000000005" lon="25.3336">
    <ele>149.52</ele>
   </trkpt>
   <trkpt lat="54.77868" lon="25.333520000000004">
    <ele>150.55</ele>
   </trkpt>
   <trkpt lat="54.77882" lon="25.333330000000004">
    <ele>151.42</ele>
   </trkpt>
   <trkpt lat="54.77891" lon="25.333260000000003">
    <ele>151.61</ele>
   </trkpt>
   <trkpt lat="54.77908000000001" lon="25.333070000000003">
    <ele>151.62</ele>
   </trkpt>
   <trkpt lat="54.77919000000001" lon="25.33301">
    <ele>151.48</ele>
   </trkpt>
   <trkpt lat="54.779300000000006" lon="25.332980000000003">
    <ele>151.74</ele>
   </trkpt>
   <trkpt lat="54.779500000000006" lon="25.33285">
    <ele>150.95</ele>
   </trkpt>
   <trkpt lat="54.7796" lon="25.33276">
    <ele>150.47000000000003</ele>
   </trkpt>
   <trkpt lat="54.779700000000005" lon="25.332710000000002">
    <ele>150.14000000000001</ele>
   </trkpt>
   <trkpt lat="54.779990000000005" lon="25.332710000000002">
    <ele>151.08</ele>
   </trkpt>
   <trkpt lat="54.780260000000006" lon="25.332430000000002">
    <ele>151.73</ele>
   </trkpt>
   <trkpt lat="54.780350000000006" lon="25.332390000000004">
    <ele>152.24</ele>
   </trkpt>
   <trkpt lat="54.78054" lon="25.332250000000002">
    <ele>152.99</ele>
   </trkpt>
   <trkpt lat="54.78058000000001" lon="25.33189">
    <ele>152.13000000000002</ele>
   </trkpt>
   <trkpt lat="54.780550000000005" lon="25.33172">
    <ele>150.92</ele>
   </trkpt>
   <trkpt lat="54.78042000000001" lon="25.331450000000004">
    <ele>147.61</ele>
   </trkpt>
   <trkpt lat="54.780240000000006" lon="25.331220000000002">
    <ele>143.27</ele>
   </trkpt>
   <trkpt lat="54.780120000000004" lon="25.330980000000004">
    <ele>138.89000000000001</ele>
   </trkpt>
   <trkpt lat="54.78007" lon="25.33048">
    <ele>132.46</ele>
   </trkpt>
   <trkpt lat="54.780080000000005" lon="25.330280000000002">
    <ele>131.06</ele>
   </trkpt>
   <trkpt lat="54.78016" lon="25.32975">
    <ele>127.71000000000002</ele>
   </trkpt>
   <trkpt lat="54.780030000000004" lon="25.329620000000002">
    <ele>125.34</ele>
   </trkpt>
   <trkpt lat="54.77998" lon="25.329500000000003">
    <ele>117.08</ele>
   </trkpt>
   <trkpt lat="54.780120000000004" lon="25.32935">
    <ele>117.77000000000001</ele>
   </trkpt>
   <trkpt lat="54.78029000000001" lon="25.329240000000002">
    <ele>118.10000000000001</ele>
   </trkpt>
   <trkpt lat="54.780530000000006" lon="25.328960000000002">
    <ele>118.06000000000002</ele>
   </trkpt>
   <trkpt lat="54.78061" lon="25.3288">
    <ele>117.86</ele>
   </trkpt>
   <trkpt lat="54.78067000000001" lon="25.328780000000002">
    <ele>117.74000000000001</ele>
   </trkpt>
   <trkpt lat="54.780710000000006" lon="25.328740000000003">
    <ele>117.57000000000001</ele>
   </trkpt>
   <trkpt lat="54.781060000000004" lon="25.328080000000003">
    <ele>115.49000000000001</ele>
   </trkpt>
   <trkpt lat="54.78105000000001" lon="25.328080000000003">
    <ele>115.49000000000001</ele>
   </trkpt>
   <trkpt lat="54.78112" lon="25.328090000000003">
    <ele>115.45</ele>
   </trkpt>
   <trkpt lat="54.78132000000001" lon="25.327920000000002">
    <ele>115.64</ele>
   </trkpt>
   <trkpt lat="54.781470000000006" lon="25.327820000000003">
    <ele>115.64</ele>
   </trkpt>
   <trkpt lat="54.78161000000001" lon="25.327790000000004">
    <ele>115.86</ele>
   </trkpt>
   <trkpt lat="54.78183000000001" lon="25.327700000000004">
    <ele>115.97</ele>
   </trkpt>
   <trkpt lat="54.782000000000004" lon="25.32767">
    <ele>116.31</ele>
   </trkpt>
   <trkpt lat="54.78210000000001" lon="25.327910000000003">
    <ele>119.45000000000002</ele>
   </trkpt>
   <trkpt lat="54.782160000000005" lon="25.32813">
    <ele>120.18</ele>
   </trkpt>
   <trkpt lat="54.782270000000004" lon="25.328380000000003">
    <ele>125.42</ele>
   </trkpt>
   <trkpt lat="54.78233" lon="25.328470000000003">
    <ele>125.42</ele>
   </trkpt>
   <trkpt lat="54.78237000000001" lon="25.328640000000004">
    <ele>126.83</ele>
   </trkpt>
   <trkpt lat="54.78242" lon="25.328680000000002">
    <ele>128.20000000000002</ele>
   </trkpt>
   <trkpt lat="54.782450000000004" lon="25.3288">
    <ele>129.5</ele>
   </trkpt>
   <trkpt lat="54.782740000000004" lon="25.32937">
    <ele>134.44</ele>
   </trkpt>
   <trkpt lat="54.78287" lon="25.329780000000003">
    <ele>136.53</ele>
   </trkpt>
   <trkpt lat="54.782920000000004" lon="25.33039">
    <ele>137.01000000000002</ele>
   </trkpt>
   <trkpt lat="54.78298" lon="25.330430000000003">
    <ele>136.84</ele>
   </trkpt>
   <trkpt lat="54.78311000000001" lon="25.33041">
    <ele>136.64000000000001</ele>
   </trkpt>
   <trkpt lat="54.783240000000006" lon="25.330280000000002">
    <ele>137.06</ele>
   </trkpt>
   <trkpt lat="54.78342000000001" lon="25.329950000000004">
    <ele>137.56</ele>
   </trkpt>
   <trkpt lat="54.783500000000004" lon="25.329860000000004">
    <ele>138.06</ele>
   </trkpt>
   <trkpt lat="54.78363" lon="25.32964">
    <ele>139.32</ele>
   </trkpt>
   <trkpt lat="54.78367000000001" lon="25.32954">
    <ele>139.43</ele>
   </trkpt>
   <trkpt lat="54.783710000000006" lon="25.32929">
    <ele>139.02</ele>
   </trkpt>
   <trkpt lat="54.78379" lon="25.32917">
    <ele>138.31</ele>
   </trkpt>
   <trkpt lat="54.78403" lon="25.32888">
    <ele>133.97</ele>
   </trkpt>
   <trkpt lat="54.784060000000004" lon="25.328760000000003">
    <ele>133.97</ele>
   </trkpt>
   <trkpt lat="54.78417" lon="25.328590000000002">
    <ele>132.22</ele>
   </trkpt>
   <trkpt lat="54.784180000000006" lon="25.328580000000002">
    <ele>132.13</ele>
   </trkpt>
   <trkpt lat="54.78426" lon="25.328400000000002">
    <ele>130.85000000000002</ele>
   </trkpt>
   <trkpt lat="54.78427000000001" lon="25.328290000000003">
    <ele>129.66</ele>
   </trkpt>
   <trkpt lat="54.78412" lon="25.328170000000004">
    <ele>125.80000000000003</ele>
   </trkpt>
   <trkpt lat="54.784040000000005" lon="25.328030000000002">
    <ele>125.80000000000003</ele>
   </trkpt>
   <trkpt lat="54.78425000000001" lon="25.327900000000003">
    <ele>121.07000000000001</ele>
   </trkpt>
   <trkpt lat="54.78439" lon="25.32775">
    <ele>119.15</ele>
   </trkpt>
   <trkpt lat="54.784150000000004" lon="25.32757">
    <ele>118.78</ele>
   </trkpt>
   <trkpt lat="54.783680000000004" lon="25.327360000000002">
    <ele>116.99000000000001</ele>
   </trkpt>
   <trkpt lat="54.783910000000006" lon="25.32683">
    <ele>115.89</ele>
   </trkpt>
   <trkpt lat="54.78401" lon="25.32655">
    <ele>115.85000000000001</ele>
   </trkpt>
   <trkpt lat="54.78416000000001" lon="25.32625">
    <ele>116.14</ele>
   </trkpt>
   <trkpt lat="54.78426" lon="25.326140000000002">
    <ele>116.59000000000002</ele>
   </trkpt>
   <trkpt lat="54.78439" lon="25.326040000000003">
    <ele>117.45000000000002</ele>
   </trkpt>
   <trkpt lat="54.78464" lon="25.325940000000003">
    <ele>119.10000000000001</ele>
   </trkpt>
   <trkpt lat="54.784870000000005" lon="25.32579">
    <ele>121.51</ele>
   </trkpt>
   <trkpt lat="54.78501000000001" lon="25.32553">
    <ele>124.46000000000001</ele>
   </trkpt>
   <trkpt lat="54.78510000000001" lon="25.32513">
    <ele>127.62</ele>
   </trkpt>
   <trkpt lat="54.78522" lon="25.32422">
    <ele>130.47</ele>
   </trkpt>
   <trkpt lat="54.785320000000006" lon="25.323800000000002">
    <ele>130.60000000000002</ele>
   </trkpt>
   <trkpt lat="54.78544" lon="25.323570000000004">
    <ele>130.84</ele>
   </trkpt>
   <trkpt lat="54.78557000000001" lon="25.323430000000002">
    <ele>131.31</ele>
   </trkpt>
   <trkpt lat="54.78595000000001" lon="25.32279">
    <ele>132.3</ele>
   </trkpt>
   <trkpt lat="54.786150000000006" lon="25.322190000000003">
    <ele>133.06</ele>
   </trkpt>
   <trkpt lat="54.78607" lon="25.322110000000002">
    <ele>139.11</ele>
   </trkpt>
   <trkpt lat="54.7858" lon="25.32166">
    <ele>135.34</ele>
   </trkpt>
   <trkpt lat="54.785630000000005" lon="25.3215">
    <ele>133.37</ele>
   </trkpt>
   <trkpt lat="54.78546000000001" lon="25.32168">
    <ele>132.56</ele>
   </trkpt>
   <trkpt lat="54.785340000000005" lon="25.321540000000002">
    <ele>131.75</ele>
   </trkpt>
   <trkpt lat="54.78528000000001" lon="25.321410000000004">
    <ele>131.59</ele>
   </trkpt>
   <trkpt lat="54.78528000000001" lon="25.320960000000003">
    <ele>131.83</ele>
   </trkpt>
   <trkpt lat="54.785250000000005" lon="25.32081">
    <ele>132.03</ele>
   </trkpt>
   <trkpt lat="54.785160000000005" lon="25.32083">
    <ele>132.42000000000002</ele>
   </trkpt>
   <trkpt lat="54.78513" lon="25.320660000000004">
    <ele>132.89000000000001</ele>
   </trkpt>
   <trkpt lat="54.78515" lon="25.320470000000004">
    <ele>133.14000000000001</ele>
   </trkpt>
   <trkpt lat="54.785210000000006" lon="25.320320000000002">
    <ele>132.98999999999998</ele>
   </trkpt>
   <trkpt lat="54.785230000000006" lon="25.32007">
    <ele>133.57000000000002</ele>
   </trkpt>
   <trkpt lat="54.78515" lon="25.31978">
    <ele>136.0</ele>
   </trkpt>
   <trkpt lat="54.78517000000001" lon="25.319440000000004">
    <ele>138.12</ele>
   </trkpt>
   <trkpt lat="54.78533" lon="25.318820000000002">
    <ele>139.14000000000001</ele>
   </trkpt>
   <trkpt lat="54.785320000000006" lon="25.31866">
    <ele>140.41</ele>
   </trkpt>
   <trkpt lat="54.78522" lon="25.31866">
    <ele>141.92000000000002</ele>
   </trkpt>
   <trkpt lat="54.785030000000006" lon="25.318610000000003">
    <ele>144.8</ele>
   </trkpt>
   <trkpt lat="54.78493" lon="25.318540000000002">
    <ele>146.73</ele>
   </trkpt>
   <trkpt lat="54.78484" lon="25.318500000000004">
    <ele>148.34</ele>
   </trkpt>
   <trkpt lat="54.784780000000005" lon="25.31838">
    <ele>149.44000000000003</ele>
   </trkpt>
   <trkpt lat="54.78475" lon="25.318230000000003">
    <ele>150.87</ele>
   </trkpt>
   <trkpt lat="54.78475" lon="25.317860000000003">
    <ele>152.49</ele>
   </trkpt>
   <trkpt lat="54.78479" lon="25.317680000000003">
    <ele>152.63000000000002</ele>
   </trkpt>
   <trkpt lat="54.78481000000001" lon="25.317330000000002">
    <ele>153.63000000000002</ele>
   </trkpt>
   <trkpt lat="54.784760000000006" lon="25.317030000000003">
    <ele>155.0</ele>
   </trkpt>
   <trkpt lat="54.784690000000005" lon="25.31715">
    <ele>155.28</ele>
   </trkpt>
   <trkpt lat="54.78457" lon="25.317680000000003">
    <ele>154.73</ele>
   </trkpt>
   <trkpt lat="54.78439" lon="25.31753">
    <ele>156.39</ele>
   </trkpt>
   <trkpt lat="54.784180000000006" lon="25.31717">
    <ele>158.35000000000002</ele>
   </trkpt>
   <trkpt lat="54.784060000000004" lon="25.317100000000003">
    <ele>159.15</ele>
   </trkpt>
   <trkpt lat="54.78388" lon="25.316940000000002">
    <ele>159.39000000000001</ele>
   </trkpt>
   <trkpt lat="54.783770000000004" lon="25.31688">
    <ele>159.52</ele>
   </trkpt>
   <trkpt lat="54.783590000000004" lon="25.31668">
    <ele>159.47</ele>
   </trkpt>
   <trkpt lat="54.783300000000004" lon="25.316470000000002">
    <ele>158.81</ele>
   </trkpt>
   <trkpt lat="54.783120000000004" lon="25.316270000000003">
    <ele>155.87</ele>
   </trkpt>
   <trkpt lat="54.78307" lon="25.31613">
    <ele>155.87</ele>
   </trkpt>
   <trkpt lat="54.78287" lon="25.316280000000003">
    <ele>155.72000000000003</ele>
   </trkpt>
   <trkpt lat="54.7828" lon="25.3164">
    <ele>155.63000000000002</ele>
   </trkpt>
   <trkpt lat="54.78266000000001" lon="25.316530000000004">
    <ele>155.59</ele>
   </trkpt>
   <trkpt lat="54.78257000000001" lon="25.31651">
    <ele>155.75</ele>
   </trkpt>
   <trkpt lat="54.782410000000006" lon="25.31632">
    <ele>155.8</ele>
   </trkpt>
   <trkpt lat="54.78224" lon="25.316530000000004">
    <ele>154.46</ele>
   </trkpt>
   <trkpt lat="54.78199000000001" lon="25.31708">
    <ele>153.29000000000002</ele>
   </trkpt>
   <trkpt lat="54.781960000000005" lon="25.317190000000004">
    <ele>152.73</ele>
   </trkpt>
   <trkpt lat="54.78195" lon="25.31746">
    <ele>152.53</ele>
   </trkpt>
   <trkpt lat="54.78179000000001" lon="25.31772">
    <ele>152.4</ele>
   </trkpt>
   <trkpt lat="54.781195002927895" lon="25.31855001207692">
    <ele>152.4</ele>
   </trkpt>
   <trkpt lat="54.78060000000001" lon="25.319380000000002">
    <ele>153.64</ele>
   </trkpt>
   <trkpt lat="54.78011000000001" lon="25.320020000000003">
    <ele>153.64</ele>
   </trkpt>
   <trkpt lat="54.77995000000001" lon="25.319660000000002">
    <ele>150.72000000000003</ele>
   </trkpt>
   <trkpt lat="54.779900000000005" lon="25.3194">
    <ele>150.85000000000002</ele>
   </trkpt>
   <trkpt lat="54.77985" lon="25.318710000000003">
    <ele>150.49</ele>
   </trkpt>
   <trkpt lat="54.77967" lon="25.3181">
    <ele>151.98</ele>
   </trkpt>
   <trkpt lat="54.77966000000001" lon="25.317770000000003">
    <ele>152.12</ele>
   </trkpt>
   <trkpt lat="54.779560000000004" lon="25.317390000000003">
    <ele>153.00000000000003</ele>
   </trkpt>
   <trkpt lat="54.779500000000006" lon="25.3166">
    <ele>152.53</ele>
   </trkpt>
   <trkpt lat="54.77937000000001" lon="25.315810000000003">
    <ele>149.94000000000003</ele>
   </trkpt>
   <trkpt lat="54.77931" lon="25.31567">
    <ele>149.21</ele>
   </trkpt>
   <trkpt lat="54.77922" lon="25.31568">
    <ele>149.21</ele>
   </trkpt>
   <trkpt lat="54.77886" lon="25.315880000000003">
    <ele>152.08</ele>
   </trkpt>
   <trkpt lat="54.77854000000001" lon="25.316000000000003">
    <ele>154.39</ele>
   </trkpt>
   <trkpt lat="54.778330000000004" lon="25.31615">
    <ele>156.67</ele>
   </trkpt>
   <trkpt lat="54.77803" lon="25.315830000000002">
    <ele>154.42</ele>
   </trkpt>
   <trkpt lat="54.777820000000006" lon="25.316390000000002">
    <ele>155.5</ele>
   </trkpt>
   <trkpt lat="54.777190000000004" lon="25.316910000000004">
    <ele>154.52</ele>
   </trkpt>
   <trkpt lat="54.776900000000005" lon="25.31696">
    <ele>153.84</ele>
   </trkpt>
   <trkpt lat="54.77651" lon="25.316950000000002">
    <ele>153.88000000000002</ele>
   </trkpt>
   <trkpt lat="54.77615" lon="25.316860000000002">
    <ele>152.61</ele>
   </trkpt>
   <trkpt lat="54.776030000000006" lon="25.31679">
    <ele>152.61</ele>
   </trkpt>
   <trkpt lat="54.77601000000001" lon="25.316540000000003">
    <ele>152.2</ele>
   </trkpt>
   <trkpt lat="54.77604" lon="25.316200000000002">
    <ele>150.85000000000002</ele>
   </trkpt>
   <trkpt lat="54.77613" lon="25.315690000000004">
    <ele>148.36</ele>
   </trkpt>
   <trkpt lat="54.776050000000005" lon="25.314850000000003">
    <ele>143.51</ele>
   </trkpt>
   <trkpt lat="54.77606" lon="25.314690000000002">
    <ele>151.96</ele>
   </trkpt>
   <trkpt lat="54.77593" lon="25.31465">
    <ele>151.33</ele>
   </trkpt>
   <trkpt lat="54.775850000000005" lon="25.31454">
    <ele>150.51</ele>
   </trkpt>
   <trkpt lat="54.775760000000005" lon="25.31446">
    <ele>149.88000000000002</ele>
   </trkpt>
   <trkpt lat="54.775470000000006" lon="25.31453">
    <ele>149.8</ele>
   </trkpt>
   <trkpt lat="54.77528" lon="25.314610000000002">
    <ele>149.91000000000003</ele>
   </trkpt>
   <trkpt lat="54.775180000000006" lon="25.314600000000002">
    <ele>149.91000000000003</ele>
   </trkpt>
   <trkpt lat="54.77508" lon="25.31455">
    <ele>149.26</ele>
   </trkpt>
   <trkpt lat="54.77499" lon="25.31444">
    <ele>148.73</ele>
   </trkpt>
   <trkpt lat="54.77492" lon="25.314300000000003">
    <ele>147.83</ele>
   </trkpt>
   <trkpt lat="54.77487000000001" lon="25.31408">
    <ele>146.83</ele>
   </trkpt>
   <trkpt lat="54.77485000000001" lon="25.313900000000004">
    <ele>146.83</ele>
   </trkpt>
   <trkpt lat="54.7747" lon="25.313640000000003">
    <ele>144.54</ele>
   </trkpt>
   <trkpt lat="54.77465" lon="25.3135">
    <ele>143.77</ele>
   </trkpt>
   <trkpt lat="54.77463" lon="25.31322">
    <ele>139.19</ele>
   </trkpt>
   <trkpt lat="54.77413000000001" lon="25.31322">
    <ele>138.28</ele>
   </trkpt>
   <trkpt lat="54.773920000000004" lon="25.31332">
    <ele>138.42000000000002</ele>
   </trkpt>
   <trkpt lat="54.77369" lon="25.313250000000004">
    <ele>139.09</ele>
   </trkpt>
   <trkpt lat="54.77338" lon="25.313380000000002">
    <ele>139.64000000000001</ele>
   </trkpt>
   <trkpt lat="54.773210000000006" lon="25.313530000000004">
    <ele>139.38</ele>
   </trkpt>
   <trkpt lat="54.773050000000005" lon="25.31351">
    <ele>138.70000000000002</ele>
   </trkpt>
   <trkpt lat="54.77277" lon="25.313340000000004">
    <ele>138.47</ele>
   </trkpt>
   <trkpt lat="54.77262" lon="25.3134">
    <ele>138.36</ele>
   </trkpt>
   <trkpt lat="54.77243000000001" lon="25.3136">
    <ele>138.07</ele>
   </trkpt>
   <trkpt lat="54.772240000000004" lon="25.314030000000002">
    <ele>137.03</ele>
   </trkpt>
   <trkpt lat="54.772020000000005" lon="25.31483">
    <ele>136.82000000000002</ele>
   </trkpt>
   <trkpt lat="54.771420000000006" lon="25.315500000000004">
    <ele>139.13</ele>
   </trkpt>
   <trkpt lat="54.770860000000006" lon="25.314850000000003">
    <ele>137.67000000000002</ele>
   </trkpt>
   <trkpt lat="54.77051" lon="25.31452">
    <ele>138.04000000000002</ele>
   </trkpt>
   <trkpt lat="54.77038" lon="25.314100000000003">
    <ele>137.54000000000002</ele>
   </trkpt>
   <trkpt lat="54.77019000000001" lon="25.31321">
    <ele>137.72</ele>
   </trkpt>
   <trkpt lat="54.770160000000004" lon="25.31274">
    <ele>138.06</ele>
   </trkpt>
   <trkpt lat="54.770210000000006" lon="25.312120000000004">
    <ele>138.02</ele>
   </trkpt>
   <trkpt lat="54.770410000000005" lon="25.311670000000003">
    <ele>137.4</ele>
   </trkpt>
   <trkpt lat="54.77047" lon="25.31162">
    <ele>137.42000000000002</ele>
   </trkpt>
   <trkpt lat="54.770950000000006" lon="25.310650000000003">
    <ele>138.34</ele>
   </trkpt>
   <trkpt lat="54.77103" lon="25.309980000000003">
    <ele>138.59</ele>
   </trkpt>
   <trkpt lat="54.77105" lon="25.30873">
    <ele>141.38</ele>
   </trkpt>
   <trkpt lat="54.771040000000006" lon="25.30873">
    <ele>141.35</ele>
   </trkpt>
   <trkpt lat="54.77042" lon="25.308510000000002">
    <ele>139.89000000000001</ele>
   </trkpt>
   <trkpt lat="54.76999000000001" lon="25.30845">
    <ele>139.89000000000001</ele>
   </trkpt>
   <trkpt lat="54.76964" lon="25.30844">
    <ele>139.76000000000002</ele>
   </trkpt>
   <trkpt lat="54.76932000000001" lon="25.308600000000002">
    <ele>138.81</ele>
   </trkpt>
   <trkpt lat="54.768980000000006" lon="25.30891">
    <ele>138.75</ele>
   </trkpt>
   <trkpt lat="54.76876000000001" lon="25.309350000000002">
    <ele>146.83</ele>
   </trkpt>
   <trkpt lat="54.76865" lon="25.30919">
    <ele>147.52</ele>
   </trkpt>
   <trkpt lat="54.768390000000004" lon="25.309040000000003">
    <ele>148.14000000000001</ele>
   </trkpt>
   <trkpt lat="54.768010000000004" lon="25.308960000000003">
    <ele>149.66000000000003</ele>
   </trkpt>
   <trkpt lat="54.76778" lon="25.308880000000002">
    <ele>150.58</ele>
   </trkpt>
   <trkpt lat="54.76767" lon="25.308790000000002">
    <ele>151.07</ele>
   </trkpt>
   <trkpt lat="54.7674" lon="25.30844">
    <ele>151.47000000000003</ele>
   </trkpt>
   <trkpt lat="54.76702" lon="25.30814">
    <ele>150.46</ele>
   </trkpt>
   <trkpt lat="54.766760000000005" lon="25.307650000000002">
    <ele>148.46</ele>
   </trkpt>
   <trkpt lat="54.766380000000005" lon="25.30683">
    <ele>145.99</ele>
   </trkpt>
   <trkpt lat="54.76621" lon="25.306590000000003">
    <ele>144.85</ele>
   </trkpt>
   <trkpt lat="54.766160000000006" lon="25.30676">
    <ele>144.67000000000002</ele>
   </trkpt>
   <trkpt lat="54.76608" lon="25.306900000000002">
    <ele>144.23000000000002</ele>
   </trkpt>
   <trkpt lat="54.76585000000001" lon="25.30713">
    <ele>142.15</ele>
   </trkpt>
   <trkpt lat="54.76576000000001" lon="25.3072">
    <ele>142.15</ele>
   </trkpt>
   <trkpt lat="54.765750000000004" lon="25.307380000000002">
    <ele>142.28</ele>
   </trkpt>
   <trkpt lat="54.76587000000001" lon="25.307920000000003">
    <ele>143.82</ele>
   </trkpt>
   <trkpt lat="54.76588" lon="25.308110000000003">
    <ele>144.04</ele>
   </trkpt>
   <trkpt lat="54.76581" lon="25.30824">
    <ele>143.51</ele>
   </trkpt>
   <trkpt lat="54.765600000000006" lon="25.308400000000002">
    <ele>141.75</ele>
   </trkpt>
   <trkpt lat="54.76561" lon="25.30919">
    <ele>137.32</ele>
   </trkpt>
   <trkpt lat="54.76473500040355" lon="25.3094400053633">
    <ele>136.63</ele>
   </trkpt>
   <trkpt lat="54.76386" lon="25.309690000000003">
    <ele>136.41</ele>
   </trkpt>
   <trkpt lat="54.76334499998005" lon="25.309604998910206">
    <ele>137.26000000000002</ele>
   </trkpt>
   <trkpt lat="54.76283" lon="25.309520000000003">
    <ele>136.18</ele>
   </trkpt>
   <trkpt lat="54.762840000000004" lon="25.309520000000003">
    <ele>142.83</ele>
   </trkpt>
   <trkpt lat="54.76281" lon="25.30992">
    <ele>145.82</ele>
   </trkpt>
   <trkpt lat="54.76287000000001" lon="25.310270000000003">
    <ele>147.64000000000001</ele>
   </trkpt>
   <trkpt lat="54.762980000000006" lon="25.310530000000004">
    <ele>148.07</ele>
   </trkpt>
   <trkpt lat="54.76303000000001" lon="25.310720000000003">
    <ele>148.19000000000003</ele>
   </trkpt>
   <trkpt lat="54.763160000000006" lon="25.31105">
    <ele>148.22000000000003</ele>
   </trkpt>
   <trkpt lat="54.76355" lon="25.311650000000004">
    <ele>148.28000000000003</ele>
   </trkpt>
   <trkpt lat="54.76379000000001" lon="25.31192">
    <ele>147.70000000000002</ele>
   </trkpt>
   <trkpt lat="54.76388000000001" lon="25.311970000000002">
    <ele>147.70000000000002</ele>
   </trkpt>
   <trkpt lat="54.76406000000001" lon="25.31221">
    <ele>146.97000000000003</ele>
   </trkpt>
   <trkpt lat="54.76424000000001" lon="25.312310000000004">
    <ele>145.14000000000001</ele>
   </trkpt>
   <trkpt lat="54.764410000000005" lon="25.312430000000003">
    <ele>143.41</ele>
   </trkpt>
   <trkpt lat="54.7646" lon="25.312520000000003">
    <ele>134.52</ele>
   </trkpt>
   <trkpt lat="54.764680000000006" lon="25.312600000000003">
    <ele>132.98999999999998</ele>
   </trkpt>
   <trkpt lat="54.7648" lon="25.312870000000004">
    <ele>132.48000000000002</ele>
   </trkpt>
   <trkpt lat="54.76482000000001" lon="25.31321">
    <ele>132.46</ele>
   </trkpt>
   <trkpt lat="54.764920000000004" lon="25.31349">
    <ele>132.48000000000002</ele>
   </trkpt>
   <trkpt lat="54.764990000000004" lon="25.3136">
    <ele>132.48000000000002</ele>
   </trkpt>
   <trkpt lat="54.76518000000001" lon="25.313750000000002">
    <ele>132.47</ele>
   </trkpt>
   <trkpt lat="54.765370000000004" lon="25.314020000000003">
    <ele>135.51000000000002</ele>
   </trkpt>
   <trkpt lat="54.76549000000001" lon="25.31399">
    <ele>135.75</ele>
   </trkpt>
   <trkpt lat="54.765710000000006" lon="25.314030000000002">
    <ele>139.28</ele>
   </trkpt>
   <trkpt lat="54.765820000000005" lon="25.314010000000003">
    <ele>139.55</ele>
   </trkpt>
   <trkpt lat="54.765910000000005" lon="25.31396">
    <ele>138.90000000000003</ele>
   </trkpt>
   <trkpt lat="54.766110000000005" lon="25.31389">
    <ele>137.28</ele>
   </trkpt>
   <trkpt lat="54.766220000000004" lon="25.31388">
    <ele>136.93000000000004</ele>
   </trkpt>
   <trkpt lat="54.76632000000001" lon="25.313910000000003">
    <ele>136.71</ele>
   </trkpt>
   <trkpt lat="54.76652000000001" lon="25.31398">
    <ele>137.20000000000002</ele>
   </trkpt>
   <trkpt lat="54.76661000000001" lon="25.314040000000002">
    <ele>137.5</ele>
   </trkpt>
   <trkpt lat="54.766980000000004" lon="25.314420000000002">
    <ele>140.20000000000002</ele>
   </trkpt>
   <trkpt lat="54.76713" lon="25.31463">
    <ele>141.39000000000001</ele>
   </trkpt>
   <trkpt lat="54.767230000000005" lon="25.31465">
    <ele>141.52</ele>
   </trkpt>
   <trkpt lat="54.76738" lon="25.314610000000002">
    <ele>141.33</ele>
   </trkpt>
   <trkpt lat="54.76747" lon="25.314660000000003">
    <ele>141.67000000000002</ele>
   </trkpt>
   <trkpt lat="54.767570000000006" lon="25.314610000000002">
    <ele>141.79</ele>
   </trkpt>
   <trkpt lat="54.767770000000006" lon="25.314610000000002">
    <ele>142.69</ele>
   </trkpt>
   <trkpt lat="54.767860000000006" lon="25.314790000000002">
    <ele>135.93</ele>
   </trkpt>
   <trkpt lat="54.767900000000004" lon="25.31474">
    <ele>135.93</ele>
   </trkpt>
   <trkpt lat="54.768040000000006" lon="25.314700000000002">
    <ele>135.99</ele>
   </trkpt>
   <trkpt lat="54.76856000000001" lon="25.315060000000003">
    <ele>138.03</ele>
   </trkpt>
   <trkpt lat="54.76879" lon="25.31537">
    <ele>138.22</ele>
   </trkpt>
   <trkpt lat="54.7689" lon="25.3154">
    <ele>137.70000000000002</ele>
   </trkpt>
   <trkpt lat="54.76906" lon="25.315500000000004">
    <ele>146.24</ele>
   </trkpt>
   <trkpt lat="54.76903000000001" lon="25.31565">
    <ele>146.70000000000002</ele>
   </trkpt>
   <trkpt lat="54.769070000000006" lon="25.315890000000003">
    <ele>146.98</ele>
   </trkpt>
   <trkpt lat="54.76916000000001" lon="25.316190000000002">
    <ele>147.07</ele>
   </trkpt>
   <trkpt lat="54.76944" lon="25.316660000000002">
    <ele>145.81000000000003</ele>
   </trkpt>
   <trkpt lat="54.76955" lon="25.31671">
    <ele>145.19</ele>
   </trkpt>
   <trkpt lat="54.76963000000001" lon="25.31679">
    <ele>144.62</ele>
   </trkpt>
   <trkpt lat="54.769890000000004" lon="25.31727">
    <ele>145.78000000000003</ele>
   </trkpt>
   <trkpt lat="54.76999000000001" lon="25.31737">
    <ele>146.27</ele>
   </trkpt>
   <trkpt lat="54.770410000000005" lon="25.317610000000002">
    <ele>148.81000000000003</ele>
   </trkpt>
   <trkpt lat="54.770480000000006" lon="25.3179">
    <ele>150.23</ele>
   </trkpt>
   <trkpt lat="54.770860000000006" lon="25.317980000000002">
    <ele>151.7</ele>
   </trkpt>
   <trkpt lat="54.770770000000006" lon="25.318780000000004">
    <ele>143.65</ele>
   </trkpt>
   <trkpt lat="54.77075000000001" lon="25.319390000000002">
    <ele>146.68</ele>
   </trkpt>
   <trkpt lat="54.77084000000001" lon="25.320020000000003">
    <ele>148.92000000000002</ele>
   </trkpt>
   <trkpt lat="54.77085" lon="25.321080000000002">
    <ele>149.45</ele>
   </trkpt>
   <trkpt lat="54.77094" lon="25.321720000000003">
    <ele>148.83</ele>
   </trkpt>
   <trkpt lat="54.770830000000004" lon="25.322860000000002">
    <ele>146.6</ele>
   </trkpt>
   <trkpt lat="54.77061500281749" lon="25.323685004311834">
    <ele>147.01</ele>
   </trkpt>
   <trkpt lat="54.7704" lon="25.324510000000004">
    <ele>146.23</ele>
   </trkpt>
   <trkpt lat="54.77035000000001" lon="25.324630000000003">
    <ele>154.93</ele>
   </trkpt>
   <trkpt lat="54.770770000000006" lon="25.325110000000002">
    <ele>157.51000000000002</ele>
   </trkpt>
   <trkpt lat="54.77074" lon="25.325270000000003">
    <ele>156.75</ele>
   </trkpt>
   <trkpt lat="54.77078" lon="25.32541">
    <ele>156.82000000000002</ele>
   </trkpt>
   <trkpt lat="54.770770000000006" lon="25.325580000000002">
    <ele>156.26000000000002</ele>
   </trkpt>
   <trkpt lat="54.7708" lon="25.325730000000004">
    <ele>155.89</ele>
   </trkpt>
   <trkpt lat="54.77100000000001" lon="25.326100000000004">
    <ele>156.42</ele>
   </trkpt>
   <trkpt lat="54.77127" lon="25.326330000000002">
    <ele>157.98000000000002</ele>
   </trkpt>
   <trkpt lat="54.77132" lon="25.326670000000004">
    <ele>147.96</ele>
   </trkpt>
   <trkpt lat="54.77141" lon="25.32663">
    <ele>148.61</ele>
   </trkpt>
   <trkpt lat="54.772050000099455" lon="25.32645000285678">
    <ele>151.88000000000002</ele>
   </trkpt>
   <trkpt lat="54.772690000000004" lon="25.32627">
    <ele>164.76000000000002</ele>
   </trkpt>
   <trkpt lat="54.772710000000004" lon="25.326430000000002">
    <ele>164.76000000000002</ele>
   </trkpt>
   <trkpt lat="54.772710000000004" lon="25.326950000000004">
    <ele>164.28</ele>
   </trkpt>
   <trkpt lat="54.772650000000006" lon="25.327270000000002">
    <ele>163.53</ele>
   </trkpt>
   <trkpt lat="54.77266" lon="25.327440000000003">
    <ele>163.26000000000002</ele>
   </trkpt>
   <trkpt lat="54.773030000000006" lon="25.328310000000002">
    <ele>164.02</ele>
   </trkpt>
   <trkpt lat="54.77311" lon="25.328550000000003">
    <ele>163.09</ele>
   </trkpt>
   <trkpt lat="54.77344000000001" lon="25.328950000000003">
    <ele>159.25</ele>
   </trkpt>
   <trkpt lat="54.77366000000001" lon="25.32909">
    <ele>157.65</ele>
   </trkpt>
   <trkpt lat="54.773970000000006" lon="25.329140000000002">
    <ele>156.95000000000002</ele>
   </trkpt>
   <trkpt lat="54.774060000000006" lon="25.329120000000003">
    <ele>156.95000000000002</ele>
   </trkpt>
   <trkpt lat="54.77450000331531" lon="25.328215009950533">
    <ele>163.76000000000002</ele>
   </trkpt>
   <trkpt lat="54.77494000000001" lon="25.32731">
    <ele>163.86</ele>
   </trkpt>
   <trkpt lat="54.774860000000004" lon="25.327080000000002">
    <ele>164.51000000000002</ele>
   </trkpt>
   <trkpt lat="54.774840000000005" lon="25.32691">
    <ele>164.87</ele>
   </trkpt>
   <trkpt lat="54.774910000000006" lon="25.326610000000002">
    <ele>165.16</ele>
   </trkpt>
   <trkpt lat="54.775000000000006" lon="25.326590000000003">
    <ele>164.82000000000002</ele>
   </trkpt>
   <trkpt lat="54.775090000000006" lon="25.326680000000003">
    <ele>164.37</ele>
   </trkpt>
   <trkpt lat="54.77517" lon="25.327060000000003">
    <ele>163.37</ele>
   </trkpt>
   <trkpt lat="54.775400000000005" lon="25.327430000000003">
    <ele>161.66000000000003</ele>
   </trkpt>
   <trkpt lat="54.775740000000006" lon="25.327890000000004">
    <ele>159.0</ele>
   </trkpt>
   <trkpt lat="54.775920000000006" lon="25.32804">
    <ele>157.22000000000003</ele>
   </trkpt>
   <trkpt lat="54.77629" lon="25.32842">
    <ele>151.54</ele>
   </trkpt>
   <trkpt lat="54.776390000000006" lon="25.328590000000002">
    <ele>148.18</ele>
   </trkpt>
   <trkpt lat="54.77644000000001" lon="25.328730000000004">
    <ele>144.87</ele>
   </trkpt>
   <trkpt lat="54.776590000000006" lon="25.32956">
    <ele>128.09</ele>
   </trkpt>
   <trkpt lat="54.77669" lon="25.329610000000002">
    <ele>126.07000000000001</ele>
   </trkpt>
   <trkpt lat="54.77682000000001" lon="25.32946">
    <ele>126.88000000000002</ele>
   </trkpt>
   <trkpt lat="54.77684000000001" lon="25.329300000000003">
    <ele>129.51000000000002</ele>
   </trkpt>
   <trkpt lat="54.776900000000005" lon="25.32917">
    <ele>130.97</ele>
   </trkpt>
   <trkpt lat="54.776990000000005" lon="25.32889">
    <ele>134.16</ele>
   </trkpt>
   <trkpt lat="54.77693000000001" lon="25.328760000000003">
    <ele>137.39000000000001</ele>
   </trkpt>
   <trkpt lat="54.77693000000001" lon="25.3286">
    <ele>139.31</ele>
   </trkpt>
   <trkpt lat="54.77696" lon="25.32842">
    <ele>141.41</ele>
   </trkpt>
   <trkpt lat="54.777060000000006" lon="25.32841">
    <ele>139.59</ele>
   </trkpt>
   <trkpt lat="54.77714" lon="25.32833">
    <ele>139.41</ele>
   </trkpt>
   <trkpt lat="54.777210000000004" lon="25.328210000000002">
    <ele>139.29000000000002</ele>
   </trkpt>
   <trkpt lat="54.777330000000006" lon="25.328110000000002">
    <ele>139.08</ele>
   </trkpt>
   <trkpt lat="54.77743" lon="25.328090000000003">
    <ele>137.49</ele>
   </trkpt>
   <trkpt lat="54.77745" lon="25.327920000000002">
    <ele>139.78</ele>
   </trkpt>
   <trkpt lat="54.777440000000006" lon="25.3276">
    <ele>145.41</ele>
   </trkpt>
   <trkpt lat="54.77738000000001" lon="25.32712">
    <ele>152.82000000000002</ele>
   </trkpt>
   <trkpt lat="54.77723" lon="25.32672">
    <ele>158.26000000000002</ele>
   </trkpt>
   <trkpt lat="54.777210000000004" lon="25.32654">
    <ele>159.5</ele>
   </trkpt>
   <trkpt lat="54.777150000000006" lon="25.326410000000003">
    <ele>160.5</ele>
   </trkpt>
   <trkpt lat="54.777080000000005" lon="25.32591">
    <ele>162.17000000000002</ele>
   </trkpt>
   <trkpt lat="54.777080000000005" lon="25.32572">
    <ele>163.02</ele>
   </trkpt>
   <trkpt lat="54.77714" lon="25.325400000000002">
    <ele>163.87</ele>
   </trkpt>
   <trkpt lat="54.777170000000005" lon="25.325080000000003">
    <ele>164.16</ele>
   </trkpt>
   <trkpt lat="54.77720000000001" lon="25.324930000000002">
    <ele>164.51000000000002</ele>
   </trkpt>
   <trkpt lat="54.777460000000005" lon="25.324700000000004">
    <ele>164.85000000000002</ele>
   </trkpt>
   <trkpt lat="54.77756" lon="25.324710000000003">
    <ele>164.73000000000002</ele>
   </trkpt>
   <trkpt lat="54.77767000000001" lon="25.324790000000004">
    <ele>164.37</ele>
   </trkpt>
   <trkpt lat="54.77779" lon="25.324920000000002">
    <ele>163.73000000000002</ele>
   </trkpt>
   <trkpt lat="54.7779" lon="25.324890000000003">
    <ele>163.51000000000002</ele>
   </trkpt>
   <trkpt lat="54.77792" lon="25.324730000000002">
    <ele>164.02</ele>
   </trkpt>
   <trkpt lat="54.77816000000001" lon="25.323950000000004">
    <ele>165.57000000000002</ele>
   </trkpt>
   <trkpt lat="54.778270000000006" lon="25.32374">
    <ele>165.82000000000002</ele>
   </trkpt>
   <trkpt lat="54.77846" lon="25.323670000000003">
    <ele>165.57000000000002</ele>
   </trkpt>
   <trkpt lat="54.778580000000005" lon="25.323700000000002">
    <ele>165.3</ele>
   </trkpt>
   <trkpt lat="54.77868" lon="25.32382">
    <ele>164.81</ele>
   </trkpt>
   <trkpt lat="54.778740000000006" lon="25.323980000000002">
    <ele>163.69</ele>
   </trkpt>
   <trkpt lat="54.77877" lon="25.324140000000003">
    <ele>163.69</ele>
   </trkpt>
   <trkpt lat="54.77879000000001" lon="25.324640000000002">
    <ele>162.14000000000001</ele>
   </trkpt>
   <trkpt lat="54.778850000000006" lon="25.32515">
    <ele>159.44000000000003</ele>
   </trkpt>
   <trkpt lat="54.77882" lon="25.32533">
    <ele>158.13000000000002</ele>
   </trkpt>
   <trkpt lat="54.77882" lon="25.325840000000003">
    <ele>152.77</ele>
   </trkpt>
   <trkpt lat="54.77893" lon="25.326330000000002">
    <ele>145.99</ele>
   </trkpt>
   <trkpt lat="54.779030000000006" lon="25.326610000000002">
    <ele>141.77</ele>
   </trkpt>
   <trkpt lat="54.779160000000005" lon="25.32674">
    <ele>138.59</ele>
   </trkpt>
   <trkpt lat="54.779250000000005" lon="25.326800000000002">
    <ele>136.77</ele>
   </trkpt>
   <trkpt lat="54.779360000000004" lon="25.326770000000003">
    <ele>136.18</ele>
   </trkpt>
   <trkpt lat="54.77976" lon="25.32647">
    <ele>136.57000000000002</ele>
   </trkpt>
   <trkpt lat="54.779860000000006" lon="25.32644">
    <ele>136.33</ele>
   </trkpt>
   <trkpt lat="54.779920000000004" lon="25.326570000000004">
    <ele>134.11</ele>
   </trkpt>
   <trkpt lat="54.780010000000004" lon="25.326580000000003">
    <ele>132.76000000000002</ele>
   </trkpt>
   <trkpt lat="54.78029000000001" lon="25.326110000000003">
    <ele>136.77</ele>
   </trkpt>
   <trkpt lat="54.78041" lon="25.326050000000002">
    <ele>136.69</ele>
   </trkpt>
   <trkpt lat="54.78051000000001" lon="25.326040000000003">
    <ele>135.76000000000002</ele>
   </trkpt>
   <trkpt lat="54.78060000000001" lon="25.32599">
    <ele>135.29000000000002</ele>
   </trkpt>
   <trkpt lat="54.78069000000001" lon="25.32569">
    <ele>137.82</ele>
   </trkpt>
   <trkpt lat="54.78060000000001" lon="25.32569">
    <ele>138.66</ele>
   </trkpt>
   <trkpt lat="54.7805" lon="25.3256">
    <ele>140.75</ele>
   </trkpt>
   <trkpt lat="54.78040000000001" lon="25.325590000000002">
    <ele>141.87000000000003</ele>
   </trkpt>
   <trkpt lat="54.780350000000006" lon="25.325380000000003">
    <ele>144.99</ele>
   </trkpt>
   <trkpt lat="54.78043" lon="25.32514">
    <ele>146.78000000000003</ele>
   </trkpt>
   <trkpt lat="54.78042000000001" lon="25.32495">
    <ele>148.28000000000003</ele>
   </trkpt>
   <trkpt lat="54.78038" lon="25.324810000000003">
    <ele>150.17000000000002</ele>
   </trkpt>
   <trkpt lat="54.780370000000005" lon="25.324640000000002">
    <ele>151.58</ele>
   </trkpt>
   <trkpt lat="54.78032" lon="25.324330000000003">
    <ele>153.9</ele>
   </trkpt>
   <trkpt lat="54.78013000000001" lon="25.323980000000002">
    <ele>157.06</ele>
   </trkpt>
   <trkpt lat="54.78005" lon="25.323900000000002">
    <ele>157.94000000000003</ele>
   </trkpt>
   <trkpt lat="54.779920000000004" lon="25.32365">
    <ele>159.68</ele>
   </trkpt>
   <trkpt lat="54.77987" lon="25.323500000000003">
    <ele>160.15</ele>
   </trkpt>
   <trkpt lat="54.77993000000001" lon="25.32336">
    <ele>159.78</ele>
   </trkpt>
   <trkpt lat="54.78002000000001" lon="25.32325">
    <ele>159.25</ele>
   </trkpt>
   <trkpt lat="54.780120000000004" lon="25.323220000000003">
    <ele>158.69000000000003</ele>
   </trkpt>
   <trkpt lat="54.780210000000004" lon="25.323220000000003">
    <ele>158.23000000000002</ele>
   </trkpt>
   <trkpt lat="54.78032" lon="25.323150000000002">
    <ele>157.69000000000003</ele>
   </trkpt>
   <trkpt lat="54.78042000000001" lon="25.323130000000003">
    <ele>157.02</ele>
   </trkpt>
   <trkpt lat="54.78052" lon="25.323130000000003">
    <ele>156.52</ele>
   </trkpt>
   <trkpt lat="54.78063" lon="25.32326">
    <ele>156.09</ele>
   </trkpt>
   <trkpt lat="54.78078000000001" lon="25.323240000000002">
    <ele>155.05</ele>
   </trkpt>
   <trkpt lat="54.78096000000001" lon="25.323480000000004">
    <ele>153.10000000000002</ele>
   </trkpt>
   <trkpt lat="54.781220000000005" lon="25.323300000000003">
    <ele>150.96</ele>
   </trkpt>
   <trkpt lat="54.781290000000006" lon="25.32318">
    <ele>150.75000000000003</ele>
   </trkpt>
   <trkpt lat="54.78128" lon="25.323010000000004">
    <ele>151.56</ele>
   </trkpt>
   <trkpt lat="54.781240000000004" lon="25.32287">
    <ele>152.13000000000002</ele>
   </trkpt>
   <trkpt lat="54.78123000000001" lon="25.32269">
    <ele>152.72000000000003</ele>
   </trkpt>
   <trkpt lat="54.7813" lon="25.32253">
    <ele>152.88000000000002</ele>
   </trkpt>
   <trkpt lat="54.781380000000006" lon="25.32243">
    <ele>152.89000000000001</ele>
   </trkpt>
   <trkpt lat="54.781420000000004" lon="25.322290000000002">
    <ele>153.19000000000003</ele>
   </trkpt>
   <trkpt lat="54.781420000000004" lon="25.321980000000003">
    <ele>150.51</ele>
   </trkpt>
   <trkpt lat="54.781800000000004" lon="25.32196">
    <ele>151.81</ele>
   </trkpt>
   <trkpt lat="54.782000000000004" lon="25.321460000000002">
    <ele>151.39000000000001</ele>
   </trkpt>
   <trkpt lat="54.782210000000006" lon="25.32139">
    <ele>148.84</ele>
   </trkpt>
   <trkpt lat="54.78222" lon="25.32139">
    <ele>148.72000000000003</ele>
   </trkpt>
   <trkpt lat="54.7824" lon="25.321430000000003">
    <ele>146.83</ele>
   </trkpt>
   <trkpt lat="54.78248000000001" lon="25.32166">
    <ele>146.24</ele>
   </trkpt>
   <trkpt lat="54.782630000000005" lon="25.322470000000003">
    <ele>142.0</ele>
   </trkpt>
   <trkpt lat="54.78275000000001" lon="25.32337">
    <ele>137.51000000000002</ele>
   </trkpt>
   <trkpt lat="54.78286000000001" lon="25.32356">
    <ele>134.04000000000002</ele>
   </trkpt>
   <trkpt lat="54.78278" lon="25.32373">
    <ele>132.92000000000002</ele>
   </trkpt>
   <trkpt lat="54.78278" lon="25.32392">
    <ele>131.36</ele>
   </trkpt>
   <trkpt lat="54.782810000000005" lon="25.324250000000003">
    <ele>129.15</ele>
   </trkpt>
   <trkpt lat="54.78275000000001" lon="25.32476">
    <ele>123.99000000000001</ele>
   </trkpt>
   <trkpt lat="54.782740000000004" lon="25.325100000000003">
    <ele>122.85000000000001</ele>
   </trkpt>
   <trkpt lat="54.7828" lon="25.32523">
    <ele>121.67000000000002</ele>
   </trkpt>
   <trkpt lat="54.782770000000006" lon="25.325280000000003">
    <ele>121.67000000000002</ele>
   </trkpt>
   <trkpt lat="54.78269" lon="25.3255">
    <ele>119.74000000000001</ele>
   </trkpt>
   <trkpt lat="54.782720000000005" lon="25.32635">
    <ele>116.32000000000001</ele>
   </trkpt>
   <trkpt lat="54.78275000000001" lon="25.326490000000003">
    <ele>116.32000000000001</ele>
   </trkpt>
   <trkpt lat="54.783030000000004" lon="25.32693">
    <ele>116.24000000000001</ele>
   </trkpt>
   <trkpt lat="54.78316" lon="25.327060000000003">
    <ele>116.34</ele>
   </trkpt>
   <trkpt lat="54.783680000000004" lon="25.327360000000002">
    <ele>116.99000000000001</ele>
   </trkpt>
   <trkpt lat="54.784150000000004" lon="25.32757">
    <ele>118.07000000000001</ele>
   </trkpt>
   <trkpt lat="54.78439" lon="25.32775">
    <ele>119.15</ele>
   </trkpt>
   <trkpt lat="54.78446" lon="25.32786">
    <ele>119.16000000000001</ele>
   </trkpt>
   <trkpt lat="54.784510000000004" lon="25.32795">
    <ele>119.12</ele>
   </trkpt>
   <trkpt lat="54.784560000000006" lon="25.328100000000003">
    <ele>119.12</ele>
   </trkpt>
   <trkpt lat="54.78459" lon="25.328270000000003">
    <ele>118.93</ele>
   </trkpt>
   <trkpt lat="54.78463500264133" lon="25.32906999928976">
    <ele>118.46000000000001</ele>
   </trkpt>
   <trkpt lat="54.78468" lon="25.329870000000003">
    <ele>117.49000000000001</ele>
   </trkpt>
   <trkpt lat="54.78472000000001" lon="25.330180000000002">
    <ele>117.32000000000001</ele>
   </trkpt>
   <trkpt lat="54.78495" lon="25.33021">
    <ele>117.06</ele>
   </trkpt>
   <trkpt lat="54.785180000000004" lon="25.32935">
    <ele>120.43</ele>
   </trkpt>
   <trkpt lat="54.78537000000001" lon="25.328860000000002">
    <ele>122.16</ele>
   </trkpt>
   <trkpt lat="54.785720000000005" lon="25.328290000000003">
    <ele>125.69000000000003</ele>
   </trkpt>
   <trkpt lat="54.78611000000001" lon="25.32757">
    <ele>129.07999999999998</ele>
   </trkpt>
   <trkpt lat="54.786300000000004" lon="25.326790000000003">
    <ele>134.28</ele>
   </trkpt>
   <trkpt lat="54.786480000000005" lon="25.325740000000003">
    <ele>129.96</ele>
   </trkpt>
   <trkpt lat="54.78658000000001" lon="25.325390000000002">
    <ele>128.44</ele>
   </trkpt>
   <trkpt lat="54.786660000000005" lon="25.325270000000003">
    <ele>128.04000000000002</ele>
   </trkpt>
   <trkpt lat="54.786840000000005" lon="25.32516">
    <ele>127.36</ele>
   </trkpt>
   <trkpt lat="54.78707000000001" lon="25.324980000000004">
    <ele>126.67</ele>
   </trkpt>
   <trkpt lat="54.78723" lon="25.324900000000003">
    <ele>126.69</ele>
   </trkpt>
   <trkpt lat="54.787330000000004" lon="25.32477">
    <ele>127.03</ele>
   </trkpt>
   <trkpt lat="54.78752000000001" lon="25.32476">
    <ele>127.89</ele>
   </trkpt>
   <trkpt lat="54.78792000000001" lon="25.324920000000002">
    <ele>130.12</ele>
   </trkpt>
   <trkpt lat="54.78822" lon="25.32487">
    <ele>133.61</ele>
   </trkpt>
   <trkpt lat="54.78864000000001" lon="25.324640000000002">
    <ele>134.92000000000002</ele>
   </trkpt>
   <trkpt lat="54.789260000000006" lon="25.324740000000002">
    <ele>136.44</ele>
   </trkpt>
   <trkpt lat="54.78954" lon="25.324610000000003">
    <ele>137.9</ele>
   </trkpt>
   <trkpt lat="54.78996000000001" lon="25.32422">
    <ele>138.48000000000002</ele>
   </trkpt>
   <trkpt lat="54.790150000000004" lon="25.32394">
    <ele>138.62</ele>
   </trkpt>
   <trkpt lat="54.79025000000001" lon="25.32373">
    <ele>139.13</ele>
   </trkpt>
   <trkpt lat="54.790330000000004" lon="25.32336">
    <ele>140.48000000000002</ele>
   </trkpt>
   <trkpt lat="54.79036000000001" lon="25.322930000000003">
    <ele>141.72</ele>
   </trkpt>
   <trkpt lat="54.79034000000001" lon="25.322560000000003">
    <ele>142.47</ele>
   </trkpt>
   <trkpt lat="54.79026" lon="25.321830000000002">
    <ele>145.04</ele>
   </trkpt>
   <trkpt lat="54.7903" lon="25.321150000000003">
    <ele>142.43</ele>
   </trkpt>
   <trkpt lat="54.79019" lon="25.319660000000002">
    <ele>138.16</ele>
   </trkpt>
   <trkpt lat="54.79018000000001" lon="25.319070000000004">
    <ele>138.02</ele>
   </trkpt>
   <trkpt lat="54.79028" lon="25.318270000000002">
    <ele>138.71</ele>
   </trkpt>
   <trkpt lat="54.790420000000005" lon="25.317680000000003">
    <ele>141.12000000000003</ele>
   </trkpt>
   <trkpt lat="54.79074000165347" lon="25.3170450050341">
    <ele>141.76000000000002</ele>
   </trkpt>
   <trkpt lat="54.79106" lon="25.31641">
    <ele>140.51000000000002</ele>
   </trkpt>
   <trkpt lat="54.791410000000006" lon="25.315790000000003">
    <ele>140.61</ele>
   </trkpt>
   <trkpt lat="54.79179500126541" lon="25.315225005449122">
    <ele>141.68</ele>
   </trkpt>
   <trkpt lat="54.79218" lon="25.314660000000003">
    <ele>141.66</ele>
   </trkpt>
   <trkpt lat="54.79245" lon="25.314140000000002">
    <ele>141.21</ele>
   </trkpt>
   <trkpt lat="54.792730000000006" lon="25.3134">
    <ele>140.44</ele>
   </trkpt>
   <trkpt lat="54.792840000000005" lon="25.31277">
    <ele>138.5</ele>
   </trkpt>
   <trkpt lat="54.792970000000004" lon="25.312260000000002">
    <ele>137.89000000000001</ele>
   </trkpt>
   <trkpt lat="54.79296000000001" lon="25.31227">
    <ele>137.89000000000001</ele>
   </trkpt>
   <trkpt lat="54.79314" lon="25.312130000000003">
    <ele>137.8</ele>
   </trkpt>
   <trkpt lat="54.79341" lon="25.31181">
    <ele>138.67000000000002</ele>
   </trkpt>
   <trkpt lat="54.793510000000005" lon="25.312070000000002">
    <ele>138.87</ele>
   </trkpt>
   <trkpt lat="54.793600000000005" lon="25.31249">
    <ele>138.21</ele>
   </trkpt>
   <trkpt lat="54.793800000000005" lon="25.312910000000002">
    <ele>137.70000000000002</ele>
   </trkpt>
   <trkpt lat="54.794090000000004" lon="25.313200000000002">
    <ele>137.6</ele>
   </trkpt>
   <trkpt lat="54.79453" lon="25.313380000000002">
    <ele>139.13</ele>
   </trkpt>
   <trkpt lat="54.79484000000001" lon="25.31361">
    <ele>138.72</ele>
   </trkpt>
   <trkpt lat="54.7948" lon="25.313250000000004">
    <ele>137.72</ele>
   </trkpt>
   <trkpt lat="54.794790000000006" lon="25.312790000000003">
    <ele>137.17000000000002</ele>
   </trkpt>
   <trkpt lat="54.794850000000004" lon="25.312240000000003">
    <ele>137.08</ele>
   </trkpt>
   <trkpt lat="54.794940000000004" lon="25.311880000000002">
    <ele>137.01000000000002</ele>
   </trkpt>
   <trkpt lat="54.79504000000001" lon="25.311190000000003">
    <ele>136.4</ele>
   </trkpt>
   <trkpt lat="54.79516" lon="25.310560000000002">
    <ele>136.4</ele>
   </trkpt>
   <trkpt lat="54.79516" lon="25.30983">
    <ele>136.56</ele>
   </trkpt>
   <trkpt lat="54.79533000000001" lon="25.309400000000004">
    <ele>136.36</ele>
   </trkpt>
   <trkpt lat="54.795570000000005" lon="25.30899">
    <ele>146.48</ele>
   </trkpt>
   <trkpt lat="54.795370000000005" lon="25.30854">
    <ele>142.73000000000002</ele>
   </trkpt>
   <trkpt lat="54.795350000000006" lon="25.30835">
    <ele>142.25</ele>
   </trkpt>
   <trkpt lat="54.795410000000004" lon="25.307830000000003">
    <ele>143.5</ele>
   </trkpt>
   <trkpt lat="54.795390000000005" lon="25.307660000000002">
    <ele>143.25</ele>
   </trkpt>
   <trkpt lat="54.795280000000005" lon="25.307340000000003">
    <ele>138.5</ele>
   </trkpt>
   <trkpt lat="54.795190000000005" lon="25.30686">
    <ele>134.37</ele>
   </trkpt>
   <trkpt lat="54.7952" lon="25.306500000000003">
    <ele>135.0</ele>
   </trkpt>
   <trkpt lat="54.79524000000001" lon="25.306330000000003">
    <ele>135.4</ele>
   </trkpt>
   <trkpt lat="54.795500000000004" lon="25.305660000000003">
    <ele>134.41</ele>
   </trkpt>
   <trkpt lat="54.79567" lon="25.305490000000002">
    <ele>135.46</ele>
   </trkpt>
   <trkpt lat="54.79583" lon="25.305270000000004">
    <ele>134.33</ele>
   </trkpt>
   <trkpt lat="54.79619" lon="25.304940000000002">
    <ele>141.05</ele>
   </trkpt>
   <trkpt lat="54.79637" lon="25.304830000000003">
    <ele>144.42000000000002</ele>
   </trkpt>
   <trkpt lat="54.796440000000004" lon="25.304710000000004">
    <ele>143.71</ele>
   </trkpt>
   <trkpt lat="54.796530000000004" lon="25.304380000000002">
    <ele>143.69</ele>
   </trkpt>
   <trkpt lat="54.79655" lon="25.3042">
    <ele>143.02</ele>
   </trkpt>
   <trkpt lat="54.79666" lon="25.303870000000003">
    <ele>141.02</ele>
   </trkpt>
   <trkpt lat="54.79684" lon="25.30319">
    <ele>135.58</ele>
   </trkpt>
   <trkpt lat="54.79708" lon="25.302860000000003">
    <ele>131.84</ele>
   </trkpt>
   <trkpt lat="54.798010000000005" lon="25.302860000000003">
    <ele>138.44</ele>
   </trkpt>
   <trkpt lat="54.798010000000005" lon="25.302570000000003">
    <ele>138.14000000000001</ele>
   </trkpt>
   <trkpt lat="54.798190000000005" lon="25.30214">
    <ele>137.41</ele>
   </trkpt>
   <trkpt lat="54.798500000000004" lon="25.301810000000003">
    <ele>137.42000000000002</ele>
   </trkpt>
   <trkpt lat="54.79885" lon="25.301830000000002">
    <ele>138.23000000000002</ele>
   </trkpt>
   <trkpt lat="54.79896" lon="25.30207">
    <ele>137.26000000000002</ele>
   </trkpt>
   <trkpt lat="54.79957" lon="25.30272">
    <ele>136.9</ele>
   </trkpt>
   <trkpt lat="54.79979" lon="25.3032">
    <ele>137.55</ele>
   </trkpt>
   <trkpt lat="54.799820000000004" lon="25.30357">
    <ele>139.62000000000003</ele>
   </trkpt>
   <trkpt lat="54.799800000000005" lon="25.303890000000003">
    <ele>142.84000000000003</ele>
   </trkpt>
   <trkpt lat="54.799890000000005" lon="25.30422">
    <ele>142.99</ele>
   </trkpt>
   <trkpt lat="54.800160000000005" lon="25.3046">
    <ele>142.9</ele>
   </trkpt>
   <trkpt lat="54.80055" lon="25.30496">
    <ele>145.22</ele>
   </trkpt>
   <trkpt lat="54.800850000000004" lon="25.30507">
    <ele>145.75000000000003</ele>
   </trkpt>
   <trkpt lat="54.801300000000005" lon="25.305020000000003">
    <ele>145.86</ele>
   </trkpt>
   <trkpt lat="54.80169000000001" lon="25.304850000000002">
    <ele>143.37000000000003</ele>
   </trkpt>
   <trkpt lat="54.80192" lon="25.30478">
    <ele>142.08</ele>
   </trkpt>
   <trkpt lat="54.802260000000004" lon="25.304520000000004">
    <ele>141.31</ele>
   </trkpt>
   <trkpt lat="54.802620000000005" lon="25.30439">
    <ele>142.47</ele>
   </trkpt>
   <trkpt lat="54.80292000000001" lon="25.30439">
    <ele>144.94</ele>
   </trkpt>
   <trkpt lat="54.803360000000005" lon="25.304250000000003">
    <ele>146.76</ele>
   </trkpt>
   <trkpt lat="54.80366000000001" lon="25.3042">
    <ele>147.41</ele>
   </trkpt>
   <trkpt lat="54.80395000000001" lon="25.30402">
    <ele>148.88</ele>
   </trkpt>
   <trkpt lat="54.80424000000001" lon="25.303990000000002">
    <ele>148.93</ele>
   </trkpt>
   <trkpt lat="54.80458" lon="25.304070000000003">
    <ele>149.34</ele>
   </trkpt>
   <trkpt lat="54.80481" lon="25.304250000000003">
    <ele>149.53000000000003</ele>
   </trkpt>
   <trkpt lat="54.80489000000001" lon="25.304570000000002">
    <ele>149.82</ele>
   </trkpt>
   <trkpt lat="54.8051" lon="25.305020000000003">
    <ele>150.47000000000003</ele>
   </trkpt>
   <trkpt lat="54.805330000000005" lon="25.30544">
    <ele>151.41000000000003</ele>
   </trkpt>
   <trkpt lat="54.80559" lon="25.305760000000003">
    <ele>152.63000000000002</ele>
   </trkpt>
   <trkpt lat="54.805600000000005" lon="25.305780000000002">
    <ele>158.91000000000003</ele>
   </trkpt>
   <trkpt lat="54.80572000000001" lon="25.306070000000002">
    <ele>158.91000000000003</ele>
   </trkpt>
   <trkpt lat="54.8057" lon="25.306340000000002">
    <ele>158.97</ele>
   </trkpt>
   <trkpt lat="54.805800000000005" lon="25.306900000000002">
    <ele>158.49</ele>
   </trkpt>
   <trkpt lat="54.80597" lon="25.307340000000003">
    <ele>157.46</ele>
   </trkpt>
   <trkpt lat="54.806110000000004" lon="25.307570000000002">
    <ele>156.85000000000002</ele>
   </trkpt>
   <trkpt lat="54.80615" lon="25.307910000000003">
    <ele>156.10000000000002</ele>
   </trkpt>
   <trkpt lat="54.80599" lon="25.30835">
    <ele>155.14</ele>
   </trkpt>
   <trkpt lat="54.80584" lon="25.30908">
    <ele>153.99</ele>
   </trkpt>
   <trkpt lat="54.805800000000005" lon="25.309430000000003">
    <ele>153.53</ele>
   </trkpt>
   <trkpt lat="54.805800000000005" lon="25.309600000000003">
    <ele>153.24</ele>
   </trkpt>
   <trkpt lat="54.80576000000001" lon="25.30976">
    <ele>153.01</ele>
   </trkpt>
   <trkpt lat="54.80565000000001" lon="25.31005">
    <ele>152.94000000000003</ele>
   </trkpt>
   <trkpt lat="54.80557" lon="25.310370000000002">
    <ele>152.89000000000001</ele>
   </trkpt>
   <trkpt lat="54.805550000000004" lon="25.310530000000004">
    <ele>152.89000000000001</ele>
   </trkpt>
   <trkpt lat="54.80559" lon="25.310830000000003">
    <ele>152.76</ele>
   </trkpt>
   <trkpt lat="54.80566" lon="25.31097">
    <ele>152.55</ele>
   </trkpt>
   <trkpt lat="54.805670000000006" lon="25.311130000000002">
    <ele>152.45</ele>
   </trkpt>
   <trkpt lat="54.80559" lon="25.31144">
    <ele>152.43</ele>
   </trkpt>
   <trkpt lat="54.80547000000001" lon="25.311700000000002">
    <ele>152.59</ele>
   </trkpt>
   <trkpt lat="54.805400000000006" lon="25.31182">
    <ele>152.7</ele>
   </trkpt>
   <trkpt lat="54.805310000000006" lon="25.311890000000002">
    <ele>153.00000000000003</ele>
   </trkpt>
   <trkpt lat="54.805220000000006" lon="25.31191">
    <ele>153.2</ele>
   </trkpt>
   <trkpt lat="54.80492" lon="25.312060000000002">
    <ele>153.84</ele>
   </trkpt>
   <trkpt lat="54.80463" lon="25.312400000000004">
    <ele>153.8</ele>
   </trkpt>
   <trkpt lat="54.80444000000001" lon="25.312520000000003">
    <ele>153.77</ele>
   </trkpt>
   <trkpt lat="54.80434" lon="25.31255">
    <ele>153.77</ele>
   </trkpt>
   <trkpt lat="54.80422000000001" lon="25.31255">
    <ele>153.72000000000003</ele>
   </trkpt>
   <trkpt lat="54.804100000000005" lon="25.312510000000003">
    <ele>153.58</ele>
   </trkpt>
   <trkpt lat="54.80402" lon="25.31237">
    <ele>153.17</ele>
   </trkpt>
   <trkpt lat="54.80395000000001" lon="25.312050000000003">
    <ele>152.59</ele>
   </trkpt>
   <trkpt lat="54.803920000000005" lon="25.311700000000002">
    <ele>152.26</ele>
   </trkpt>
   <trkpt lat="54.80393" lon="25.311310000000002">
    <ele>152.26</ele>
   </trkpt>
   <trkpt lat="54.80398" lon="25.310910000000003">
    <ele>152.62</ele>
   </trkpt>
   <trkpt lat="54.80397000000001" lon="25.3107">
    <ele>152.61</ele>
   </trkpt>
   <trkpt lat="54.803850000000004" lon="25.310180000000003">
    <ele>152.98</ele>
   </trkpt>
   <trkpt lat="54.80377000000001" lon="25.309500000000003">
    <ele>155.72000000000003</ele>
   </trkpt>
   <trkpt lat="54.80377000000001" lon="25.309">
    <ele>158.37</ele>
   </trkpt>
   <trkpt lat="54.803740000000005" lon="25.308670000000003">
    <ele>160.07000000000002</ele>
   </trkpt>
   <trkpt lat="54.803760000000004" lon="25.30835">
    <ele>161.15</ele>
   </trkpt>
   <trkpt lat="54.80371" lon="25.308190000000003">
    <ele>161.67000000000002</ele>
   </trkpt>
   <trkpt lat="54.80377000000001" lon="25.307660000000002">
    <ele>155.61</ele>
   </trkpt>
   <trkpt lat="54.803520000000006" lon="25.30759">
    <ele>155.84</ele>
   </trkpt>
   <trkpt lat="54.80312000000001" lon="25.30732">
    <ele>155.2</ele>
   </trkpt>
   <trkpt lat="54.803090000000005" lon="25.30732">
    <ele>155.2</ele>
   </trkpt>
   <trkpt lat="54.80312000000001" lon="25.30732">
    <ele>155.25</ele>
   </trkpt>
   <trkpt lat="54.80293" lon="25.30733">
    <ele>154.53</ele>
   </trkpt>
   <trkpt lat="54.802640000000004" lon="25.30761">
    <ele>153.63000000000002</ele>
   </trkpt>
   <trkpt lat="54.80245000000001" lon="25.307820000000003">
    <ele>152.29</ele>
   </trkpt>
   <trkpt lat="54.802200000000006" lon="25.307900000000004">
    <ele>151.09</ele>
   </trkpt>
   <trkpt lat="54.801840000000006" lon="25.30786">
    <ele>150.86</ele>
   </trkpt>
   <trkpt lat="54.801550000000006" lon="25.3078">
    <ele>151.44000000000003</ele>
   </trkpt>
   <trkpt lat="54.801260000000006" lon="25.307940000000002">
    <ele>151.73</ele>
   </trkpt>
   <trkpt lat="54.80111" lon="25.30807">
    <ele>151.74</ele>
   </trkpt>
   <trkpt lat="54.800790000000006" lon="25.30862">
    <ele>151.04</ele>
   </trkpt>
   <trkpt lat="54.80055" lon="25.3089">
    <ele>150.81</ele>
   </trkpt>
   <trkpt lat="54.800050000000006" lon="25.309880000000003">
    <ele>149.44000000000003</ele>
   </trkpt>
   <trkpt lat="54.799800000000005" lon="25.31022">
    <ele>149.43</ele>
   </trkpt>
   <trkpt lat="54.799580000000006" lon="25.310350000000003">
    <ele>149.78000000000003</ele>
   </trkpt>
   <trkpt lat="54.799310000000006" lon="25.310640000000003">
    <ele>150.12</ele>
   </trkpt>
   <trkpt lat="54.79903" lon="25.31069">
    <ele>150.98</ele>
   </trkpt>
   <trkpt lat="54.798680000000004" lon="25.31114">
    <ele>149.08</ele>
   </trkpt>
   <trkpt lat="54.798230000000004" lon="25.311510000000002">
    <ele>144.97</ele>
   </trkpt>
   <trkpt lat="54.79809" lon="25.31172">
    <ele>143.42000000000002</ele>
   </trkpt>
   <trkpt lat="54.79809" lon="25.31173">
    <ele>143.42000000000002</ele>
   </trkpt>
   <trkpt lat="54.79809" lon="25.311700000000002">
    <ele>143.5</ele>
   </trkpt>
   <trkpt lat="54.79809" lon="25.31172">
    <ele>143.5</ele>
   </trkpt>
   <trkpt lat="54.798190000000005" lon="25.31211">
    <ele>141.88</ele>
   </trkpt>
   <trkpt lat="54.798590000000004" lon="25.31256">
    <ele>138.58</ele>
   </trkpt>
   <trkpt lat="54.799400000000006" lon="25.312920000000002">
    <ele>143.09000000000003</ele>
   </trkpt>
   <trkpt lat="54.800050000000006" lon="25.312880000000003">
    <ele>145.38</ele>
   </trkpt>
   <trkpt lat="54.80062" lon="25.312980000000003">
    <ele>144.11</ele>
   </trkpt>
   <trkpt lat="54.801260000000006" lon="25.313560000000003">
    <ele>142.24</ele>
   </trkpt>
   <trkpt lat="54.80185" lon="25.314680000000003">
    <ele>143.32</ele>
   </trkpt>
   <trkpt lat="54.802200000000006" lon="25.31546">
    <ele>146.92000000000002</ele>
   </trkpt>
   <trkpt lat="54.80223" lon="25.31568">
    <ele>147.49</ele>
   </trkpt>
   <trkpt lat="54.802220000000005" lon="25.315700000000003">
    <ele>147.54</ele>
   </trkpt>
   <trkpt lat="54.801880000000004" lon="25.315600000000003">
    <ele>147.07</ele>
   </trkpt>
   <trkpt lat="54.80127" lon="25.31566">
    <ele>141.0</ele>
   </trkpt>
   <trkpt lat="54.80051" lon="25.315640000000002">
    <ele>138.64000000000001</ele>
   </trkpt>
   <trkpt lat="54.799730000000004" lon="25.31549">
    <ele>136.86</ele>
   </trkpt>
   <trkpt lat="54.799260000000004" lon="25.315500000000004">
    <ele>136.42000000000002</ele>
   </trkpt>
   <trkpt lat="54.799040000000005" lon="25.315780000000004">
    <ele>135.22</ele>
   </trkpt>
   <trkpt lat="54.798950000000005" lon="25.316110000000002">
    <ele>134.88</ele>
   </trkpt>
   <trkpt lat="54.798930000000006" lon="25.3166">
    <ele>135.49</ele>
   </trkpt>
   <trkpt lat="54.798790000000004" lon="25.317050000000002">
    <ele>135.82000000000002</ele>
   </trkpt>
   <trkpt lat="54.79871000000001" lon="25.317140000000002">
    <ele>135.53</ele>
   </trkpt>
   <trkpt lat="54.79851000000001" lon="25.31724">
    <ele>134.02</ele>
   </trkpt>
   <trkpt lat="54.79844000000001" lon="25.31735">
    <ele>133.8</ele>
   </trkpt>
   <trkpt lat="54.798170000000006" lon="25.31783">
    <ele>132.21</ele>
   </trkpt>
   <trkpt lat="54.798080000000006" lon="25.318170000000002">
    <ele>131.76000000000002</ele>
   </trkpt>
   <trkpt lat="54.79807" lon="25.318360000000002">
    <ele>132.34</ele>
   </trkpt>
   <trkpt lat="54.79802" lon="25.318530000000003">
    <ele>132.4</ele>
   </trkpt>
   <trkpt lat="54.797850000000004" lon="25.31877">
    <ele>131.18</ele>
   </trkpt>
   <trkpt lat="54.797760000000004" lon="25.31886">
    <ele>130.06</ele>
   </trkpt>
   <trkpt lat="54.79766000000001" lon="25.318920000000002">
    <ele>128.64000000000001</ele>
   </trkpt>
   <trkpt lat="54.79759000000001" lon="25.319020000000002">
    <ele>127.84</ele>
   </trkpt>
   <trkpt lat="54.797450000000005" lon="25.319470000000003">
    <ele>127.85000000000002</ele>
   </trkpt>
   <trkpt lat="54.797380000000004" lon="25.31978">
    <ele>127.74000000000002</ele>
   </trkpt>
   <trkpt lat="54.79739000000001" lon="25.320120000000003">
    <ele>129.38000000000002</ele>
   </trkpt>
   <trkpt lat="54.797320000000006" lon="25.320410000000003">
    <ele>129.66</ele>
   </trkpt>
   <trkpt lat="54.797230000000006" lon="25.320520000000002">
    <ele>128.69</ele>
   </trkpt>
   <trkpt lat="54.797180000000004" lon="25.320660000000004">
    <ele>128.82000000000002</ele>
   </trkpt>
   <trkpt lat="54.797140000000006" lon="25.32102">
    <ele>130.35000000000002</ele>
   </trkpt>
   <trkpt lat="54.797140000000006" lon="25.321180000000002">
    <ele>131.69</ele>
   </trkpt>
   <trkpt lat="54.79722" lon="25.32147">
    <ele>135.73000000000002</ele>
   </trkpt>
   <trkpt lat="54.79737000000001" lon="25.321270000000002">
    <ele>137.79000000000002</ele>
   </trkpt>
   <trkpt lat="54.79746" lon="25.3212">
    <ele>138.66</ele>
   </trkpt>
   <trkpt lat="54.79749" lon="25.32103">
    <ele>137.83</ele>
   </trkpt>
   <trkpt lat="54.797540000000005" lon="25.320880000000002">
    <ele>137.93000000000004</ele>
   </trkpt>
   <trkpt lat="54.797610000000006" lon="25.32073">
    <ele>138.35</ele>
   </trkpt>
   <trkpt lat="54.79769" lon="25.320610000000002">
    <ele>139.20000000000002</ele>
   </trkpt>
   <trkpt lat="54.79773" lon="25.32045">
    <ele>139.55</ele>
   </trkpt>
   <trkpt lat="54.797920000000005" lon="25.320320000000002">
    <ele>143.46</ele>
   </trkpt>
   <trkpt lat="54.798" lon="25.320220000000003">
    <ele>144.36</ele>
   </trkpt>
   <trkpt lat="54.79805" lon="25.32007">
    <ele>144.59000000000003</ele>
   </trkpt>
   <trkpt lat="54.79807" lon="25.319770000000002">
    <ele>141.33</ele>
   </trkpt>
   <trkpt lat="54.798210000000005" lon="25.3198">
    <ele>143.21</ele>
   </trkpt>
   <trkpt lat="54.79847" lon="25.31978">
    <ele>148.88</ele>
   </trkpt>
   <trkpt lat="54.798660000000005" lon="25.31998">
    <ele>152.12</ele>
   </trkpt>
   <trkpt lat="54.798880000000004" lon="25.320120000000003">
    <ele>152.78</ele>
   </trkpt>
   <trkpt lat="54.79907000000001" lon="25.320320000000002">
    <ele>152.71</ele>
   </trkpt>
   <trkpt lat="54.79876" lon="25.32149">
    <ele>152.61</ele>
   </trkpt>
   <trkpt lat="54.798700000000004" lon="25.32213">
    <ele>151.79</ele>
   </trkpt>
   <trkpt lat="54.798680000000004" lon="25.32253">
    <ele>150.28000000000003</ele>
   </trkpt>
   <trkpt lat="54.79853000000001" lon="25.322570000000002">
    <ele>155.86</ele>
   </trkpt>
   <trkpt lat="54.79843" lon="25.322630000000004">
    <ele>155.08</ele>
   </trkpt>
   <trkpt lat="54.798120000000004" lon="25.322740000000003">
    <ele>152.55</ele>
   </trkpt>
   <trkpt lat="54.797830000000005" lon="25.323010000000004">
    <ele>149.37</ele>
   </trkpt>
   <trkpt lat="54.79775000000001" lon="25.323120000000003">
    <ele>148.6</ele>
   </trkpt>
   <trkpt lat="54.79757000000001" lon="25.323240000000002">
    <ele>146.68</ele>
   </trkpt>
   <trkpt lat="54.79737000000001" lon="25.323490000000003">
    <ele>143.76</ele>
   </trkpt>
   <trkpt lat="54.797090000000004" lon="25.323760000000004">
    <ele>137.26000000000002</ele>
   </trkpt>
   <trkpt lat="54.79692000000001" lon="25.324050000000003">
    <ele>132.44</ele>
   </trkpt>
   <trkpt lat="54.79686" lon="25.3242">
    <ele>131.0</ele>
   </trkpt>
   <trkpt lat="54.79681000000001" lon="25.324360000000002">
    <ele>129.49</ele>
   </trkpt>
   <trkpt lat="54.796710000000004" lon="25.32487">
    <ele>126.23</ele>
   </trkpt>
   <trkpt lat="54.79661" lon="25.325190000000003">
    <ele>124.05000000000001</ele>
   </trkpt>
   <trkpt lat="54.796580000000006" lon="25.325360000000003">
    <ele>123.82000000000001</ele>
   </trkpt>
   <trkpt lat="54.79661" lon="25.325760000000002">
    <ele>125.09</ele>
   </trkpt>
   <trkpt lat="54.796600000000005" lon="25.32598">
    <ele>125.28</ele>
   </trkpt>
   <trkpt lat="54.796530000000004" lon="25.326220000000003">
    <ele>124.98</ele>
   </trkpt>
   <trkpt lat="54.79645000000001" lon="25.326340000000002">
    <ele>124.42000000000002</ele>
   </trkpt>
   <trkpt lat="54.796200000000006" lon="25.326670000000004">
    <ele>123.87</ele>
   </trkpt>
   <trkpt lat="54.7959" lon="25.327170000000002">
    <ele>125.44000000000003</ele>
   </trkpt>
   <trkpt lat="54.79562000000001" lon="25.327510000000004">
    <ele>124.91000000000001</ele>
   </trkpt>
   <trkpt lat="54.795260000000006" lon="25.32813">
    <ele>126.26</ele>
   </trkpt>
   <trkpt lat="54.794650000000004" lon="25.3289">
    <ele>123.15</ele>
   </trkpt>
   <trkpt lat="54.794500000000006" lon="25.32917">
    <ele>130.19</ele>
   </trkpt>
   <trkpt lat="54.79459000000001" lon="25.329310000000003">
    <ele>133.94</ele>
   </trkpt>
   <trkpt lat="54.79475000000001" lon="25.329500000000003">
    <ele>139.76000000000002</ele>
   </trkpt>
   <trkpt lat="54.79489" lon="25.32982">
    <ele>145.15</ele>
   </trkpt>
   <trkpt lat="54.794880000000006" lon="25.33001">
    <ele>147.32</ele>
   </trkpt>
   <trkpt lat="54.794900000000005" lon="25.33021">
    <ele>148.74</ele>
   </trkpt>
   <trkpt lat="54.794880000000006" lon="25.33041">
    <ele>149.25000000000003</ele>
   </trkpt>
   <trkpt lat="54.794720000000005" lon="25.330710000000003">
    <ele>147.42000000000002</ele>
   </trkpt>
   <trkpt lat="54.79457000000001" lon="25.330910000000003">
    <ele>146.86</ele>
   </trkpt>
   <trkpt lat="54.794450000000005" lon="25.331200000000003">
    <ele>146.82</ele>
   </trkpt>
   <trkpt lat="54.794450000000005" lon="25.331390000000003">
    <ele>147.83</ele>
   </trkpt>
   <trkpt lat="54.79458" lon="25.33179">
    <ele>149.17000000000002</ele>
   </trkpt>
   <trkpt lat="54.79458" lon="25.331960000000002">
    <ele>149.08</ele>
   </trkpt>
   <trkpt lat="54.79451" lon="25.33207">
    <ele>149.08</ele>
   </trkpt>
   <trkpt lat="54.79437000000001" lon="25.33238">
    <ele>148.99</ele>
   </trkpt>
   <trkpt lat="54.794360000000005" lon="25.33238">
    <ele>144.47</ele>
   </trkpt>
   <trkpt lat="54.79408" lon="25.332050000000002">
    <ele>145.8</ele>
   </trkpt>
   <trkpt lat="54.79393" lon="25.3318">
    <ele>147.33</ele>
   </trkpt>
   <trkpt lat="54.79384" lon="25.33208">
    <ele>147.6</ele>
   </trkpt>
   <trkpt lat="54.79368" lon="25.33208">
    <ele>147.87</ele>
   </trkpt>
   <trkpt lat="54.79334000000001" lon="25.33266">
    <ele>148.25000000000003</ele>
   </trkpt>
   <trkpt lat="54.793040000000005" lon="25.333000000000002">
    <ele>149.15</ele>
   </trkpt>
   <trkpt lat="54.792910000000006" lon="25.333430000000003">
    <ele>148.72000000000003</ele>
   </trkpt>
   <trkpt lat="54.792820000000006" lon="25.333940000000002">
    <ele>146.27</ele>
   </trkpt>
   <trkpt lat="54.79269000000001" lon="25.33388">
    <ele>144.08</ele>
   </trkpt>
   <trkpt lat="54.7927" lon="25.33404">
    <ele>144.94</ele>
   </trkpt>
   <trkpt lat="54.79265" lon="25.334200000000003">
    <ele>144.99</ele>
   </trkpt>
   <trkpt lat="54.79251000000001" lon="25.33444">
    <ele>144.55</ele>
   </trkpt>
   <trkpt lat="54.79245" lon="25.334600000000002">
    <ele>144.93</ele>
   </trkpt>
   <trkpt lat="54.792350000000006" lon="25.33463">
    <ele>144.12</ele>
   </trkpt>
   <trkpt lat="54.79225" lon="25.33461">
    <ele>142.88</ele>
   </trkpt>
   <trkpt lat="54.79216" lon="25.33451">
    <ele>140.3</ele>
   </trkpt>
   <trkpt lat="54.791970000000006" lon="25.33444">
    <ele>136.17000000000002</ele>
   </trkpt>
   <trkpt lat="54.79182" lon="25.334360000000004">
    <ele>128.31</ele>
   </trkpt>
   <trkpt lat="54.79173" lon="25.334680000000002">
    <ele>128.12</ele>
   </trkpt>
   <trkpt lat="54.791630000000005" lon="25.334860000000003">
    <ele>128.10000000000002</ele>
   </trkpt>
   <trkpt lat="54.791140000000006" lon="25.33518">
    <ele>128.65</ele>
   </trkpt>
   <trkpt lat="54.79081000000001" lon="25.335320000000003">
    <ele>129.31</ele>
   </trkpt>
   <trkpt lat="54.79075" lon="25.33539">
    <ele>130.09</ele>
   </trkpt>
   <trkpt lat="54.7907" lon="25.33556">
    <ele>131.64000000000001</ele>
   </trkpt>
   <trkpt lat="54.7907" lon="25.335700000000003">
    <ele>132.77</ele>
   </trkpt>
   <trkpt lat="54.79072000000001" lon="25.335810000000002">
    <ele>137.23000000000002</ele>
   </trkpt>
   <trkpt lat="54.790470000000006" lon="25.33604">
    <ele>136.94</ele>
   </trkpt>
   <trkpt lat="54.790440000000004" lon="25.33621">
    <ele>138.55</ele>
   </trkpt>
   <trkpt lat="54.790440000000004" lon="25.33669">
    <ele>144.37</ele>
   </trkpt>
   <trkpt lat="54.79025000000001" lon="25.33686">
    <ele>143.05</ele>
   </trkpt>
   <trkpt lat="54.79008" lon="25.337280000000003">
    <ele>143.1</ele>
   </trkpt>
   <trkpt lat="54.79001" lon="25.337390000000003">
    <ele>142.65</ele>
   </trkpt>
   <trkpt lat="54.78996000000001" lon="25.33753">
    <ele>143.29</ele>
   </trkpt>
   <trkpt lat="54.790020000000005" lon="25.3377">
    <ele>146.64000000000001</ele>
   </trkpt>
   <trkpt lat="54.789550000000006" lon="25.338250000000002">
    <ele>146.49</ele>
   </trkpt>
   <trkpt lat="54.78909500041719" lon="25.338265000155072">
    <ele>145.81000000000003</ele>
   </trkpt>
   <trkpt lat="54.78864000000001" lon="25.33828">
    <ele>144.57</ele>
   </trkpt>
   <trkpt lat="54.788140000000006" lon="25.33827">
    <ele>137.67000000000002</ele>
   </trkpt>
   <trkpt lat="54.78795" lon="25.338040000000003">
    <ele>135.98000000000002</ele>
   </trkpt>
   <trkpt lat="54.787710000000004" lon="25.337870000000002">
    <ele>130.85000000000002</ele>
   </trkpt>
   <trkpt lat="54.787510000000005" lon="25.33783">
    <ele>129.59</ele>
   </trkpt>
   <trkpt lat="54.78734000000001" lon="25.33754">
    <ele>128.99</ele>
   </trkpt>
   <trkpt lat="54.78689000074019" lon="25.337119995340075">
    <ele>128.79999999999998</ele>
   </trkpt>
   <trkpt lat="54.786440000000006" lon="25.3367">
    <ele>129.01000000000002</ele>
   </trkpt>
   <trkpt lat="54.78593000000001" lon="25.336360000000003">
    <ele>129.04000000000002</ele>
   </trkpt>
   <trkpt lat="54.78544" lon="25.336150000000004">
    <ele>128.71</ele>
   </trkpt>
   <trkpt lat="54.785050000000005" lon="25.3362">
    <ele>128.63000000000002</ele>
   </trkpt>
   <trkpt lat="54.78484" lon="25.33613">
    <ele>128.56</ele>
   </trkpt>
   <trkpt lat="54.78436000000001" lon="25.335880000000003">
    <ele>127.21000000000001</ele>
   </trkpt>
   <trkpt lat="54.78399" lon="25.335600000000003">
    <ele>125.14</ele>
   </trkpt>
   <trkpt lat="54.78401" lon="25.335400000000003">
    <ele>123.52</ele>
   </trkpt>
   <trkpt lat="54.784040000000005" lon="25.335300000000004">
    <ele>122.97000000000001</ele>
   </trkpt>
   <trkpt lat="54.78443000000001" lon="25.334860000000003">
    <ele>118.59000000000002</ele>
   </trkpt>
  </trkseg>
 </trk>
</gpx>
