<?xml version="1.0" encoding="UTF-8"?>
<gpx creator="StravaGPX" version="1.1" xmlns="http://www.topografix.com/GPX/1/1" xmlns:xsi="http://www.w3.org/2001/XMLSchema-instance" xsi:schemaLocation="http://www.topografix.com/GPX/1/1 http://www.topografix.com/GPX/1/1/gpx.xsd">
 <metadata>
  <name>Xtrasa 2024.03.03</name>
  <author>
   <name>Laurynas Remeika</name>
   <link href="https://www.strava.com/athletes/6442387"/>
  </author>
  <copyright author="OpenStreetMap contributors">
   <year>2020</year>
   <license>https://www.openstreetmap.org/copyright</license>
  </copyright>
  <link href="https://www.strava.com/routes/3199371672055665074"/>
 </metadata>
 <trk>
  <name>Xtrasa 2024.03.03</name>
  <link href="https://www.strava.com/routes/3199371672055665074"/>
  <type>trail_running</type>
  <trkseg>
   <trkpt lat="54.6505" lon="25.183650000000004">
    <ele>118.93</ele>
   </trkpt>
   <trkpt lat="54.650580000000005" lon="25.18306">
    <ele>126.04</ele>
   </trkpt>
   <trkpt lat="54.65034000000001" lon="25.182430000000004">
    <ele>132.93</ele>
   </trkpt>
   <trkpt lat="54.650330000000004" lon="25.18212">
    <ele>148.64000000000001</ele>
   </trkpt>
   <trkpt lat="54.649950000000004" lon="25.182150000000004">
    <ele>149.14000000000001</ele>
   </trkpt>
   <trkpt lat="54.64985000000001" lon="25.182100000000002">
    <ele>150.2</ele>
   </trkpt>
   <trkpt lat="54.64978000000001" lon="25.181990000000003">
    <ele>151.75000000000003</ele>
   </trkpt>
   <trkpt lat="54.64961" lon="25.181800000000003">
    <ele>155.27</ele>
   </trkpt>
   <trkpt lat="54.64952" lon="25.18174">
    <ele>156.35000000000002</ele>
   </trkpt>
   <trkpt lat="54.649420000000006" lon="25.181700000000003">
    <ele>157.43</ele>
   </trkpt>
   <trkpt lat="54.649330000000006" lon="25.181690000000003">
    <ele>157.99</ele>
   </trkpt>
   <trkpt lat="54.64923" lon="25.18173">
    <ele>158.44000000000003</ele>
   </trkpt>
   <trkpt lat="54.649150000000006" lon="25.181790000000003">
    <ele>158.9</ele>
   </trkpt>
   <trkpt lat="54.649100000000004" lon="25.18195">
    <ele>157.68</ele>
   </trkpt>
   <trkpt lat="54.64911000000001" lon="25.18211">
    <ele>155.93</ele>
   </trkpt>
   <trkpt lat="54.64911000000001" lon="25.182450000000003">
    <ele>151.23</ele>
   </trkpt>
   <trkpt lat="54.64914" lon="25.182640000000003">
    <ele>147.87</ele>
   </trkpt>
   <trkpt lat="54.649080000000005" lon="25.182990000000004">
    <ele>143.35</ele>
   </trkpt>
   <trkpt lat="54.64896" lon="25.183290000000003">
    <ele>140.92000000000002</ele>
   </trkpt>
   <trkpt lat="54.64893000000001" lon="25.183460000000004">
    <ele>139.8</ele>
   </trkpt>
   <trkpt lat="54.64885" lon="25.183560000000003">
    <ele>140.40000000000003</ele>
   </trkpt>
   <trkpt lat="54.648770000000006" lon="25.18363">
    <ele>141.27</ele>
   </trkpt>
   <trkpt lat="54.648700000000005" lon="25.183750000000003">
    <ele>142.38</ele>
   </trkpt>
   <trkpt lat="54.64866000000001" lon="25.184060000000002">
    <ele>141.21</ele>
   </trkpt>
   <trkpt lat="54.64849" lon="25.18447">
    <ele>144.32</ele>
   </trkpt>
   <trkpt lat="54.64849" lon="25.18465">
    <ele>143.64000000000001</ele>
   </trkpt>
   <trkpt lat="54.64846000000001" lon="25.18483">
    <ele>143.4</ele>
   </trkpt>
   <trkpt lat="54.648410000000005" lon="25.184980000000003">
    <ele>144.12</ele>
   </trkpt>
   <trkpt lat="54.64835000000001" lon="25.18513">
    <ele>145.20000000000002</ele>
   </trkpt>
   <trkpt lat="54.648270000000004" lon="25.18523">
    <ele>146.16</ele>
   </trkpt>
   <trkpt lat="54.64802" lon="25.185450000000003">
    <ele>148.05</ele>
   </trkpt>
   <trkpt lat="54.64797000000001" lon="25.18558">
    <ele>146.54</ele>
   </trkpt>
   <trkpt lat="54.647940000000006" lon="25.185730000000003">
    <ele>143.65</ele>
   </trkpt>
   <trkpt lat="54.647890000000004" lon="25.18586">
    <ele>142.32</ele>
   </trkpt>
   <trkpt lat="54.64781000000001" lon="25.185940000000002">
    <ele>141.78</ele>
   </trkpt>
   <trkpt lat="54.64753" lon="25.186110000000003">
    <ele>143.3</ele>
   </trkpt>
   <trkpt lat="54.64732000000001" lon="25.18626">
    <ele>143.02</ele>
   </trkpt>
   <trkpt lat="54.647220000000004" lon="25.18624">
    <ele>145.15</ele>
   </trkpt>
   <trkpt lat="54.64712" lon="25.186190000000003">
    <ele>147.21</ele>
   </trkpt>
   <trkpt lat="54.64656000000001" lon="25.186400000000003">
    <ele>150.34</ele>
   </trkpt>
   <trkpt lat="54.64647000000001" lon="25.18635">
    <ele>151.81</ele>
   </trkpt>
   <trkpt lat="54.64640000000001" lon="25.18624">
    <ele>154.11</ele>
   </trkpt>
   <trkpt lat="54.646370000000005" lon="25.18608">
    <ele>156.18</ele>
   </trkpt>
   <trkpt lat="54.646280000000004" lon="25.18579">
    <ele>160.95000000000002</ele>
   </trkpt>
   <trkpt lat="54.64623" lon="25.185480000000002">
    <ele>165.17000000000002</ele>
   </trkpt>
   <trkpt lat="54.64616" lon="25.185360000000003">
    <ele>166.84</ele>
   </trkpt>
   <trkpt lat="54.64611000000001" lon="25.1855">
    <ele>165.39000000000001</ele>
   </trkpt>
   <trkpt lat="54.64609" lon="25.186020000000003">
    <ele>158.57000000000002</ele>
   </trkpt>
   <trkpt lat="54.64611000000001" lon="25.186180000000004">
    <ele>156.09</ele>
   </trkpt>
   <trkpt lat="54.64611000000001" lon="25.18636">
    <ele>153.64</ele>
   </trkpt>
   <trkpt lat="54.646080000000005" lon="25.18654">
    <ele>150.75000000000003</ele>
   </trkpt>
   <trkpt lat="54.64575000000001" lon="25.187230000000003">
    <ele>145.76</ele>
   </trkpt>
   <trkpt lat="54.64565" lon="25.187310000000004">
    <ele>145.37</ele>
   </trkpt>
   <trkpt lat="54.64553000000001" lon="25.18729">
    <ele>146.25000000000003</ele>
   </trkpt>
   <trkpt lat="54.645430000000005" lon="25.187250000000002">
    <ele>147.19000000000003</ele>
   </trkpt>
   <trkpt lat="54.645160000000004" lon="25.187050000000003">
    <ele>149.76</ele>
   </trkpt>
   <trkpt lat="54.645070000000004" lon="25.18701">
    <ele>150.48</ele>
   </trkpt>
   <trkpt lat="54.64497000000001" lon="25.18699">
    <ele>150.93</ele>
   </trkpt>
   <trkpt lat="54.644780000000004" lon="25.186850000000003">
    <ele>152.53</ele>
   </trkpt>
   <trkpt lat="54.64472000000001" lon="25.18674">
    <ele>153.73</ele>
   </trkpt>
   <trkpt lat="54.64462" lon="25.186660000000003">
    <ele>154.75000000000003</ele>
   </trkpt>
   <trkpt lat="54.64452000000001" lon="25.186680000000003">
    <ele>154.85000000000002</ele>
   </trkpt>
   <trkpt lat="54.64444" lon="25.186780000000002">
    <ele>154.65</ele>
   </trkpt>
   <trkpt lat="54.64446" lon="25.186950000000003">
    <ele>153.79000000000002</ele>
   </trkpt>
   <trkpt lat="54.64441000000001" lon="25.187120000000004">
    <ele>153.42</ele>
   </trkpt>
   <trkpt lat="54.6443" lon="25.18719">
    <ele>153.8</ele>
   </trkpt>
   <trkpt lat="54.6441" lon="25.187250000000002">
    <ele>154.99</ele>
   </trkpt>
   <trkpt lat="54.64401" lon="25.187330000000003">
    <ele>155.51000000000002</ele>
   </trkpt>
   <trkpt lat="54.643930000000005" lon="25.187620000000003">
    <ele>155.63000000000002</ele>
   </trkpt>
   <trkpt lat="54.64383" lon="25.187610000000003">
    <ele>156.39</ele>
   </trkpt>
   <trkpt lat="54.643640000000005" lon="25.187510000000003">
    <ele>157.9</ele>
   </trkpt>
   <trkpt lat="54.64354" lon="25.18748">
    <ele>157.9</ele>
   </trkpt>
   <trkpt lat="54.643440000000005" lon="25.187520000000003">
    <ele>160.0</ele>
   </trkpt>
   <trkpt lat="54.643350000000005" lon="25.18757">
    <ele>160.0</ele>
   </trkpt>
   <trkpt lat="54.64325" lon="25.187600000000003">
    <ele>160.87</ele>
   </trkpt>
   <trkpt lat="54.64314" lon="25.18757">
    <ele>162.04999999999998</ele>
   </trkpt>
   <trkpt lat="54.64284000000001" lon="25.187430000000003">
    <ele>165.42000000000002</ele>
   </trkpt>
   <trkpt lat="54.64273000000001" lon="25.187450000000002">
    <ele>166.62</ele>
   </trkpt>
   <trkpt lat="54.64271" lon="25.18727">
    <ele>167.05</ele>
   </trkpt>
   <trkpt lat="54.64273000000001" lon="25.18711">
    <ele>166.88</ele>
   </trkpt>
   <trkpt lat="54.64282000000001" lon="25.18681">
    <ele>165.98000000000002</ele>
   </trkpt>
   <trkpt lat="54.642990000000005" lon="25.18664">
    <ele>164.49</ele>
   </trkpt>
   <trkpt lat="54.64309000000001" lon="25.18633">
    <ele>164.69</ele>
   </trkpt>
   <trkpt lat="54.64331000000001" lon="25.185940000000002">
    <ele>165.12</ele>
   </trkpt>
   <trkpt lat="54.64340000000001" lon="25.185850000000002">
    <ele>164.98000000000002</ele>
   </trkpt>
   <trkpt lat="54.6435" lon="25.18578">
    <ele>164.67000000000002</ele>
   </trkpt>
   <trkpt lat="54.643660000000004" lon="25.18558">
    <ele>165.21</ele>
   </trkpt>
   <trkpt lat="54.643750000000004" lon="25.18552">
    <ele>165.04000000000002</ele>
   </trkpt>
   <trkpt lat="54.64383" lon="25.1854">
    <ele>165.46</ele>
   </trkpt>
   <trkpt lat="54.643840000000004" lon="25.18522">
    <ele>166.23000000000002</ele>
   </trkpt>
   <trkpt lat="54.64388" lon="25.185060000000004">
    <ele>166.57000000000002</ele>
   </trkpt>
   <trkpt lat="54.643980000000006" lon="25.18505">
    <ele>166.35000000000002</ele>
   </trkpt>
   <trkpt lat="54.64406" lon="25.18513">
    <ele>166.03</ele>
   </trkpt>
   <trkpt lat="54.64415" lon="25.185150000000004">
    <ele>165.97</ele>
   </trkpt>
   <trkpt lat="54.64423000000001" lon="25.18522">
    <ele>165.65</ele>
   </trkpt>
   <trkpt lat="54.644470000000005" lon="25.18559">
    <ele>163.67000000000002</ele>
   </trkpt>
   <trkpt lat="54.64455" lon="25.185670000000002">
    <ele>163.01000000000002</ele>
   </trkpt>
   <trkpt lat="54.644760000000005" lon="25.185640000000003">
    <ele>163.09</ele>
   </trkpt>
   <trkpt lat="54.645070000000004" lon="25.185250000000003">
    <ele>167.03</ele>
   </trkpt>
   <trkpt lat="54.645160000000004" lon="25.185200000000002">
    <ele>167.51000000000002</ele>
   </trkpt>
   <trkpt lat="54.645120000000006" lon="25.184490000000004">
    <ele>169.24</ele>
   </trkpt>
   <trkpt lat="54.64555000000001" lon="25.184420000000003">
    <ele>169.83</ele>
   </trkpt>
   <trkpt lat="54.645950000000006" lon="25.184410000000003">
    <ele>168.71000000000004</ele>
   </trkpt>
   <trkpt lat="54.64596" lon="25.184400000000004">
    <ele>168.71000000000004</ele>
   </trkpt>
   <trkpt lat="54.64612" lon="25.184130000000003">
    <ele>166.94</ele>
   </trkpt>
   <trkpt lat="54.64627" lon="25.18343">
    <ele>164.72</ele>
   </trkpt>
   <trkpt lat="54.64632" lon="25.182990000000004">
    <ele>164.56</ele>
   </trkpt>
   <trkpt lat="54.64629000000001" lon="25.18204">
    <ele>166.23000000000002</ele>
   </trkpt>
   <trkpt lat="54.64708000030415" lon="25.1818433409816">
    <ele>164.66</ele>
   </trkpt>
   <trkpt lat="54.64787000028975" lon="25.18164667431869">
    <ele>162.76000000000002</ele>
   </trkpt>
   <trkpt lat="54.64866000000001" lon="25.18145">
    <ele>161.97</ele>
   </trkpt>
   <trkpt lat="54.64904000000001" lon="25.1811">
    <ele>158.79000000000002</ele>
   </trkpt>
   <trkpt lat="54.649640000000005" lon="25.180690000000002">
    <ele>157.76000000000002</ele>
   </trkpt>
   <trkpt lat="54.64974" lon="25.180650000000004">
    <ele>157.52</ele>
   </trkpt>
   <trkpt lat="54.65028" lon="25.180580000000003">
    <ele>155.47000000000003</ele>
   </trkpt>
   <trkpt lat="54.65093" lon="25.17987">
    <ele>154.04000000000002</ele>
   </trkpt>
   <trkpt lat="54.650940000000006" lon="25.17986">
    <ele>154.04000000000002</ele>
   </trkpt>
   <trkpt lat="54.651120000000006" lon="25.17932">
    <ele>154.35000000000002</ele>
   </trkpt>
   <trkpt lat="54.65128000249497" lon="25.178540003121757">
    <ele>154.76000000000002</ele>
   </trkpt>
   <trkpt lat="54.65144000000001" lon="25.177760000000003">
    <ele>154.97000000000003</ele>
   </trkpt>
   <trkpt lat="54.651630000000004" lon="25.177880000000002">
    <ele>165.56</ele>
   </trkpt>
   <trkpt lat="54.651860000000006" lon="25.17752">
    <ele>164.42000000000002</ele>
   </trkpt>
   <trkpt lat="54.65195000000001" lon="25.17744">
    <ele>163.9</ele>
   </trkpt>
   <trkpt lat="54.65214" lon="25.17735">
    <ele>162.54999999999998</ele>
   </trkpt>
   <trkpt lat="54.652420000000006" lon="25.177550000000004">
    <ele>158.34</ele>
   </trkpt>
   <trkpt lat="54.6525" lon="25.177640000000004">
    <ele>156.68</ele>
   </trkpt>
   <trkpt lat="54.652680000000004" lon="25.178050000000002">
    <ele>150.43</ele>
   </trkpt>
   <trkpt lat="54.65299" lon="25.178610000000003">
    <ele>141.25</ele>
   </trkpt>
   <trkpt lat="54.653220000000005" lon="25.17893">
    <ele>136.51000000000002</ele>
   </trkpt>
   <trkpt lat="54.65332000000001" lon="25.17892">
    <ele>135.1</ele>
   </trkpt>
   <trkpt lat="54.65339" lon="25.17882">
    <ele>134.38</ele>
   </trkpt>
   <trkpt lat="54.65346" lon="25.178680000000004">
    <ele>134.10000000000002</ele>
   </trkpt>
   <trkpt lat="54.65353" lon="25.17838">
    <ele>134.92000000000002</ele>
   </trkpt>
   <trkpt lat="54.65354000000001" lon="25.178210000000004">
    <ele>136.12</ele>
   </trkpt>
   <trkpt lat="54.65348" lon="25.1781">
    <ele>137.17000000000002</ele>
   </trkpt>
   <trkpt lat="54.65339" lon="25.178040000000003">
    <ele>138.71</ele>
   </trkpt>
   <trkpt lat="54.653290000000005" lon="25.17801">
    <ele>139.77</ele>
   </trkpt>
   <trkpt lat="54.65321" lon="25.17792">
    <ele>141.34000000000003</ele>
   </trkpt>
   <trkpt lat="54.65317" lon="25.177760000000003">
    <ele>143.26</ele>
   </trkpt>
   <trkpt lat="54.65317" lon="25.177580000000003">
    <ele>144.47</ele>
   </trkpt>
   <trkpt lat="54.653240000000004" lon="25.177460000000004">
    <ele>144.43</ele>
   </trkpt>
   <trkpt lat="54.653330000000004" lon="25.177370000000003">
    <ele>144.03000000000003</ele>
   </trkpt>
   <trkpt lat="54.65335" lon="25.177020000000002">
    <ele>146.66</ele>
   </trkpt>
   <trkpt lat="54.65332000000001" lon="25.1767">
    <ele>150.18</ele>
   </trkpt>
   <trkpt lat="54.65335" lon="25.176540000000003">
    <ele>151.85000000000002</ele>
   </trkpt>
   <trkpt lat="54.6535" lon="25.17631">
    <ele>153.9</ele>
   </trkpt>
   <trkpt lat="54.65359" lon="25.17623">
    <ele>154.81</ele>
   </trkpt>
   <trkpt lat="54.653780000000005" lon="25.1763">
    <ele>153.31</ele>
   </trkpt>
   <trkpt lat="54.65388000000001" lon="25.176250000000003">
    <ele>153.96</ele>
   </trkpt>
   <trkpt lat="54.65395" lon="25.17613">
    <ele>155.91000000000003</ele>
   </trkpt>
   <trkpt lat="54.654030000000006" lon="25.17604">
    <ele>157.37</ele>
   </trkpt>
   <trkpt lat="54.65415" lon="25.175810000000002">
    <ele>161.57000000000002</ele>
   </trkpt>
   <trkpt lat="54.65428000000001" lon="25.17538">
    <ele>167.85000000000002</ele>
   </trkpt>
   <trkpt lat="54.654340000000005" lon="25.17526">
    <ele>169.04000000000002</ele>
   </trkpt>
   <trkpt lat="54.6544" lon="25.175150000000002">
    <ele>170.54000000000002</ele>
   </trkpt>
   <trkpt lat="54.65457000000001" lon="25.174960000000002">
    <ele>172.31</ele>
   </trkpt>
   <trkpt lat="54.654740000000004" lon="25.174830000000004">
    <ele>173.19</ele>
   </trkpt>
   <trkpt lat="54.654860000000006" lon="25.1748">
    <ele>173.5</ele>
   </trkpt>
   <trkpt lat="54.654970000000006" lon="25.17481">
    <ele>173.59000000000003</ele>
   </trkpt>
   <trkpt lat="54.65507" lon="25.17479">
    <ele>173.59000000000003</ele>
   </trkpt>
   <trkpt lat="54.65525" lon="25.174660000000003">
    <ele>173.25</ele>
   </trkpt>
   <trkpt lat="54.655550000000005" lon="25.17451">
    <ele>172.07</ele>
   </trkpt>
   <trkpt lat="54.65574" lon="25.174370000000003">
    <ele>170.62</ele>
   </trkpt>
   <trkpt lat="54.655840000000005" lon="25.174280000000003">
    <ele>168.67000000000002</ele>
   </trkpt>
   <trkpt lat="54.65603" lon="25.17414">
    <ele>167.58</ele>
   </trkpt>
   <trkpt lat="54.656130000000005" lon="25.174120000000002">
    <ele>166.76000000000002</ele>
   </trkpt>
   <trkpt lat="54.65635" lon="25.17416">
    <ele>163.97</ele>
   </trkpt>
   <trkpt lat="54.65643000000001" lon="25.17407">
    <ele>163.06</ele>
   </trkpt>
   <trkpt lat="54.65648" lon="25.17394">
    <ele>163.0</ele>
   </trkpt>
   <trkpt lat="54.65657" lon="25.17394">
    <ele>162.24</ele>
   </trkpt>
   <trkpt lat="54.65699000000001" lon="25.174290000000003">
    <ele>155.13000000000002</ele>
   </trkpt>
   <trkpt lat="54.657070000000004" lon="25.174380000000003">
    <ele>153.26</ele>
   </trkpt>
   <trkpt lat="54.657270000000004" lon="25.17479">
    <ele>144.9</ele>
   </trkpt>
   <trkpt lat="54.65735" lon="25.17471">
    <ele>144.21</ele>
   </trkpt>
   <trkpt lat="54.657500000000006" lon="25.17451">
    <ele>144.81000000000003</ele>
   </trkpt>
   <trkpt lat="54.65757000000001" lon="25.174170000000004">
    <ele>149.37</ele>
   </trkpt>
   <trkpt lat="54.657650000000004" lon="25.174080000000004">
    <ele>149.51</ele>
   </trkpt>
   <trkpt lat="54.657900000000005" lon="25.17386">
    <ele>150.33</ele>
   </trkpt>
   <trkpt lat="54.657990000000005" lon="25.17388">
    <ele>148.27</ele>
   </trkpt>
   <trkpt lat="54.658170000000005" lon="25.17406">
    <ele>142.11</ele>
   </trkpt>
   <trkpt lat="54.658240000000006" lon="25.174190000000003">
    <ele>138.03</ele>
   </trkpt>
   <trkpt lat="54.658280000000005" lon="25.174380000000003">
    <ele>133.96</ele>
   </trkpt>
   <trkpt lat="54.65822000000001" lon="25.1747">
    <ele>127.82000000000001</ele>
   </trkpt>
   <trkpt lat="54.658280000000005" lon="25.17518">
    <ele>121.09</ele>
   </trkpt>
   <trkpt lat="54.65831000000001" lon="25.17535">
    <ele>112.76</ele>
   </trkpt>
   <trkpt lat="54.65811000000001" lon="25.17574">
    <ele>109.76</ele>
   </trkpt>
   <trkpt lat="54.657970000000006" lon="25.175960000000003">
    <ele>108.37</ele>
   </trkpt>
   <trkpt lat="54.657720000000005" lon="25.17622">
    <ele>109.14000000000001</ele>
   </trkpt>
   <trkpt lat="54.657540000000004" lon="25.17632">
    <ele>112.21000000000001</ele>
   </trkpt>
   <trkpt lat="54.657360000000004" lon="25.17632">
    <ele>117.17</ele>
   </trkpt>
   <trkpt lat="54.657270000000004" lon="25.176270000000002">
    <ele>121.05</ele>
   </trkpt>
   <trkpt lat="54.657180000000004" lon="25.1763">
    <ele>122.72000000000001</ele>
   </trkpt>
   <trkpt lat="54.656800000000004" lon="25.17632">
    <ele>136.12</ele>
   </trkpt>
   <trkpt lat="54.656710000000004" lon="25.176370000000002">
    <ele>137.88</ele>
   </trkpt>
   <trkpt lat="54.656620000000004" lon="25.176350000000003">
    <ele>140.81</ele>
   </trkpt>
   <trkpt lat="54.65652000000001" lon="25.17631">
    <ele>144.0</ele>
   </trkpt>
   <trkpt lat="54.65643000000001" lon="25.1763">
    <ele>147.47000000000003</ele>
   </trkpt>
   <trkpt lat="54.65634000000001" lon="25.176330000000004">
    <ele>147.47000000000003</ele>
   </trkpt>
   <trkpt lat="54.656150000000004" lon="25.1762">
    <ele>154.29000000000002</ele>
   </trkpt>
   <trkpt lat="54.65605000000001" lon="25.17622">
    <ele>154.29000000000002</ele>
   </trkpt>
   <trkpt lat="54.656090000000006" lon="25.176740000000002">
    <ele>146.92000000000002</ele>
   </trkpt>
   <trkpt lat="54.65608" lon="25.176910000000003">
    <ele>144.41</ele>
   </trkpt>
   <trkpt lat="54.65616000000001" lon="25.17706">
    <ele>139.35</ele>
   </trkpt>
   <trkpt lat="54.65619" lon="25.177210000000002">
    <ele>136.13</ele>
   </trkpt>
   <trkpt lat="54.656110000000005" lon="25.177300000000002">
    <ele>135.6</ele>
   </trkpt>
   <trkpt lat="54.65601" lon="25.17735">
    <ele>137.11</ele>
   </trkpt>
   <trkpt lat="54.65592" lon="25.177360000000004">
    <ele>137.11</ele>
   </trkpt>
   <trkpt lat="54.65574" lon="25.177280000000003">
    <ele>141.51000000000002</ele>
   </trkpt>
   <trkpt lat="54.655680000000004" lon="25.17715">
    <ele>144.74</ele>
   </trkpt>
   <trkpt lat="54.65560000000001" lon="25.17705">
    <ele>148.29</ele>
   </trkpt>
   <trkpt lat="54.65554" lon="25.176940000000002">
    <ele>150.28000000000003</ele>
   </trkpt>
   <trkpt lat="54.65549000000001" lon="25.17678">
    <ele>153.48</ele>
   </trkpt>
   <trkpt lat="54.655330000000006" lon="25.176630000000003">
    <ele>156.98000000000002</ele>
   </trkpt>
   <trkpt lat="54.655170000000005" lon="25.1764">
    <ele>160.17000000000002</ele>
   </trkpt>
   <trkpt lat="54.655080000000005" lon="25.176330000000004">
    <ele>160.85000000000002</ele>
   </trkpt>
   <trkpt lat="54.65498" lon="25.176330000000004">
    <ele>160.85000000000002</ele>
   </trkpt>
   <trkpt lat="54.6548" lon="25.176460000000002">
    <ele>158.81</ele>
   </trkpt>
   <trkpt lat="54.65473000000001" lon="25.176560000000002">
    <ele>157.16000000000003</ele>
   </trkpt>
   <trkpt lat="54.65469" lon="25.176710000000003">
    <ele>154.86</ele>
   </trkpt>
   <trkpt lat="54.65475000000001" lon="25.17704">
    <ele>151.23</ele>
   </trkpt>
   <trkpt lat="54.654720000000005" lon="25.177220000000002">
    <ele>148.67000000000002</ele>
   </trkpt>
   <trkpt lat="54.6546" lon="25.17754">
    <ele>143.17000000000002</ele>
   </trkpt>
   <trkpt lat="54.654430000000005" lon="25.17817">
    <ele>134.39000000000001</ele>
   </trkpt>
   <trkpt lat="54.65428000000001" lon="25.178600000000003">
    <ele>129.69</ele>
   </trkpt>
   <trkpt lat="54.654270000000004" lon="25.178790000000003">
    <ele>127.9</ele>
   </trkpt>
   <trkpt lat="54.65437000000001" lon="25.17911">
    <ele>125.13000000000001</ele>
   </trkpt>
   <trkpt lat="54.65435000000001" lon="25.179620000000003">
    <ele>120.95000000000002</ele>
   </trkpt>
   <trkpt lat="54.654210000000006" lon="25.17987">
    <ele>120.83</ele>
   </trkpt>
   <trkpt lat="54.654120000000006" lon="25.18016">
    <ele>119.68</ele>
   </trkpt>
   <trkpt lat="54.654030000000006" lon="25.18026">
    <ele>119.89000000000001</ele>
   </trkpt>
   <trkpt lat="54.653940000000006" lon="25.180270000000004">
    <ele>120.84</ele>
   </trkpt>
   <trkpt lat="54.653760000000005" lon="25.18035">
    <ele>122.84</ele>
   </trkpt>
   <trkpt lat="54.65366" lon="25.180370000000003">
    <ele>123.78000000000002</ele>
   </trkpt>
   <trkpt lat="54.65357" lon="25.180370000000003">
    <ele>125.21000000000001</ele>
   </trkpt>
   <trkpt lat="54.65348" lon="25.18034">
    <ele>126.74000000000002</ele>
   </trkpt>
   <trkpt lat="54.65343000000001" lon="25.180210000000002">
    <ele>128.65</ele>
   </trkpt>
   <trkpt lat="54.653360000000006" lon="25.180110000000003">
    <ele>130.39000000000001</ele>
   </trkpt>
   <trkpt lat="54.65317" lon="25.179990000000004">
    <ele>134.19</ele>
   </trkpt>
   <trkpt lat="54.65307000000001" lon="25.17989">
    <ele>136.23000000000002</ele>
   </trkpt>
   <trkpt lat="54.65283" lon="25.17959">
    <ele>141.33</ele>
   </trkpt>
   <trkpt lat="54.652570000000004" lon="25.179380000000002">
    <ele>147.49</ele>
   </trkpt>
   <trkpt lat="54.65241" lon="25.17921">
    <ele>151.15</ele>
   </trkpt>
   <trkpt lat="54.65234" lon="25.179090000000002">
    <ele>153.12</ele>
   </trkpt>
   <trkpt lat="54.65225" lon="25.179050000000004">
    <ele>155.2</ele>
   </trkpt>
   <trkpt lat="54.652150000000006" lon="25.179060000000003">
    <ele>157.06</ele>
   </trkpt>
   <trkpt lat="54.652080000000005" lon="25.179190000000002">
    <ele>157.55</ele>
   </trkpt>
   <trkpt lat="54.652060000000006" lon="25.1797">
    <ele>156.31</ele>
   </trkpt>
   <trkpt lat="54.65204000000001" lon="25.17987">
    <ele>156.18</ele>
   </trkpt>
   <trkpt lat="54.652100000000004" lon="25.179990000000004">
    <ele>154.53</ele>
   </trkpt>
   <trkpt lat="54.652190000000004" lon="25.18005">
    <ele>152.17</ele>
   </trkpt>
   <trkpt lat="54.65227" lon="25.18014">
    <ele>150.07</ele>
   </trkpt>
   <trkpt lat="54.65261" lon="25.18062">
    <ele>138.64000000000001</ele>
   </trkpt>
   <trkpt lat="54.652680000000004" lon="25.180770000000003">
    <ele>136.09</ele>
   </trkpt>
   <trkpt lat="54.65276000000001" lon="25.18108">
    <ele>133.33</ele>
   </trkpt>
   <trkpt lat="54.652820000000006" lon="25.181250000000002">
    <ele>128.07999999999998</ele>
   </trkpt>
   <trkpt lat="54.6529" lon="25.18136">
    <ele>124.67000000000002</ele>
   </trkpt>
   <trkpt lat="54.65296000000001" lon="25.181500000000003">
    <ele>122.18</ele>
   </trkpt>
   <trkpt lat="54.65292" lon="25.18165">
    <ele>121.06000000000002</ele>
   </trkpt>
   <trkpt lat="54.65283" lon="25.181690000000003">
    <ele>123.03000000000002</ele>
   </trkpt>
   <trkpt lat="54.65276000000001" lon="25.18157">
    <ele>125.08</ele>
   </trkpt>
   <trkpt lat="54.65267000000001" lon="25.181490000000004">
    <ele>128.10999999999999</ele>
   </trkpt>
   <trkpt lat="54.652480000000004" lon="25.18147">
    <ele>132.23000000000002</ele>
   </trkpt>
   <trkpt lat="54.652420000000006" lon="25.18136">
    <ele>132.23000000000002</ele>
   </trkpt>
   <trkpt lat="54.65234" lon="25.18129">
    <ele>137.36</ele>
   </trkpt>
   <trkpt lat="54.65205" lon="25.18118">
    <ele>145.14000000000001</ele>
   </trkpt>
   <trkpt lat="54.65196" lon="25.18118">
    <ele>147.49</ele>
   </trkpt>
   <trkpt lat="54.651860000000006" lon="25.181150000000002">
    <ele>149.62</ele>
   </trkpt>
   <trkpt lat="54.65176" lon="25.181150000000002">
    <ele>151.75000000000003</ele>
   </trkpt>
   <trkpt lat="54.65157000000001" lon="25.18127">
    <ele>153.96</ele>
   </trkpt>
   <trkpt lat="54.65133" lon="25.18156">
    <ele>153.37</ele>
   </trkpt>
   <trkpt lat="54.651140000000005" lon="25.181980000000003">
    <ele>149.03000000000003</ele>
   </trkpt>
   <trkpt lat="54.651070000000004" lon="25.182280000000002">
    <ele>144.05</ele>
   </trkpt>
   <trkpt lat="54.651030000000006" lon="25.182630000000003">
    <ele>138.04000000000002</ele>
   </trkpt>
   <trkpt lat="54.65091" lon="25.182930000000002">
    <ele>133.18</ele>
   </trkpt>
   <trkpt lat="54.650850000000005" lon="25.18343">
    <ele>124.52</ele>
   </trkpt>
   <trkpt lat="54.650690000000004" lon="25.18391">
    <ele>118.12</ele>
   </trkpt>
   <trkpt lat="54.650600000000004" lon="25.18382">
    <ele>119.88000000000001</ele>
   </trkpt>
   <trkpt lat="54.65057" lon="25.183670000000003">
    <ele>122.01</ele>
   </trkpt>
   <trkpt lat="54.650560000000006" lon="25.18334">
    <ele>127.62</ele>
   </trkpt>
   <trkpt lat="54.65044" lon="25.18288">
    <ele>135.96</ele>
   </trkpt>
   <trkpt lat="54.65039" lon="25.18239">
    <ele>143.8</ele>
   </trkpt>
   <trkpt lat="54.65032000000001" lon="25.182280000000002">
    <ele>145.99</ele>
   </trkpt>
   <trkpt lat="54.65005000000001" lon="25.182160000000003">
    <ele>148.12</ele>
   </trkpt>
   <trkpt lat="54.649800000000006" lon="25.181900000000002">
    <ele>153.17</ele>
   </trkpt>
   <trkpt lat="54.64963" lon="25.18175">
    <ele>155.5</ele>
   </trkpt>
   <trkpt lat="54.64945" lon="25.181680000000004">
    <ele>157.55</ele>
   </trkpt>
   <trkpt lat="54.649240000000006" lon="25.18174">
    <ele>158.44000000000003</ele>
   </trkpt>
   <trkpt lat="54.64916" lon="25.181790000000003">
    <ele>158.69000000000003</ele>
   </trkpt>
   <trkpt lat="54.64909" lon="25.181900000000002">
    <ele>158.13000000000002</ele>
   </trkpt>
   <trkpt lat="54.649060000000006" lon="25.182250000000003">
    <ele>156.17</ele>
   </trkpt>
   <trkpt lat="54.64912" lon="25.18259">
    <ele>149.37</ele>
   </trkpt>
   <trkpt lat="54.649100000000004" lon="25.182740000000003">
    <ele>146.88</ele>
   </trkpt>
   <trkpt lat="54.64894" lon="25.18343">
    <ele>139.82</ele>
   </trkpt>
   <trkpt lat="54.64889" lon="25.183570000000003">
    <ele>139.43</ele>
   </trkpt>
   <trkpt lat="54.6488" lon="25.183660000000003">
    <ele>140.73000000000002</ele>
   </trkpt>
   <trkpt lat="54.648740000000004" lon="25.183770000000003">
    <ele>140.97</ele>
   </trkpt>
   <trkpt lat="54.64871" lon="25.18392">
    <ele>140.6</ele>
   </trkpt>
   <trkpt lat="54.64873000000001" lon="25.18409">
    <ele>139.93</ele>
   </trkpt>
   <trkpt lat="54.64866000000001" lon="25.1842">
    <ele>140.58</ele>
   </trkpt>
   <trkpt lat="54.64853" lon="25.18448">
    <ele>142.70000000000002</ele>
   </trkpt>
   <trkpt lat="54.64849" lon="25.18484">
    <ele>142.64000000000001</ele>
   </trkpt>
   <trkpt lat="54.64844000000001" lon="25.184990000000003">
    <ele>143.36</ele>
   </trkpt>
   <trkpt lat="54.64838" lon="25.18512">
    <ele>144.22</ele>
   </trkpt>
   <trkpt lat="54.648300000000006" lon="25.18522">
    <ele>145.53000000000003</ele>
   </trkpt>
   <trkpt lat="54.64813" lon="25.185350000000003">
    <ele>147.66</ele>
   </trkpt>
   <trkpt lat="54.648050000000005" lon="25.185430000000004">
    <ele>147.62</ele>
   </trkpt>
   <trkpt lat="54.647980000000004" lon="25.185750000000002">
    <ele>143.25</ele>
   </trkpt>
   <trkpt lat="54.64793" lon="25.185900000000004">
    <ele>140.72</ele>
   </trkpt>
   <trkpt lat="54.647830000000006" lon="25.18598">
    <ele>141.41</ele>
   </trkpt>
   <trkpt lat="54.647540000000006" lon="25.186130000000002">
    <ele>142.51</ele>
   </trkpt>
   <trkpt lat="54.647450000000006" lon="25.186200000000003">
    <ele>142.02</ele>
   </trkpt>
   <trkpt lat="54.647360000000006" lon="25.186220000000002">
    <ele>143.44</ele>
   </trkpt>
   <trkpt lat="54.64725000000001" lon="25.18617">
    <ele>145.57</ele>
   </trkpt>
   <trkpt lat="54.64707000000001" lon="25.186230000000002">
    <ele>147.13</ele>
   </trkpt>
   <trkpt lat="54.646980000000006" lon="25.186300000000003">
    <ele>146.98</ele>
   </trkpt>
   <trkpt lat="54.6467" lon="25.18643">
    <ele>148.19000000000003</ele>
   </trkpt>
   <trkpt lat="54.64661" lon="25.18644">
    <ele>149.23</ele>
   </trkpt>
   <trkpt lat="54.64654" lon="25.18633">
    <ele>151.23</ele>
   </trkpt>
   <trkpt lat="54.64649000000001" lon="25.186190000000003">
    <ele>154.25000000000003</ele>
   </trkpt>
   <trkpt lat="54.646420000000006" lon="25.18587">
    <ele>159.06</ele>
   </trkpt>
   <trkpt lat="54.646330000000006" lon="25.185570000000002">
    <ele>163.76000000000002</ele>
   </trkpt>
   <trkpt lat="54.646260000000005" lon="25.185440000000003">
    <ele>165.66</ele>
   </trkpt>
   <trkpt lat="54.646170000000005" lon="25.185370000000002">
    <ele>166.79000000000002</ele>
   </trkpt>
   <trkpt lat="54.64611000000001" lon="25.1855">
    <ele>165.39000000000001</ele>
   </trkpt>
   <trkpt lat="54.64612" lon="25.18568">
    <ele>163.16</ele>
   </trkpt>
   <trkpt lat="54.646100000000004" lon="25.185840000000002">
    <ele>160.91000000000003</ele>
   </trkpt>
   <trkpt lat="54.64614" lon="25.18615">
    <ele>156.01000000000002</ele>
   </trkpt>
   <trkpt lat="54.64609" lon="25.186500000000002">
    <ele>151.33</ele>
   </trkpt>
   <trkpt lat="54.64596" lon="25.186790000000002">
    <ele>148.62</ele>
   </trkpt>
   <trkpt lat="54.64585" lon="25.187130000000003">
    <ele>145.88</ele>
   </trkpt>
   <trkpt lat="54.64578" lon="25.187240000000003">
    <ele>145.13</ele>
   </trkpt>
   <trkpt lat="54.64567" lon="25.187260000000002">
    <ele>145.86</ele>
   </trkpt>
   <trkpt lat="54.64542" lon="25.18702">
    <ele>148.68</ele>
   </trkpt>
   <trkpt lat="54.64533" lon="25.186970000000002">
    <ele>149.42000000000002</ele>
   </trkpt>
   <trkpt lat="54.645140000000005" lon="25.187040000000003">
    <ele>149.87</ele>
   </trkpt>
   <trkpt lat="54.645050000000005" lon="25.187030000000004">
    <ele>150.32</ele>
   </trkpt>
   <trkpt lat="54.644850000000005" lon="25.186890000000002">
    <ele>152.03000000000003</ele>
   </trkpt>
   <trkpt lat="54.64479000000001" lon="25.186790000000002">
    <ele>153.11</ele>
   </trkpt>
   <trkpt lat="54.64470000000001" lon="25.18671">
    <ele>154.14</ele>
   </trkpt>
   <trkpt lat="54.644600000000004" lon="25.186690000000002">
    <ele>154.54000000000002</ele>
   </trkpt>
   <trkpt lat="54.64453" lon="25.186790000000002">
    <ele>154.31</ele>
   </trkpt>
   <trkpt lat="54.644420000000004" lon="25.18708">
    <ele>153.42</ele>
   </trkpt>
   <trkpt lat="54.644330000000004" lon="25.187160000000002">
    <ele>153.75000000000003</ele>
   </trkpt>
   <trkpt lat="54.64414000000001" lon="25.187230000000003">
    <ele>154.66000000000003</ele>
   </trkpt>
   <trkpt lat="54.64405000000001" lon="25.18729">
    <ele>155.24</ele>
   </trkpt>
   <trkpt lat="54.644040000000004" lon="25.187450000000002">
    <ele>154.97000000000003</ele>
   </trkpt>
   <trkpt lat="54.64399" lon="25.187600000000003">
    <ele>155.13000000000002</ele>
   </trkpt>
   <trkpt lat="54.6439" lon="25.187600000000003">
    <ele>155.88000000000002</ele>
   </trkpt>
   <trkpt lat="54.64372" lon="25.18748">
    <ele>157.23000000000002</ele>
   </trkpt>
   <trkpt lat="54.643620000000006" lon="25.18749">
    <ele>157.9</ele>
   </trkpt>
   <trkpt lat="54.64352" lon="25.18756">
    <ele>158.60999999999999</ele>
   </trkpt>
   <trkpt lat="54.64341" lon="25.187590000000004">
    <ele>159.57999999999998</ele>
   </trkpt>
   <trkpt lat="54.64321" lon="25.18757">
    <ele>161.31</ele>
   </trkpt>
   <trkpt lat="54.64312" lon="25.187510000000003">
    <ele>162.03</ele>
   </trkpt>
   <trkpt lat="54.643040000000006" lon="25.187440000000002">
    <ele>163.04000000000002</ele>
   </trkpt>
   <trkpt lat="54.642950000000006" lon="25.187450000000002">
    <ele>163.92000000000002</ele>
   </trkpt>
   <trkpt lat="54.642880000000005" lon="25.187320000000003">
    <ele>164.82000000000002</ele>
   </trkpt>
   <trkpt lat="54.64289" lon="25.187">
    <ele>165.0</ele>
   </trkpt>
   <trkpt lat="54.64291000000001" lon="25.186850000000003">
    <ele>164.86</ele>
   </trkpt>
   <trkpt lat="54.64311000000001" lon="25.18652">
    <ele>163.57000000000002</ele>
   </trkpt>
   <trkpt lat="54.643280000000004" lon="25.18608">
    <ele>164.32000000000002</ele>
   </trkpt>
   <trkpt lat="54.64336" lon="25.18599">
    <ele>164.29000000000002</ele>
   </trkpt>
   <trkpt lat="54.643530000000005" lon="25.18588">
    <ele>164.03</ele>
   </trkpt>
   <trkpt lat="54.643620000000006" lon="25.18579">
    <ele>164.05</ele>
   </trkpt>
   <trkpt lat="54.643860000000004" lon="25.18549">
    <ele>164.92000000000002</ele>
   </trkpt>
   <trkpt lat="54.64394000000001" lon="25.185450000000003">
    <ele>164.86</ele>
   </trkpt>
   <trkpt lat="54.64397" lon="25.18512">
    <ele>166.13</ele>
   </trkpt>
   <trkpt lat="54.64406" lon="25.185090000000002">
    <ele>166.13</ele>
   </trkpt>
   <trkpt lat="54.64415" lon="25.185160000000003">
    <ele>165.97</ele>
   </trkpt>
   <trkpt lat="54.644330000000004" lon="25.185160000000003">
    <ele>166.07000000000002</ele>
   </trkpt>
   <trkpt lat="54.644400000000005" lon="25.185280000000002">
    <ele>165.60000000000002</ele>
   </trkpt>
   <trkpt lat="54.644450000000006" lon="25.18542">
    <ele>164.89000000000001</ele>
   </trkpt>
   <trkpt lat="54.64453" lon="25.18552">
    <ele>164.03</ele>
   </trkpt>
   <trkpt lat="54.64459000000001" lon="25.185640000000003">
    <ele>163.03</ele>
   </trkpt>
   <trkpt lat="54.64468" lon="25.185730000000003">
    <ele>162.29999999999998</ele>
   </trkpt>
   <trkpt lat="54.644890000000004" lon="25.18569">
    <ele>162.75</ele>
   </trkpt>
   <trkpt lat="54.644980000000004" lon="25.185630000000003">
    <ele>163.64000000000001</ele>
   </trkpt>
   <trkpt lat="54.645070000000004" lon="25.185530000000004">
    <ele>164.55</ele>
   </trkpt>
   <trkpt lat="54.64513" lon="25.18541">
    <ele>165.85000000000002</ele>
   </trkpt>
   <trkpt lat="54.645230000000005" lon="25.185150000000004">
    <ele>167.92000000000002</ele>
   </trkpt>
   <trkpt lat="54.64519000000001" lon="25.18448">
    <ele>169.51000000000002</ele>
   </trkpt>
   <trkpt lat="54.64555000000001" lon="25.184420000000003">
    <ele>169.83</ele>
   </trkpt>
   <trkpt lat="54.645950000000006" lon="25.184410000000003">
    <ele>168.71000000000004</ele>
   </trkpt>
   <trkpt lat="54.64596" lon="25.184400000000004">
    <ele>168.71000000000004</ele>
   </trkpt>
   <trkpt lat="54.64612" lon="25.184130000000003">
    <ele>166.94</ele>
   </trkpt>
   <trkpt lat="54.64627" lon="25.18343">
    <ele>164.72</ele>
   </trkpt>
   <trkpt lat="54.64632" lon="25.182990000000004">
    <ele>164.56</ele>
   </trkpt>
   <trkpt lat="54.64629000000001" lon="25.18204">
    <ele>166.23000000000002</ele>
   </trkpt>
   <trkpt lat="54.64708000030415" lon="25.1818433409816">
    <ele>164.66</ele>
   </trkpt>
   <trkpt lat="54.64787000028975" lon="25.18164667431869">
    <ele>162.76000000000002</ele>
   </trkpt>
   <trkpt lat="54.64866000000001" lon="25.18145">
    <ele>161.97</ele>
   </trkpt>
   <trkpt lat="54.64904000000001" lon="25.1811">
    <ele>158.79000000000002</ele>
   </trkpt>
   <trkpt lat="54.649640000000005" lon="25.180690000000002">
    <ele>157.76000000000002</ele>
   </trkpt>
   <trkpt lat="54.64974" lon="25.180650000000004">
    <ele>157.52</ele>
   </trkpt>
   <trkpt lat="54.65028" lon="25.180580000000003">
    <ele>155.47000000000003</ele>
   </trkpt>
   <trkpt lat="54.650940000000006" lon="25.17987">
    <ele>154.02</ele>
   </trkpt>
   <trkpt lat="54.651120000000006" lon="25.17932">
    <ele>154.35000000000002</ele>
   </trkpt>
   <trkpt lat="54.651285002542934" lon="25.178535003161834">
    <ele>154.76000000000002</ele>
   </trkpt>
   <trkpt lat="54.651450000000004" lon="25.177750000000003">
    <ele>165.99</ele>
   </trkpt>
   <trkpt lat="54.65164000000001" lon="25.177870000000002">
    <ele>165.16</ele>
   </trkpt>
   <trkpt lat="54.651770000000006" lon="25.1776">
    <ele>164.8</ele>
   </trkpt>
   <trkpt lat="54.65194" lon="25.17735">
    <ele>164.05</ele>
   </trkpt>
   <trkpt lat="54.65223" lon="25.17726">
    <ele>162.13000000000002</ele>
   </trkpt>
   <trkpt lat="54.65251000000001" lon="25.177490000000002">
    <ele>156.89</ele>
   </trkpt>
   <trkpt lat="54.65260000000001" lon="25.177590000000002">
    <ele>155.08</ele>
   </trkpt>
   <trkpt lat="54.652660000000004" lon="25.17771">
    <ele>152.91000000000003</ele>
   </trkpt>
   <trkpt lat="54.65299" lon="25.178420000000003">
    <ele>142.15</ele>
   </trkpt>
   <trkpt lat="54.65307000000001" lon="25.17855">
    <ele>140.14000000000001</ele>
   </trkpt>
   <trkpt lat="54.653310000000005" lon="25.178880000000003">
    <ele>135.20000000000002</ele>
   </trkpt>
   <trkpt lat="54.65341" lon="25.17895">
    <ele>133.76000000000002</ele>
   </trkpt>
   <trkpt lat="54.653510000000004" lon="25.17893">
    <ele>132.78</ele>
   </trkpt>
   <trkpt lat="54.65359" lon="25.178620000000002">
    <ele>133.12</ele>
   </trkpt>
   <trkpt lat="54.653560000000006" lon="25.178310000000003">
    <ele>135.01000000000002</ele>
   </trkpt>
   <trkpt lat="54.65352000000001" lon="25.178150000000002">
    <ele>136.64000000000001</ele>
   </trkpt>
   <trkpt lat="54.65344" lon="25.17807">
    <ele>137.92000000000002</ele>
   </trkpt>
   <trkpt lat="54.653270000000006" lon="25.177930000000003">
    <ele>140.70000000000002</ele>
   </trkpt>
   <trkpt lat="54.653240000000004" lon="25.177770000000002">
    <ele>142.26000000000002</ele>
   </trkpt>
   <trkpt lat="54.653240000000004" lon="25.17762">
    <ele>143.20000000000002</ele>
   </trkpt>
   <trkpt lat="54.653310000000005" lon="25.177480000000003">
    <ele>143.64000000000001</ele>
   </trkpt>
   <trkpt lat="54.653360000000006" lon="25.17732">
    <ele>144.13</ele>
   </trkpt>
   <trkpt lat="54.653400000000005" lon="25.176990000000004">
    <ele>146.46</ele>
   </trkpt>
   <trkpt lat="54.65341" lon="25.176830000000002">
    <ele>148.09</ele>
   </trkpt>
   <trkpt lat="54.65346" lon="25.176520000000004">
    <ele>151.29</ele>
   </trkpt>
   <trkpt lat="54.653580000000005" lon="25.176250000000003">
    <ele>154.23</ele>
   </trkpt>
   <trkpt lat="54.653670000000005" lon="25.176240000000004">
    <ele>154.00000000000003</ele>
   </trkpt>
   <trkpt lat="54.65377" lon="25.17631">
    <ele>153.32000000000002</ele>
   </trkpt>
   <trkpt lat="54.65386" lon="25.176280000000002">
    <ele>153.93</ele>
   </trkpt>
   <trkpt lat="54.65395" lon="25.176190000000002">
    <ele>155.32000000000002</ele>
   </trkpt>
   <trkpt lat="54.65410000000001" lon="25.17594">
    <ele>158.93</ele>
   </trkpt>
   <trkpt lat="54.654140000000005" lon="25.175800000000002">
    <ele>161.41000000000003</ele>
   </trkpt>
   <trkpt lat="54.654210000000006" lon="25.175700000000003">
    <ele>163.06</ele>
   </trkpt>
   <trkpt lat="54.654230000000005" lon="25.17554">
    <ele>165.49</ele>
   </trkpt>
   <trkpt lat="54.65428000000001" lon="25.175400000000003">
    <ele>167.38</ele>
   </trkpt>
   <trkpt lat="54.654560000000004" lon="25.17499">
    <ele>172.18000000000004</ele>
   </trkpt>
   <trkpt lat="54.654810000000005" lon="25.174760000000003">
    <ele>173.31</ele>
   </trkpt>
   <trkpt lat="54.65493000000001" lon="25.174740000000003">
    <ele>173.51000000000002</ele>
   </trkpt>
   <trkpt lat="54.655030000000004" lon="25.174760000000003">
    <ele>173.55</ele>
   </trkpt>
   <trkpt lat="54.65525" lon="25.17463">
    <ele>172.91</ele>
   </trkpt>
   <trkpt lat="54.65547" lon="25.174560000000003">
    <ele>172.45000000000002</ele>
   </trkpt>
   <trkpt lat="54.65556" lon="25.174490000000002">
    <ele>171.94</ele>
   </trkpt>
   <trkpt lat="54.65574" lon="25.174300000000002">
    <ele>170.57000000000002</ele>
   </trkpt>
   <trkpt lat="54.656020000000005" lon="25.17406">
    <ele>166.86</ele>
   </trkpt>
   <trkpt lat="54.656110000000005" lon="25.17404">
    <ele>166.86</ele>
   </trkpt>
   <trkpt lat="54.656220000000005" lon="25.174080000000004">
    <ele>165.65</ele>
   </trkpt>
   <trkpt lat="54.656310000000005" lon="25.17414">
    <ele>164.27</ele>
   </trkpt>
   <trkpt lat="54.656380000000006" lon="25.174030000000002">
    <ele>164.04000000000002</ele>
   </trkpt>
   <trkpt lat="54.65646" lon="25.17394">
    <ele>163.25</ele>
   </trkpt>
   <trkpt lat="54.656560000000006" lon="25.173980000000004">
    <ele>162.04999999999998</ele>
   </trkpt>
   <trkpt lat="54.656650000000006" lon="25.174030000000002">
    <ele>161.06</ele>
   </trkpt>
   <trkpt lat="54.65695" lon="25.17423">
    <ele>156.15</ele>
   </trkpt>
   <trkpt lat="54.657030000000006" lon="25.174310000000002">
    <ele>154.05</ele>
   </trkpt>
   <trkpt lat="54.65715" lon="25.17463">
    <ele>148.87</ele>
   </trkpt>
   <trkpt lat="54.65724" lon="25.174740000000003">
    <ele>146.48</ele>
   </trkpt>
   <trkpt lat="54.65735" lon="25.1747">
    <ele>144.21</ele>
   </trkpt>
   <trkpt lat="54.65749" lon="25.17451">
    <ele>145.21</ele>
   </trkpt>
   <trkpt lat="54.657590000000006" lon="25.17423">
    <ele>147.71</ele>
   </trkpt>
   <trkpt lat="54.65795000000001" lon="25.17385">
    <ele>149.72000000000003</ele>
   </trkpt>
   <trkpt lat="54.658060000000006" lon="25.17385">
    <ele>148.39000000000001</ele>
   </trkpt>
   <trkpt lat="54.65814" lon="25.17395">
    <ele>145.15</ele>
   </trkpt>
   <trkpt lat="54.65820000000001" lon="25.174080000000004">
    <ele>138.12</ele>
   </trkpt>
   <trkpt lat="54.65822000000001" lon="25.17442">
    <ele>134.08</ele>
   </trkpt>
   <trkpt lat="54.65833000000001" lon="25.17508">
    <ele>118.56000000000002</ele>
   </trkpt>
   <trkpt lat="54.658350000000006" lon="25.175240000000002">
    <ele>114.66000000000001</ele>
   </trkpt>
   <trkpt lat="54.658300000000004" lon="25.17538">
    <ele>112.5</ele>
   </trkpt>
   <trkpt lat="54.658210000000004" lon="25.175500000000003">
    <ele>112.98</ele>
   </trkpt>
   <trkpt lat="54.658080000000005" lon="25.17573">
    <ele>110.37</ele>
   </trkpt>
   <trkpt lat="54.65791" lon="25.175900000000002">
    <ele>110.76</ele>
   </trkpt>
   <trkpt lat="54.65786000000001" lon="25.17603">
    <ele>109.14000000000001</ele>
   </trkpt>
   <trkpt lat="54.657770000000006" lon="25.176140000000004">
    <ele>109.2</ele>
   </trkpt>
   <trkpt lat="54.657590000000006" lon="25.17621">
    <ele>112.69000000000001</ele>
   </trkpt>
   <trkpt lat="54.65751" lon="25.176280000000002">
    <ele>112.92</ele>
   </trkpt>
   <trkpt lat="54.657410000000006" lon="25.17629">
    <ele>115.72</ele>
   </trkpt>
   <trkpt lat="54.657230000000006" lon="25.176250000000003">
    <ele>121.85000000000001</ele>
   </trkpt>
   <trkpt lat="54.65704" lon="25.176340000000003">
    <ele>127.13000000000002</ele>
   </trkpt>
   <trkpt lat="54.65695" lon="25.17632">
    <ele>133.70000000000002</ele>
   </trkpt>
   <trkpt lat="54.65686" lon="25.17629">
    <ele>133.70000000000002</ele>
   </trkpt>
   <trkpt lat="54.656670000000005" lon="25.17639">
    <ele>138.82</ele>
   </trkpt>
   <trkpt lat="54.65657" lon="25.176370000000002">
    <ele>141.65</ele>
   </trkpt>
   <trkpt lat="54.656380000000006" lon="25.1763">
    <ele>147.44000000000003</ele>
   </trkpt>
   <trkpt lat="54.6561" lon="25.176150000000003">
    <ele>154.48</ele>
   </trkpt>
   <trkpt lat="54.656020000000005" lon="25.176240000000004">
    <ele>154.18</ele>
   </trkpt>
   <trkpt lat="54.656060000000004" lon="25.17639">
    <ele>151.91000000000003</ele>
   </trkpt>
   <trkpt lat="54.65607000000001" lon="25.17657">
    <ele>149.78000000000003</ele>
   </trkpt>
   <trkpt lat="54.65617" lon="25.17707">
    <ele>139.35</ele>
   </trkpt>
   <trkpt lat="54.656150000000004" lon="25.177220000000002">
    <ele>136.59</ele>
   </trkpt>
   <trkpt lat="54.656090000000006" lon="25.17734">
    <ele>135.09</ele>
   </trkpt>
   <trkpt lat="54.656000000000006" lon="25.177310000000002">
    <ele>137.74</ele>
   </trkpt>
   <trkpt lat="54.65592" lon="25.177380000000003">
    <ele>137.11</ele>
   </trkpt>
   <trkpt lat="54.65583" lon="25.17733">
    <ele>139.19</ele>
   </trkpt>
   <trkpt lat="54.655750000000005" lon="25.17726">
    <ele>142.39000000000001</ele>
   </trkpt>
   <trkpt lat="54.655620000000006" lon="25.177010000000003">
    <ele>148.82</ele>
   </trkpt>
   <trkpt lat="54.655530000000006" lon="25.176920000000003">
    <ele>151.23</ele>
   </trkpt>
   <trkpt lat="54.65551000000001" lon="25.17677">
    <ele>153.48</ele>
   </trkpt>
   <trkpt lat="54.65543" lon="25.176650000000002">
    <ele>155.67</ele>
   </trkpt>
   <trkpt lat="54.65534" lon="25.17658">
    <ele>157.4</ele>
   </trkpt>
   <trkpt lat="54.65527" lon="25.176470000000002">
    <ele>158.82000000000002</ele>
   </trkpt>
   <trkpt lat="54.655100000000004" lon="25.1763">
    <ele>161.3</ele>
   </trkpt>
   <trkpt lat="54.654900000000005" lon="25.17639">
    <ele>160.23000000000002</ele>
   </trkpt>
   <trkpt lat="54.654810000000005" lon="25.176460000000002">
    <ele>158.93</ele>
   </trkpt>
   <trkpt lat="54.65475000000001" lon="25.176620000000003">
    <ele>156.85000000000002</ele>
   </trkpt>
   <trkpt lat="54.65473000000001" lon="25.17677">
    <ele>154.51000000000002</ele>
   </trkpt>
   <trkpt lat="54.654720000000005" lon="25.176940000000002">
    <ele>152.25000000000003</ele>
   </trkpt>
   <trkpt lat="54.65476" lon="25.177080000000004">
    <ele>150.63000000000002</ele>
   </trkpt>
   <trkpt lat="54.65476" lon="25.17724">
    <ele>148.18</ele>
   </trkpt>
   <trkpt lat="54.654590000000006" lon="25.1777">
    <ele>141.27</ele>
   </trkpt>
   <trkpt lat="54.65442" lon="25.17836">
    <ele>131.76999999999998</ele>
   </trkpt>
   <trkpt lat="54.65429" lon="25.178590000000003">
    <ele>129.69</ele>
   </trkpt>
   <trkpt lat="54.654250000000005" lon="25.17874">
    <ele>128.32999999999998</ele>
   </trkpt>
   <trkpt lat="54.654340000000005" lon="25.179060000000003">
    <ele>125.48</ele>
   </trkpt>
   <trkpt lat="54.65435000000001" lon="25.17923">
    <ele>125.48</ele>
   </trkpt>
   <trkpt lat="54.65433" lon="25.179560000000002">
    <ele>121.57000000000001</ele>
   </trkpt>
   <trkpt lat="54.65429" lon="25.179720000000003">
    <ele>120.83</ele>
   </trkpt>
   <trkpt lat="54.65417000000001" lon="25.180000000000003">
    <ele>120.16</ele>
   </trkpt>
   <trkpt lat="54.654140000000005" lon="25.18015">
    <ele>119.32000000000001</ele>
   </trkpt>
   <trkpt lat="54.65406" lon="25.18026">
    <ele>119.53000000000002</ele>
   </trkpt>
   <trkpt lat="54.653780000000005" lon="25.180410000000002">
    <ele>121.50000000000001</ele>
   </trkpt>
   <trkpt lat="54.65359" lon="25.180390000000003">
    <ele>124.85000000000001</ele>
   </trkpt>
   <trkpt lat="54.653510000000004" lon="25.180320000000002">
    <ele>126.38000000000002</ele>
   </trkpt>
   <trkpt lat="54.653470000000006" lon="25.180180000000004">
    <ele>128.65</ele>
   </trkpt>
   <trkpt lat="54.653380000000006" lon="25.180100000000003">
    <ele>130.32000000000002</ele>
   </trkpt>
   <trkpt lat="54.65328" lon="25.180090000000003">
    <ele>131.78</ele>
   </trkpt>
   <trkpt lat="54.653180000000006" lon="25.180010000000003">
    <ele>133.79000000000002</ele>
   </trkpt>
   <trkpt lat="54.65274" lon="25.179530000000003">
    <ele>143.54</ele>
   </trkpt>
   <trkpt lat="54.652660000000004" lon="25.179460000000002">
    <ele>145.33</ele>
   </trkpt>
   <trkpt lat="54.652570000000004" lon="25.17941">
    <ele>147.49</ele>
   </trkpt>
   <trkpt lat="54.6525" lon="25.17929">
    <ele>151.15</ele>
   </trkpt>
   <trkpt lat="54.65234" lon="25.17911">
    <ele>153.12</ele>
   </trkpt>
   <trkpt lat="54.65225" lon="25.17903">
    <ele>155.35000000000002</ele>
   </trkpt>
   <trkpt lat="54.652150000000006" lon="25.179080000000003">
    <ele>156.91000000000003</ele>
   </trkpt>
   <trkpt lat="54.652100000000004" lon="25.17921">
    <ele>157.41000000000003</ele>
   </trkpt>
   <trkpt lat="54.652060000000006" lon="25.179560000000002">
    <ele>157.32000000000002</ele>
   </trkpt>
   <trkpt lat="54.652060000000006" lon="25.179740000000002">
    <ele>156.16000000000003</ele>
   </trkpt>
   <trkpt lat="54.65214" lon="25.180030000000002">
    <ele>153.23</ele>
   </trkpt>
   <trkpt lat="54.652240000000006" lon="25.180020000000003">
    <ele>151.12</ele>
   </trkpt>
   <trkpt lat="54.65238000000001" lon="25.180270000000004">
    <ele>147.09</ele>
   </trkpt>
   <trkpt lat="54.65260000000001" lon="25.180590000000002">
    <ele>139.55</ele>
   </trkpt>
   <trkpt lat="54.652680000000004" lon="25.180750000000003">
    <ele>135.61</ele>
   </trkpt>
   <trkpt lat="54.652730000000005" lon="25.18091">
    <ele>133.3</ele>
   </trkpt>
   <trkpt lat="54.65276000000001" lon="25.18108">
    <ele>130.97</ele>
   </trkpt>
   <trkpt lat="54.65281" lon="25.181240000000003">
    <ele>128.07999999999998</ele>
   </trkpt>
   <trkpt lat="54.6529" lon="25.181340000000002">
    <ele>125.65</ele>
   </trkpt>
   <trkpt lat="54.65294" lon="25.181510000000003">
    <ele>122.67000000000002</ele>
   </trkpt>
   <trkpt lat="54.652860000000004" lon="25.181630000000002">
    <ele>122.58000000000001</ele>
   </trkpt>
   <trkpt lat="54.65276000000001" lon="25.18164">
    <ele>124.55000000000001</ele>
   </trkpt>
   <trkpt lat="54.652680000000004" lon="25.18156">
    <ele>127.09</ele>
   </trkpt>
   <trkpt lat="54.6525" lon="25.18148">
    <ele>129.14000000000001</ele>
   </trkpt>
   <trkpt lat="54.652240000000006" lon="25.18128">
    <ele>139.6</ele>
   </trkpt>
   <trkpt lat="54.65194" lon="25.181150000000002">
    <ele>147.92000000000002</ele>
   </trkpt>
   <trkpt lat="54.65175000000001" lon="25.181130000000003">
    <ele>152.65</ele>
   </trkpt>
   <trkpt lat="54.65156" lon="25.181250000000002">
    <ele>154.37</ele>
   </trkpt>
   <trkpt lat="54.65148000000001" lon="25.181340000000002">
    <ele>154.76000000000002</ele>
   </trkpt>
   <trkpt lat="54.6514" lon="25.18147">
    <ele>154.2</ele>
   </trkpt>
   <trkpt lat="54.65113" lon="25.182010000000002">
    <ele>148.34</ele>
   </trkpt>
   <trkpt lat="54.651070000000004" lon="25.182170000000003">
    <ele>145.57</ele>
   </trkpt>
   <trkpt lat="54.651050000000005" lon="25.18232">
    <ele>143.36</ele>
   </trkpt>
   <trkpt lat="54.65102" lon="25.1827">
    <ele>136.49</ele>
   </trkpt>
   <trkpt lat="54.650980000000004" lon="25.182850000000002">
    <ele>133.60000000000002</ele>
   </trkpt>
   <trkpt lat="54.65091" lon="25.182990000000004">
    <ele>131.66</ele>
   </trkpt>
   <trkpt lat="54.65086" lon="25.18316">
    <ele>128.9</ele>
   </trkpt>
   <trkpt lat="54.65081000000001" lon="25.18353">
    <ele>123.42000000000002</ele>
   </trkpt>
   <trkpt lat="54.650740000000006" lon="25.1837">
    <ele>120.99000000000001</ele>
   </trkpt>
   <trkpt lat="54.65064" lon="25.18391">
    <ele>118.41000000000001</ele>
   </trkpt>
  </trkseg>
 </trk>
</gpx>
