<?xml version="1.0" encoding="UTF-8" standalone="no" ?><gpx xmlns="http://www.topografix.com/GPX/1/1" creator="SwiftGpx by Axel Ancona Esselmann" version="1.1" xmlns:xsi="http://www.w3.org/2001/XMLSchema-instance" xsi:schemaLocation="http://www.topografix.com/GPX/1/1 http://www.topografix.com/GPX/1/1/gpx.xsd"><trk><name>Track from 2021-12-05T15:35:15+0200</name><trkseg><trkpt lat="54.74098419999999" lon="25.2832334"><ele>160.0</ele><time>2021-12-05T13:35:15Z</time></trkpt><trkpt lat="54.7410799" lon="25.28317720000004"><ele>159.0</ele><time>2021-12-05T13:35:25Z</time></trkpt><trkpt lat="54.74117379999999" lon="25.28319000000002"><ele>158.0</ele><time>2021-12-05T13:35:54Z</time></trkpt><trkpt lat="54.74125890000001" lon="25.283130800000038"><ele>157.0</ele><time>2021-12-05T13:36:06Z</time></trkpt><trkpt lat="54.74135059999999" lon="25.283081700000025"><ele>155.0</ele><time>2021-12-05T13:36:14Z</time></trkpt><trkpt lat="54.741450599999986" lon="25.283070500000036"><ele>154.0</ele><time>2021-12-05T13:36:20Z</time></trkpt><trkpt lat="54.7415483" lon="25.283046299999995"><ele>151.0</ele><time>2021-12-05T13:37:01Z</time></trkpt><trkpt lat="54.741640200000006" lon="25.283016799999984"><ele>151.0</ele><time>2021-12-05T13:37:11Z</time></trkpt><trkpt lat="54.74172309999999" lon="25.282955600000008"><ele>150.0</ele><time>2021-12-05T13:37:24Z</time></trkpt><trkpt lat="54.7418138" lon="25.282966999999985"><ele>150.0</ele><time>2021-12-05T13:37:34Z</time></trkpt><trkpt lat="54.741905899999985" lon="25.28297790000002"><ele>150.0</ele><time>2021-12-05T13:37:56Z</time></trkpt><trkpt lat="54.7419959" lon="25.283031899999997"><ele>150.0</ele><time>2021-12-05T13:38:10Z</time></trkpt><trkpt lat="54.7420599" lon="25.283163900000005"><ele>152.0</ele><time>2021-12-05T13:38:39Z</time></trkpt><trkpt lat="54.7421535" lon="25.283172199999996"><ele>154.0</ele><time>2021-12-05T13:39:03Z</time></trkpt><trkpt lat="54.7422486" lon="25.283148400000016"><ele>155.0</ele><time>2021-12-05T13:39:19Z</time></trkpt><trkpt lat="54.7423326" lon="25.283218000000005"><ele>156.0</ele><time>2021-12-05T13:39:52Z</time></trkpt><trkpt lat="54.74242590000001" lon="25.28323180000001"><ele>159.0</ele><time>2021-12-05T13:40:44Z</time></trkpt><trkpt lat="54.74244499999999" lon="25.283385200000026"><ele>159.0</ele><time>2021-12-05T13:41:15Z</time></trkpt><trkpt lat="54.7424839" lon="25.283543500000007"><ele>160.0</ele><time>2021-12-05T13:41:28Z</time></trkpt><trkpt lat="54.7425214" lon="25.283700299999992"><ele>160.0</ele><time>2021-12-05T13:41:37Z</time></trkpt><trkpt lat="54.74254199999999" lon="25.283859199999995"><ele>160.0</ele><time>2021-12-05T13:41:45Z</time></trkpt><trkpt lat="54.7425546" lon="25.284020699999957"><ele>160.0</ele><time>2021-12-05T13:41:54Z</time></trkpt><trkpt lat="54.742584099999995" lon="25.284168400000027"><ele>160.0</ele><time>2021-12-05T13:42:02Z</time></trkpt><trkpt lat="54.74260139999999" lon="25.2843216"><ele>159.0</ele><time>2021-12-05T13:42:23Z</time></trkpt><trkpt lat="54.742568199999994" lon="25.28446880000004"><ele>158.0</ele><time>2021-12-05T13:42:30Z</time></trkpt><trkpt lat="54.742519099999996" lon="25.28461039999999"><ele>158.0</ele><time>2021-12-05T13:42:40Z</time></trkpt><trkpt lat="54.7424437" lon="25.284729900000002"><ele>159.0</ele><time>2021-12-05T13:43:17Z</time></trkpt><trkpt lat="54.74236030000001" lon="25.284795600000024"><ele>159.0</ele><time>2021-12-05T13:43:27Z</time></trkpt><trkpt lat="54.74228209999998" lon="25.284879399999994"><ele>159.0</ele><time>2021-12-05T13:43:36Z</time></trkpt><trkpt lat="54.74220249999999" lon="25.28496290000004"><ele>159.0</ele><time>2021-12-05T13:43:46Z</time></trkpt><trkpt lat="54.74213299999999" lon="25.28508579999999"><ele>159.0</ele><time>2021-12-05T13:43:54Z</time></trkpt><trkpt lat="54.74204220000001" lon="25.285179700000015"><ele>159.0</ele><time>2021-12-05T13:44:00Z</time></trkpt><trkpt lat="54.741969399999995" lon="25.28529260000002"><ele>159.0</ele><time>2021-12-05T13:44:14Z</time></trkpt><trkpt lat="54.7419323" lon="25.2854394"><ele>158.0</ele><time>2021-12-05T13:44:24Z</time></trkpt><trkpt lat="54.74180219999999" lon="25.28549670000004"><ele>156.0</ele><time>2021-12-05T13:45:16Z</time></trkpt><trkpt lat="54.7418165" lon="25.285501799999963"><ele>157.0</ele><time>2021-12-05T13:46:57Z</time></trkpt><trkpt lat="54.7417271" lon="25.28552099999999"><ele>156.0</ele><time>2021-12-05T13:47:16Z</time></trkpt><trkpt lat="54.7416387" lon="25.285554700000034"><ele>151.0</ele><time>2021-12-05T13:48:55Z</time></trkpt><trkpt lat="54.7415531" lon="25.285613100000035"><ele>145.0</ele><time>2021-12-05T13:49:36Z</time></trkpt><trkpt lat="54.74147379999999" lon="25.285711600000013"><ele>141.0</ele><time>2021-12-05T13:50:42Z</time></trkpt><trkpt lat="54.74138979999999" lon="25.2858224"><ele>140.0</ele><time>2021-12-05T13:50:58Z</time></trkpt><trkpt lat="54.7412984" lon="25.28585460000002"><ele>141.0</ele><time>2021-12-05T13:51:08Z</time></trkpt><trkpt lat="54.741194099999994" lon="25.28584280000001"><ele>141.0</ele><time>2021-12-05T13:51:14Z</time></trkpt><trkpt lat="54.741109699999996" lon="25.285781299999996"><ele>142.0</ele><time>2021-12-05T13:51:25Z</time></trkpt><trkpt lat="54.74102439999999" lon="25.285716499999978"><ele>143.0</ele><time>2021-12-05T13:51:41Z</time></trkpt><trkpt lat="54.740939899999994" lon="25.28563570000003"><ele>146.0</ele><time>2021-12-05T13:52:07Z</time></trkpt><trkpt lat="54.7408483" lon="25.28559960000004"><ele>149.0</ele><time>2021-12-05T13:52:33Z</time></trkpt><trkpt lat="54.74075520000001" lon="25.285537199999993"><ele>153.0</ele><time>2021-12-05T13:53:03Z</time></trkpt><trkpt lat="54.740663999999995" lon="25.28551120000003"><ele>157.0</ele><time>2021-12-05T13:53:54Z</time></trkpt><trkpt lat="54.740657999999996" lon="25.285671000000036"><ele>156.0</ele><time>2021-12-05T13:54:07Z</time></trkpt><trkpt lat="54.7406781" lon="25.285839699999997"><ele>157.0</ele><time>2021-12-05T13:54:15Z</time></trkpt><trkpt lat="54.7407303" lon="25.285968200000042"><ele>157.0</ele><time>2021-12-05T13:54:38Z</time></trkpt><trkpt lat="54.7407727" lon="25.286117700000005"><ele>157.0</ele><time>2021-12-05T13:54:47Z</time></trkpt><trkpt lat="54.7408029" lon="25.286278100000004"><ele>157.0</ele><time>2021-12-05T13:54:58Z</time></trkpt><trkpt lat="54.7408377" lon="25.286425900000012"><ele>157.0</ele><time>2021-12-05T13:55:07Z</time></trkpt><trkpt lat="54.740860000000005" lon="25.286585099999996"><ele>156.0</ele><time>2021-12-05T13:55:13Z</time></trkpt><trkpt lat="54.7408543" lon="25.286748500000016"><ele>156.0</ele><time>2021-12-05T13:55:19Z</time></trkpt><trkpt lat="54.74085899999999" lon="25.28690670000003"><ele>157.0</ele><time>2021-12-05T13:55:29Z</time></trkpt><trkpt lat="54.7408242" lon="25.287064299999997"><ele>157.0</ele><time>2021-12-05T13:56:13Z</time></trkpt><trkpt lat="54.740777" lon="25.2872098"><ele>157.0</ele><time>2021-12-05T13:56:23Z</time></trkpt><trkpt lat="54.740721099999995" lon="25.287339900000006"><ele>157.0</ele><time>2021-12-05T13:56:33Z</time></trkpt><trkpt lat="54.7406438" lon="25.287431700000013"><ele>157.0</ele><time>2021-12-05T13:56:44Z</time></trkpt><trkpt lat="54.74055" lon="25.28747130000002"><ele>157.0</ele><time>2021-12-05T13:57:13Z</time></trkpt><trkpt lat="54.74048729999999" lon="25.28735800000004"><ele>157.0</ele><time>2021-12-05T13:57:38Z</time></trkpt><trkpt lat="54.7404026" lon="25.28729240000004"><ele>156.0</ele><time>2021-12-05T13:57:52Z</time></trkpt><trkpt lat="54.74031159999999" lon="25.28725700000004"><ele>155.0</ele><time>2021-12-05T13:58:10Z</time></trkpt><trkpt lat="54.7402203" lon="25.287212600000004"><ele>155.0</ele><time>2021-12-05T13:58:28Z</time></trkpt><trkpt lat="54.740128299999995" lon="25.28717070000002"><ele>155.0</ele><time>2021-12-05T13:58:35Z</time></trkpt><trkpt lat="54.74004310000002" lon="25.287082700000013"><ele>155.0</ele><time>2021-12-05T13:58:42Z</time></trkpt><trkpt lat="54.739945899999995" lon="25.287066100000033"><ele>155.0</ele><time>2021-12-05T13:58:54Z</time></trkpt><trkpt lat="54.73985149999999" lon="25.287058300000012"><ele>155.0</ele><time>2021-12-05T13:59:02Z</time></trkpt><trkpt lat="54.73981849999999" lon="25.28720370000002"><ele>156.0</ele><time>2021-12-05T13:59:19Z</time></trkpt><trkpt lat="54.73974599999999" lon="25.287307199999987"><ele>156.0</ele><time>2021-12-05T13:59:33Z</time></trkpt><trkpt lat="54.7396516" lon="25.287340500000028"><ele>156.0</ele><time>2021-12-05T13:59:42Z</time></trkpt><trkpt lat="54.7395577" lon="25.28734689999999"><ele>157.0</ele><time>2021-12-05T13:59:56Z</time></trkpt><trkpt lat="54.73946639999999" lon="25.287348900000012"><ele>157.0</ele><time>2021-12-05T14:00:08Z</time></trkpt><trkpt lat="54.739395300000005" lon="25.28744739999999"><ele>156.0</ele><time>2021-12-05T14:00:19Z</time></trkpt><trkpt lat="54.739301899999994" lon="25.28747519999999"><ele>156.0</ele><time>2021-12-05T14:00:26Z</time></trkpt><trkpt lat="54.73920719999998" lon="25.287455899999998"><ele>155.0</ele><time>2021-12-05T14:00:35Z</time></trkpt><trkpt lat="54.739113200000006" lon="25.28748470000002"><ele>155.0</ele><time>2021-12-05T14:00:44Z</time></trkpt><trkpt lat="54.739028299999994" lon="25.287546399999997"><ele>155.0</ele><time>2021-12-05T14:00:58Z</time></trkpt><trkpt lat="54.7389428" lon="25.287653199999994"><ele>154.0</ele><time>2021-12-05T14:01:36Z</time></trkpt><trkpt lat="54.738856399999996" lon="25.287739999999985"><ele>153.0</ele><time>2021-12-05T14:01:44Z</time></trkpt><trkpt lat="54.73876539999999" lon="25.287784399999993"><ele>152.0</ele><time>2021-12-05T14:01:51Z</time></trkpt><trkpt lat="54.738677900000006" lon="25.287831799999992"><ele>151.0</ele><time>2021-12-05T14:01:59Z</time></trkpt><trkpt lat="54.738573499999994" lon="25.287891600000023"><ele>151.0</ele><time>2021-12-05T14:02:11Z</time></trkpt><trkpt lat="54.73843900000001" lon="25.28789850000004"><ele>150.0</ele><time>2021-12-05T14:04:42Z</time></trkpt><trkpt lat="54.73833990000001" lon="25.28788019999999"><ele>150.0</ele><time>2021-12-05T14:04:55Z</time></trkpt><trkpt lat="54.7382445" lon="25.287823300000014"><ele>150.0</ele><time>2021-12-05T14:05:03Z</time></trkpt><trkpt lat="54.73818959999999" lon="25.287655500000028"><ele>151.0</ele><time>2021-12-05T14:05:25Z</time></trkpt><trkpt lat="54.7381037" lon="25.287583300000023"><ele>151.0</ele><time>2021-12-05T14:05:33Z</time></trkpt><trkpt lat="54.738050499999986" lon="25.28744929999999"><ele>150.0</ele><time>2021-12-05T14:05:49Z</time></trkpt><trkpt lat="54.7379693" lon="25.287381400000015"><ele>149.0</ele><time>2021-12-05T14:06:07Z</time></trkpt><trkpt lat="54.737958" lon="25.287219600000014"><ele>149.0</ele><time>2021-12-05T14:06:22Z</time></trkpt><trkpt lat="54.73792089999999" lon="25.28707320000001"><ele>150.0</ele><time>2021-12-05T14:06:36Z</time></trkpt><trkpt lat="54.73784169999999" lon="25.286988000000008"><ele>152.0</ele><time>2021-12-05T14:06:48Z</time></trkpt><trkpt lat="54.737764500000004" lon="25.28688900000003"><ele>153.0</ele><time>2021-12-05T14:06:59Z</time></trkpt><trkpt lat="54.7377525" lon="25.286727600000006"><ele>154.0</ele><time>2021-12-05T14:07:08Z</time></trkpt><trkpt lat="54.73768439999999" lon="25.286607900000007"><ele>154.0</ele><time>2021-12-05T14:07:19Z</time></trkpt><trkpt lat="54.737590700000005" lon="25.28654750000001"><ele>154.0</ele><time>2021-12-05T14:07:33Z</time></trkpt><trkpt lat="54.73749889999999" lon="25.286512500000015"><ele>154.0</ele><time>2021-12-05T14:08:11Z</time></trkpt><trkpt lat="54.737449999999995" lon="25.28637979999999"><ele>153.0</ele><time>2021-12-05T14:08:19Z</time></trkpt><trkpt lat="54.73742549999999" lon="25.286222199999997"><ele>153.0</ele><time>2021-12-05T14:08:30Z</time></trkpt><trkpt lat="54.7374356" lon="25.28606020000001"><ele>154.0</ele><time>2021-12-05T14:08:43Z</time></trkpt><trkpt lat="54.7373662" lon="25.285946200000012"><ele>155.0</ele><time>2021-12-05T14:08:58Z</time></trkpt><trkpt lat="54.73727569999999" lon="25.285909900000007"><ele>154.0</ele><time>2021-12-05T14:09:10Z</time></trkpt><trkpt lat="54.73718499999998" lon="25.28585000000001"><ele>154.0</ele><time>2021-12-05T14:09:25Z</time></trkpt><trkpt lat="54.737099699999995" lon="25.285779600000012"><ele>152.0</ele><time>2021-12-05T14:09:45Z</time></trkpt><trkpt lat="54.737018" lon="25.285700900000023"><ele>150.0</ele><time>2021-12-05T14:10:00Z</time></trkpt><trkpt lat="54.736934799999986" lon="25.285610399999996"><ele>147.0</ele><time>2021-12-05T14:10:17Z</time></trkpt><trkpt lat="54.736843099999994" lon="25.285570500000034"><ele>146.0</ele><time>2021-12-05T14:10:28Z</time></trkpt><trkpt lat="54.73675089999999" lon="25.285550700000016"><ele>144.0</ele><time>2021-12-05T14:10:39Z</time></trkpt><trkpt lat="54.73666809999998" lon="25.28562690000001"><ele>143.0</ele><time>2021-12-05T14:10:54Z</time></trkpt><trkpt lat="54.73662459999999" lon="25.28576700000002"><ele>142.0</ele><time>2021-12-05T14:11:06Z</time></trkpt><trkpt lat="54.73661380000001" lon="25.285928000000013"><ele>142.0</ele><time>2021-12-05T14:11:20Z</time></trkpt><trkpt lat="54.7365736" lon="25.286085600000007"><ele>142.0</ele><time>2021-12-05T14:11:30Z</time></trkpt><trkpt lat="54.736542099999994" lon="25.28623669999999"><ele>142.0</ele><time>2021-12-05T14:11:40Z</time></trkpt><trkpt lat="54.736496599999995" lon="25.286381000000006"><ele>141.0</ele><time>2021-12-05T14:11:50Z</time></trkpt><trkpt lat="54.73643070000001" lon="25.286504100000002"><ele>141.0</ele><time>2021-12-05T14:11:59Z</time></trkpt><trkpt lat="54.73636369999999" lon="25.286620400000032"><ele>141.0</ele><time>2021-12-05T14:12:07Z</time></trkpt><trkpt lat="54.73627629999999" lon="25.286667599999987"><ele>140.0</ele><time>2021-12-05T14:12:16Z</time></trkpt><trkpt lat="54.736187199999996" lon="25.28672610000004"><ele>140.0</ele><time>2021-12-05T14:12:26Z</time></trkpt><trkpt lat="54.7360918" lon="25.286746799999975"><ele>140.0</ele><time>2021-12-05T14:12:33Z</time></trkpt><trkpt lat="54.73599900000001" lon="25.286738000000014"><ele>140.0</ele><time>2021-12-05T14:12:41Z</time></trkpt><trkpt lat="54.7359049" lon="25.28677669999999"><ele>140.0</ele><time>2021-12-05T14:12:53Z</time></trkpt><trkpt lat="54.7358556" lon="25.28692129999999"><ele>139.0</ele><time>2021-12-05T14:13:18Z</time></trkpt><trkpt lat="54.73585199999998" lon="25.287083300000006"><ele>138.0</ele><time>2021-12-05T14:13:33Z</time></trkpt><trkpt lat="54.735919299999985" lon="25.2872026"><ele>136.0</ele><time>2021-12-05T14:13:55Z</time></trkpt><trkpt lat="54.736006800000006" lon="25.287284700000015"><ele>135.0</ele><time>2021-12-05T14:14:06Z</time></trkpt><trkpt lat="54.736078" lon="25.287403000000012"><ele>134.0</ele><time>2021-12-05T14:14:20Z</time></trkpt><trkpt lat="54.736128300000004" lon="25.28754650000002"><ele>134.0</ele><time>2021-12-05T14:14:27Z</time></trkpt><trkpt lat="54.73617009999999" lon="25.287687800000015"><ele>133.0</ele><time>2021-12-05T14:14:39Z</time></trkpt><trkpt lat="54.7362157" lon="25.287834900000007"><ele>133.0</ele><time>2021-12-05T14:14:47Z</time></trkpt><trkpt lat="54.73626459999999" lon="25.287979500000034"><ele>132.0</ele><time>2021-12-05T14:14:54Z</time></trkpt><trkpt lat="54.7362674" lon="25.288139700000016"><ele>133.0</ele><time>2021-12-05T14:15:04Z</time></trkpt><trkpt lat="54.736191999999996" lon="25.28823940000001"><ele>133.0</ele><time>2021-12-05T14:15:40Z</time></trkpt><trkpt lat="54.73610169999999" lon="25.28821959999999"><ele>133.0</ele><time>2021-12-05T14:15:49Z</time></trkpt><trkpt lat="54.73601940000002" lon="25.288130200000012"><ele>133.0</ele><time>2021-12-05T14:16:01Z</time></trkpt><trkpt lat="54.735958299999986" lon="25.288013799999987"><ele>133.0</ele><time>2021-12-05T14:16:10Z</time></trkpt><trkpt lat="54.73588949999999" lon="25.287900700000023"><ele>134.0</ele><time>2021-12-05T14:16:18Z</time></trkpt><trkpt lat="54.735803" lon="25.28784250000001"><ele>134.0</ele><time>2021-12-05T14:16:32Z</time></trkpt><trkpt lat="54.735708499999994" lon="25.28786610000003"><ele>134.0</ele><time>2021-12-05T14:16:44Z</time></trkpt><trkpt lat="54.735611899999995" lon="25.28783020000003"><ele>134.0</ele><time>2021-12-05T14:16:54Z</time></trkpt><trkpt lat="54.73552440000001" lon="25.2877455"><ele>134.0</ele><time>2021-12-05T14:17:04Z</time></trkpt><trkpt lat="54.73545370000001" lon="25.287634300000008"><ele>134.0</ele><time>2021-12-05T14:17:21Z</time></trkpt><trkpt lat="54.73537209999999" lon="25.287520700000016"><ele>134.0</ele><time>2021-12-05T14:17:39Z</time></trkpt><trkpt lat="54.73528499999998" lon="25.287449199999998"><ele>134.0</ele><time>2021-12-05T14:17:48Z</time></trkpt><trkpt lat="54.735199499999986" lon="25.287370399999986"><ele>134.0</ele><time>2021-12-05T14:17:57Z</time></trkpt><trkpt lat="54.7351281" lon="25.2872495"><ele>134.0</ele><time>2021-12-05T14:18:06Z</time></trkpt><trkpt lat="54.7350311" lon="25.287226599999997"><ele>134.0</ele><time>2021-12-05T14:18:13Z</time></trkpt><trkpt lat="54.73494269999998" lon="25.287176500000015"><ele>134.0</ele><time>2021-12-05T14:18:19Z</time></trkpt><trkpt lat="54.734852099999976" lon="25.28719050000001"><ele>133.0</ele><time>2021-12-05T14:18:26Z</time></trkpt><trkpt lat="54.73480369999999" lon="25.2873362"><ele>132.0</ele><time>2021-12-05T14:18:37Z</time></trkpt><trkpt lat="54.734722799999986" lon="25.2874209"><ele>127.0</ele><time>2021-12-05T14:19:14Z</time></trkpt><trkpt lat="54.7346493" lon="25.28751330000003"><ele>125.0</ele><time>2021-12-05T14:19:36Z</time></trkpt><trkpt lat="54.7345851" lon="25.2876311"><ele>123.0</ele><time>2021-12-05T14:19:45Z</time></trkpt><trkpt lat="54.7345668" lon="25.287791300000038"><ele>121.0</ele><time>2021-12-05T14:19:57Z</time></trkpt><trkpt lat="54.73453349999999" lon="25.287943700000028"><ele>120.0</ele><time>2021-12-05T14:20:05Z</time></trkpt><trkpt lat="54.73450309999998" lon="25.288096499999995"><ele>119.0</ele><time>2021-12-05T14:20:13Z</time></trkpt><trkpt lat="54.7345141" lon="25.28825230000001"><ele>117.0</ele><time>2021-12-05T14:20:37Z</time></trkpt><trkpt lat="54.73447929999999" lon="25.288402899999994"><ele>115.0</ele><time>2021-12-05T14:20:59Z</time></trkpt><trkpt lat="54.73448929999999" lon="25.288562000000013"><ele>113.0</ele><time>2021-12-05T14:21:18Z</time></trkpt><trkpt lat="54.7344599" lon="25.288721699999996"><ele>112.0</ele><time>2021-12-05T14:21:27Z</time></trkpt><trkpt lat="54.734374399999986" lon="25.28881039999999"><ele>111.0</ele><time>2021-12-05T14:21:37Z</time></trkpt><trkpt lat="54.7342798" lon="25.288827999999995"><ele>111.0</ele><time>2021-12-05T14:21:44Z</time></trkpt><trkpt lat="54.7341897" lon="25.288789900000012"><ele>110.0</ele><time>2021-12-05T14:21:53Z</time></trkpt><trkpt lat="54.734103000000005" lon="25.28874239999999"><ele>110.0</ele><time>2021-12-05T14:22:00Z</time></trkpt><trkpt lat="54.73400409999999" lon="25.288715800000034"><ele>110.0</ele><time>2021-12-05T14:22:08Z</time></trkpt><trkpt lat="54.733906799999986" lon="25.288688599999972"><ele>109.0</ele><time>2021-12-05T14:22:17Z</time></trkpt><trkpt lat="54.7338143" lon="25.288680700000015"><ele>109.0</ele><time>2021-12-05T14:22:26Z</time></trkpt><trkpt lat="54.7337224" lon="25.288684499999988"><ele>109.0</ele><time>2021-12-05T14:22:41Z</time></trkpt><trkpt lat="54.73362689999999" lon="25.288681399999973"><ele>109.0</ele><time>2021-12-05T14:22:50Z</time></trkpt><trkpt lat="54.73352809999999" lon="25.28868520000003"><ele>110.0</ele><time>2021-12-05T14:22:59Z</time></trkpt><trkpt lat="54.7334307" lon="25.288628399999993"><ele>110.0</ele><time>2021-12-05T14:23:07Z</time></trkpt><trkpt lat="54.733335800000006" lon="25.288581400000027"><ele>110.0</ele><time>2021-12-05T14:23:15Z</time></trkpt><trkpt lat="54.733245200000006" lon="25.2885407"><ele>110.0</ele><time>2021-12-05T14:23:28Z</time></trkpt><trkpt lat="54.733154" lon="25.288520199999994"><ele>110.0</ele><time>2021-12-05T14:23:37Z</time></trkpt><trkpt lat="54.73305599999998" lon="25.288503399999996"><ele>110.0</ele><time>2021-12-05T14:23:45Z</time></trkpt><trkpt lat="54.73296479999999" lon="25.28846310000003"><ele>110.0</ele><time>2021-12-05T14:23:54Z</time></trkpt><trkpt lat="54.73290399999999" lon="25.2883291"><ele>110.0</ele><time>2021-12-05T14:24:02Z</time></trkpt><trkpt lat="54.7328069" lon="25.28819500000003"><ele>111.0</ele><time>2021-12-05T14:24:14Z</time></trkpt><trkpt lat="54.7327186" lon="25.28825549999999"><ele>110.0</ele><time>2021-12-05T14:24:24Z</time></trkpt><trkpt lat="54.732630499999985" lon="25.2882903"><ele>110.0</ele><time>2021-12-05T14:24:38Z</time></trkpt><trkpt lat="54.7325397" lon="25.28830320000003"><ele>109.0</ele><time>2021-12-05T14:24:46Z</time></trkpt><trkpt lat="54.73244079999999" lon="25.288284599999997"><ele>110.0</ele><time>2021-12-05T14:24:53Z</time></trkpt><trkpt lat="54.732341800000015" lon="25.2882764"><ele>109.0</ele><time>2021-12-05T14:25:02Z</time></trkpt><trkpt lat="54.73224749999999" lon="25.288264500000025"><ele>109.0</ele><time>2021-12-05T14:25:12Z</time></trkpt><trkpt lat="54.732150100000005" lon="25.288282500000037"><ele>110.0</ele><time>2021-12-05T14:25:21Z</time></trkpt><trkpt lat="54.73205699999998" lon="25.288298200000014"><ele>110.0</ele><time>2021-12-05T14:25:33Z</time></trkpt><trkpt lat="54.7319589" lon="25.288325600000007"><ele>110.0</ele><time>2021-12-05T14:25:42Z</time></trkpt><trkpt lat="54.731866199999985" lon="25.2883559"><ele>111.0</ele><time>2021-12-05T14:25:51Z</time></trkpt><trkpt lat="54.731776399999994" lon="25.288398700000016"><ele>111.0</ele><time>2021-12-05T14:26:01Z</time></trkpt><trkpt lat="54.731680499999996" lon="25.288380400000023"><ele>112.0</ele><time>2021-12-05T14:26:11Z</time></trkpt><trkpt lat="54.73160219999999" lon="25.28827959999998"><ele>113.0</ele><time>2021-12-05T14:26:25Z</time></trkpt><trkpt lat="54.7315046" lon="25.28827860000004"><ele>114.0</ele><time>2021-12-05T14:26:34Z</time></trkpt><trkpt lat="54.731407299999994" lon="25.28826090000004"><ele>115.0</ele><time>2021-12-05T14:26:46Z</time></trkpt><trkpt lat="54.731314399999995" lon="25.28833130000004"><ele>115.0</ele><time>2021-12-05T14:26:57Z</time></trkpt><trkpt lat="54.731238600000005" lon="25.288422000000025"><ele>116.0</ele><time>2021-12-05T14:27:08Z</time></trkpt><trkpt lat="54.73114699999999" lon="25.28847410000003"><ele>116.0</ele><time>2021-12-05T14:27:19Z</time></trkpt><trkpt lat="54.73105820000001" lon="25.28850460000001"><ele>115.0</ele><time>2021-12-05T14:27:44Z</time></trkpt><trkpt lat="54.7309593" lon="25.288539000000043"><ele>114.0</ele><time>2021-12-05T14:27:55Z</time></trkpt><trkpt lat="54.7308663" lon="25.288525300000003"><ele>115.0</ele><time>2021-12-05T14:28:04Z</time></trkpt><trkpt lat="54.7307673" lon="25.288495100000006"><ele>115.0</ele><time>2021-12-05T14:28:13Z</time></trkpt><trkpt lat="54.73067820000001" lon="25.288525300000003"><ele>115.0</ele><time>2021-12-05T14:28:23Z</time></trkpt><trkpt lat="54.73058309999999" lon="25.288562600000034"><ele>115.0</ele><time>2021-12-05T14:28:32Z</time></trkpt><trkpt lat="54.7304871" lon="25.288519400000013"><ele>114.0</ele><time>2021-12-05T14:28:41Z</time></trkpt><trkpt lat="54.7303986" lon="25.28855999999996"><ele>114.0</ele><time>2021-12-05T14:28:49Z</time></trkpt><trkpt lat="54.7303074" lon="25.288603100000017"><ele>113.0</ele><time>2021-12-05T14:28:59Z</time></trkpt><trkpt lat="54.7302152" lon="25.28864200000001"><ele>113.0</ele><time>2021-12-05T14:29:15Z</time></trkpt><trkpt lat="54.7301289" lon="25.28869100000003"><ele>113.0</ele><time>2021-12-05T14:29:23Z</time></trkpt><trkpt lat="54.73003349999998" lon="25.288740100000012"><ele>112.0</ele><time>2021-12-05T14:29:30Z</time></trkpt><trkpt lat="54.7299413" lon="25.2887724"><ele>112.0</ele><time>2021-12-05T14:29:39Z</time></trkpt><trkpt lat="54.7298485" lon="25.288810799999965"><ele>112.0</ele><time>2021-12-05T14:29:53Z</time></trkpt><trkpt lat="54.72977670000001" lon="25.288935000000038"><ele>113.0</ele><time>2021-12-05T14:30:02Z</time></trkpt><trkpt lat="54.7297133" lon="25.28907319999999"><ele>112.0</ele><time>2021-12-05T14:30:11Z</time></trkpt><trkpt lat="54.7296589" lon="25.28921980000004"><ele>113.0</ele><time>2021-12-05T14:30:19Z</time></trkpt><trkpt lat="54.7296033" lon="25.2893579"><ele>113.0</ele><time>2021-12-05T14:30:29Z</time></trkpt><trkpt lat="54.72956699999999" lon="25.28950309999999"><ele>113.0</ele><time>2021-12-05T14:30:39Z</time></trkpt><trkpt lat="54.729507000000005" lon="25.289623500000005"><ele>114.0</ele><time>2021-12-05T14:30:48Z</time></trkpt><trkpt lat="54.7294365" lon="25.2897313"><ele>114.0</ele><time>2021-12-05T14:31:00Z</time></trkpt><trkpt lat="54.729380499999984" lon="25.28986230000001"><ele>114.0</ele><time>2021-12-05T14:31:08Z</time></trkpt><trkpt lat="54.729287800000016" lon="25.289899200000036"><ele>113.0</ele><time>2021-12-05T14:31:21Z</time></trkpt><trkpt lat="54.729196599999995" lon="25.28986530000003"><ele>113.0</ele><time>2021-12-05T14:31:37Z</time></trkpt><trkpt lat="54.729096799999986" lon="25.289862599999992"><ele>113.0</ele><time>2021-12-05T14:32:00Z</time></trkpt><trkpt lat="54.72899979999999" lon="25.289871300000044"><ele>113.0</ele><time>2021-12-05T14:32:10Z</time></trkpt><trkpt lat="54.72891249999999" lon="25.2899118"><ele>113.0</ele><time>2021-12-05T14:32:45Z</time></trkpt><trkpt lat="54.72881550000001" lon="25.289929400000005"><ele>113.0</ele><time>2021-12-05T14:32:56Z</time></trkpt><trkpt lat="54.728724" lon="25.2899089"><ele>114.0</ele><time>2021-12-05T14:33:03Z</time></trkpt><trkpt lat="54.72864770000001" lon="25.289815500000003"><ele>113.0</ele><time>2021-12-05T14:33:58Z</time></trkpt><trkpt lat="54.728554699999975" lon="25.2898208"><ele>113.0</ele><time>2021-12-05T14:34:10Z</time></trkpt><trkpt lat="54.7284619" lon="25.289830599999988"><ele>113.0</ele><time>2021-12-05T14:34:23Z</time></trkpt><trkpt lat="54.728362999999995" lon="25.28982400000004"><ele>113.0</ele><time>2021-12-05T14:34:35Z</time></trkpt><trkpt lat="54.7282699" lon="25.28983580000002"><ele>114.0</ele><time>2021-12-05T14:34:43Z</time></trkpt><trkpt lat="54.72817559999999" lon="25.28985940000001"><ele>114.0</ele><time>2021-12-05T14:34:54Z</time></trkpt><trkpt lat="54.72807840000001" lon="25.2898342"><ele>115.0</ele><time>2021-12-05T14:35:03Z</time></trkpt><trkpt lat="54.727983599999995" lon="25.28982210000001"><ele>115.0</ele><time>2021-12-05T14:35:24Z</time></trkpt><trkpt lat="54.72788849999999" lon="25.289803300000017"><ele>115.0</ele><time>2021-12-05T14:35:31Z</time></trkpt><trkpt lat="54.727803400000006" lon="25.289738399999976"><ele>116.0</ele><time>2021-12-05T14:35:39Z</time></trkpt><trkpt lat="54.72771199999998" lon="25.28967259999999"><ele>116.0</ele><time>2021-12-05T14:35:48Z</time></trkpt><trkpt lat="54.727637" lon="25.28955769999999"><ele>116.0</ele><time>2021-12-05T14:35:57Z</time></trkpt><trkpt lat="54.7275678" lon="25.28944910000004"><ele>116.0</ele><time>2021-12-05T14:36:06Z</time></trkpt><trkpt lat="54.727508499999985" lon="25.289317099999977"><ele>116.0</ele><time>2021-12-05T14:36:14Z</time></trkpt><trkpt lat="54.7274427" lon="25.28918440000004"><ele>116.0</ele><time>2021-12-05T14:36:23Z</time></trkpt><trkpt lat="54.727389099999996" lon="25.28905800000001"><ele>117.0</ele><time>2021-12-05T14:36:31Z</time></trkpt><trkpt lat="54.72732319999999" lon="25.28894250000002"><ele>117.0</ele><time>2021-12-05T14:36:40Z</time></trkpt><trkpt lat="54.7272686" lon="25.288816300000036"><ele>117.0</ele><time>2021-12-05T14:36:49Z</time></trkpt><trkpt lat="54.72722069999999" lon="25.288681200000013"><ele>117.0</ele><time>2021-12-05T14:36:57Z</time></trkpt><trkpt lat="54.727185999999996" lon="25.288535199999984"><ele>117.0</ele><time>2021-12-05T14:37:05Z</time></trkpt><trkpt lat="54.727164299999984" lon="25.288381800000025"><ele>117.0</ele><time>2021-12-05T14:37:14Z</time></trkpt><trkpt lat="54.7271735" lon="25.28820590000001"><ele>116.0</ele><time>2021-12-05T14:37:31Z</time></trkpt><trkpt lat="54.727191199999986" lon="25.2880313"><ele>116.0</ele><time>2021-12-05T14:37:39Z</time></trkpt><trkpt lat="54.72719079999999" lon="25.28787030000001"><ele>116.0</ele><time>2021-12-05T14:37:49Z</time></trkpt><trkpt lat="54.7271947" lon="25.287712700000014"><ele>116.0</ele><time>2021-12-05T14:37:56Z</time></trkpt><trkpt lat="54.7272053" lon="25.28755620000001"><ele>117.0</ele><time>2021-12-05T14:38:06Z</time></trkpt><trkpt lat="54.72718069999999" lon="25.28740540000001"><ele>117.0</ele><time>2021-12-05T14:38:16Z</time></trkpt><trkpt lat="54.7271842" lon="25.28724600000001"><ele>116.0</ele><time>2021-12-05T14:38:55Z</time></trkpt><trkpt lat="54.72713739999999" lon="25.287111699999997"><ele>116.0</ele><time>2021-12-05T14:39:06Z</time></trkpt><trkpt lat="54.7270673" lon="25.28701000000001"><ele>116.0</ele><time>2021-12-05T14:39:19Z</time></trkpt><trkpt lat="54.727047899999995" lon="25.286836099999988"><ele>116.0</ele><time>2021-12-05T14:39:29Z</time></trkpt><trkpt lat="54.727027199999995" lon="25.286679100000015"><ele>116.0</ele><time>2021-12-05T14:39:38Z</time></trkpt><trkpt lat="54.7270102" lon="25.286522899999994"><ele>117.0</ele><time>2021-12-05T14:39:46Z</time></trkpt><trkpt lat="54.72697779999999" lon="25.28637090000001"><ele>118.0</ele><time>2021-12-05T14:39:57Z</time></trkpt><trkpt lat="54.7269118" lon="25.28626270000001"><ele>118.0</ele><time>2021-12-05T14:40:05Z</time></trkpt><trkpt lat="54.7268134" lon="25.286229100000043"><ele>118.0</ele><time>2021-12-05T14:40:15Z</time></trkpt><trkpt lat="54.72672250000001" lon="25.286233100000004"><ele>117.0</ele><time>2021-12-05T14:40:24Z</time></trkpt><trkpt lat="54.7266576" lon="25.28611939999999"><ele>118.0</ele><time>2021-12-05T14:40:38Z</time></trkpt><trkpt lat="54.72663669999999" lon="25.285957900000028"><ele>120.0</ele><time>2021-12-05T14:40:58Z</time></trkpt><trkpt lat="54.72657879999999" lon="25.285825500000016"><ele>120.0</ele><time>2021-12-05T14:41:10Z</time></trkpt><trkpt lat="54.726536199999984" lon="25.285687300000006"><ele>121.0</ele><time>2021-12-05T14:41:21Z</time></trkpt><trkpt lat="54.72648139999999" lon="25.28555990000001"><ele>124.0</ele><time>2021-12-05T14:41:40Z</time></trkpt><trkpt lat="54.72647229999998" lon="25.285394600000018"><ele>125.0</ele><time>2021-12-05T14:41:51Z</time></trkpt><trkpt lat="54.72643810000001" lon="25.28523960000001"><ele>128.0</ele><time>2021-12-05T14:42:10Z</time></trkpt><trkpt lat="54.726469599999994" lon="25.285059400000023"><ele>132.0</ele><time>2021-12-05T14:42:41Z</time></trkpt><trkpt lat="54.72655739999998" lon="25.285012500000022"><ele>133.0</ele><time>2021-12-05T14:42:57Z</time></trkpt><trkpt lat="54.726644" lon="25.284953100000024"><ele>135.0</ele><time>2021-12-05T14:43:23Z</time></trkpt><trkpt lat="54.7267336" lon="25.284935299999972"><ele>136.0</ele><time>2021-12-05T14:43:41Z</time></trkpt><trkpt lat="54.72682749999999" lon="25.28493960000003"><ele>137.0</ele><time>2021-12-05T14:43:54Z</time></trkpt><trkpt lat="54.726920699999994" lon="25.28493960000003"><ele>138.0</ele><time>2021-12-05T14:44:07Z</time></trkpt><trkpt lat="54.72701850000001" lon="25.2849219"><ele>140.0</ele><time>2021-12-05T14:44:23Z</time></trkpt><trkpt lat="54.72711460000001" lon="25.2849722"><ele>141.0</ele><time>2021-12-05T14:44:32Z</time></trkpt><trkpt lat="54.7271706" lon="25.28509489999999"><ele>143.0</ele><time>2021-12-05T14:44:52Z</time></trkpt><trkpt lat="54.727217599999996" lon="25.285242600000032"><ele>143.0</ele><time>2021-12-05T14:45:01Z</time></trkpt><trkpt lat="54.72726829999999" lon="25.285386600000038"><ele>143.0</ele><time>2021-12-05T14:45:12Z</time></trkpt><trkpt lat="54.727342600000014" lon="25.285494100000022"><ele>143.0</ele><time>2021-12-05T14:45:25Z</time></trkpt><trkpt lat="54.727401" lon="25.28561350000001"><ele>143.0</ele><time>2021-12-05T14:45:36Z</time></trkpt><trkpt lat="54.72744569999998" lon="25.285758200000032"><ele>143.0</ele><time>2021-12-05T14:45:48Z</time></trkpt><trkpt lat="54.72751409999999" lon="25.2858751"><ele>142.0</ele><time>2021-12-05T14:45:56Z</time></trkpt><trkpt lat="54.72755409999999" lon="25.286035700000014"><ele>142.0</ele><time>2021-12-05T14:46:04Z</time></trkpt><trkpt lat="54.7275847" lon="25.286185400000022"><ele>141.0</ele><time>2021-12-05T14:46:12Z</time></trkpt><trkpt lat="54.727632500000006" lon="25.2863452"><ele>141.0</ele><time>2021-12-05T14:46:20Z</time></trkpt><trkpt lat="54.7276255" lon="25.28651670000002"><ele>140.0</ele><time>2021-12-05T14:46:34Z</time></trkpt><trkpt lat="54.727610399999996" lon="25.286682400000018"><ele>140.0</ele><time>2021-12-05T14:46:47Z</time></trkpt><trkpt lat="54.72762440000001" lon="25.286846499999996"><ele>139.0</ele><time>2021-12-05T14:47:26Z</time></trkpt><trkpt lat="54.727674400000005" lon="25.286984400000023"><ele>139.0</ele><time>2021-12-05T14:47:37Z</time></trkpt><trkpt lat="54.72773240000001" lon="25.287032899999986"><ele>140.0</ele><time>2021-12-05T14:50:26Z</time></trkpt><trkpt lat="54.72779039999999" lon="25.287153700000005"><ele>140.0</ele><time>2021-12-05T14:50:36Z</time></trkpt><trkpt lat="54.72789269999999" lon="25.287137599999994"><ele>142.0</ele><time>2021-12-05T14:50:52Z</time></trkpt><trkpt lat="54.72798899999999" lon="25.28716300000002"><ele>142.0</ele><time>2021-12-05T14:51:00Z</time></trkpt><trkpt lat="54.728076899999984" lon="25.287115099999994"><ele>143.0</ele><time>2021-12-05T14:51:53Z</time></trkpt><trkpt lat="54.728118" lon="25.286972700000007"><ele>143.0</ele><time>2021-12-05T14:52:03Z</time></trkpt><trkpt lat="54.7281516" lon="25.2868273"><ele>144.0</ele><time>2021-12-05T14:52:16Z</time></trkpt><trkpt lat="54.72819569999999" lon="25.28668590000001"><ele>145.0</ele><time>2021-12-05T14:52:25Z</time></trkpt><trkpt lat="54.72825209999999" lon="25.286550699999992"><ele>145.0</ele><time>2021-12-05T14:52:36Z</time></trkpt><trkpt lat="54.72832099999999" lon="25.286426199999994"><ele>145.0</ele><time>2021-12-05T14:53:02Z</time></trkpt><trkpt lat="54.7283637" lon="25.286272700000012"><ele>142.0</ele><time>2021-12-05T14:53:36Z</time></trkpt><trkpt lat="54.72841319999999" lon="25.286133300000017"><ele>140.0</ele><time>2021-12-05T14:53:46Z</time></trkpt><trkpt lat="54.728481699999996" lon="25.286025199999983"><ele>138.0</ele><time>2021-12-05T14:54:13Z</time></trkpt><trkpt lat="54.72856339999999" lon="25.285945200000015"><ele>136.0</ele><time>2021-12-05T14:54:51Z</time></trkpt><trkpt lat="54.72865199999999" lon="25.28589070000001"><ele>135.0</ele><time>2021-12-05T14:55:03Z</time></trkpt><trkpt lat="54.7286798" lon="25.285757200000035"><ele>134.0</ele><time>2021-12-05T14:57:30Z</time></trkpt><trkpt lat="54.7287078" lon="25.28559910000004"><ele>132.0</ele><time>2021-12-05T14:57:45Z</time></trkpt><trkpt lat="54.728760699999995" lon="25.285467600000032"><ele>133.0</ele><time>2021-12-05T14:58:05Z</time></trkpt><trkpt lat="54.728853999999984" lon="25.285445100000004"><ele>134.0</ele><time>2021-12-05T14:58:45Z</time></trkpt><trkpt lat="54.728951" lon="25.285456600000032"><ele>134.0</ele><time>2021-12-05T14:58:59Z</time></trkpt><trkpt lat="54.72904239999999" lon="25.2854581"><ele>133.0</ele><time>2021-12-05T14:59:16Z</time></trkpt><trkpt lat="54.72913290000001" lon="25.285432799999967"><ele>133.0</ele><time>2021-12-05T14:59:27Z</time></trkpt><trkpt lat="54.729225599999985" lon="25.285456899999986"><ele>131.0</ele><time>2021-12-05T14:59:39Z</time></trkpt><trkpt lat="54.7293185" lon="25.28546270000001"><ele>129.0</ele><time>2021-12-05T14:59:49Z</time></trkpt><trkpt lat="54.7294187" lon="25.285510200000033"><ele>129.0</ele><time>2021-12-05T14:59:58Z</time></trkpt><trkpt lat="54.7295013" lon="25.285588800000028"><ele>128.0</ele><time>2021-12-05T15:01:11Z</time></trkpt><trkpt lat="54.72958349999999" lon="25.285524900000013"><ele>128.0</ele><time>2021-12-05T15:01:23Z</time></trkpt><trkpt lat="54.72967729999999" lon="25.28548040000001"><ele>128.0</ele><time>2021-12-05T15:01:30Z</time></trkpt><trkpt lat="54.72976859999999" lon="25.28546000000003"><ele>130.0</ele><time>2021-12-05T15:01:58Z</time></trkpt><trkpt lat="54.7298558" lon="25.285530499999993"><ele>130.0</ele><time>2021-12-05T15:02:29Z</time></trkpt><trkpt lat="54.729952499999996" lon="25.28559340000004"><ele>131.0</ele><time>2021-12-05T15:02:37Z</time></trkpt><trkpt lat="54.730043299999984" lon="25.285656400000022"><ele>132.0</ele><time>2021-12-05T15:02:44Z</time></trkpt><trkpt lat="54.730131799999995" lon="25.285703300000023"><ele>132.0</ele><time>2021-12-05T15:02:51Z</time></trkpt><trkpt lat="54.73022790000001" lon="25.285748300000023"><ele>134.0</ele><time>2021-12-05T15:02:58Z</time></trkpt><trkpt lat="54.7303099" lon="25.285830900000036"><ele>135.0</ele><time>2021-12-05T15:03:08Z</time></trkpt><trkpt lat="54.730392599999995" lon="25.285914700000006"><ele>135.0</ele><time>2021-12-05T15:03:17Z</time></trkpt><trkpt lat="54.7304754" lon="25.286007600000005"><ele>136.0</ele><time>2021-12-05T15:03:25Z</time></trkpt><trkpt lat="54.730551699999985" lon="25.2860953"><ele>138.0</ele><time>2021-12-05T15:03:33Z</time></trkpt><trkpt lat="54.73062600000001" lon="25.286187900000016"><ele>138.0</ele><time>2021-12-05T15:03:41Z</time></trkpt><trkpt lat="54.730717799999994" lon="25.286177200000026"><ele>139.0</ele><time>2021-12-05T15:03:56Z</time></trkpt><trkpt lat="54.73078850000001" lon="25.286061499999988"><ele>139.0</ele><time>2021-12-05T15:04:08Z</time></trkpt><trkpt lat="54.7308564" lon="25.285957499999995"><ele>138.0</ele><time>2021-12-05T15:04:17Z</time></trkpt><trkpt lat="54.730917100000006" lon="25.28582160000002"><ele>137.0</ele><time>2021-12-05T15:04:25Z</time></trkpt><trkpt lat="54.73097229999999" lon="25.285691300000025"><ele>137.0</ele><time>2021-12-05T15:04:34Z</time></trkpt><trkpt lat="54.731033" lon="25.285562400000003"><ele>136.0</ele><time>2021-12-05T15:04:42Z</time></trkpt><trkpt lat="54.73110349999999" lon="25.285445100000004"><ele>136.0</ele><time>2021-12-05T15:04:51Z</time></trkpt><trkpt lat="54.73116980000001" lon="25.28532800000002"><ele>136.0</ele><time>2021-12-05T15:04:59Z</time></trkpt><trkpt lat="54.731238700000006" lon="25.285220500000037"><ele>136.0</ele><time>2021-12-05T15:05:08Z</time></trkpt><trkpt lat="54.73129749999998" lon="25.285089499999998"><ele>136.0</ele><time>2021-12-05T15:05:18Z</time></trkpt><trkpt lat="54.731342999999995" lon="25.284951399999983"><ele>137.0</ele><time>2021-12-05T15:05:25Z</time></trkpt><trkpt lat="54.7313684" lon="25.28479820000004"><ele>136.0</ele><time>2021-12-05T15:05:38Z</time></trkpt><trkpt lat="54.73141079999999" lon="25.284650099999993"><ele>135.0</ele><time>2021-12-05T15:05:48Z</time></trkpt><trkpt lat="54.7314845" lon="25.28455170000001"><ele>134.0</ele><time>2021-12-05T15:06:06Z</time></trkpt><trkpt lat="54.7315747" lon="25.284500500000007"><ele>134.0</ele><time>2021-12-05T15:06:14Z</time></trkpt><trkpt lat="54.73166239999998" lon="25.284454400000044"><ele>134.0</ele><time>2021-12-05T15:06:22Z</time></trkpt><trkpt lat="54.73175520000001" lon="25.284417200000007"><ele>134.0</ele><time>2021-12-05T15:06:30Z</time></trkpt><trkpt lat="54.731852" lon="25.284408799999994"><ele>135.0</ele><time>2021-12-05T15:06:39Z</time></trkpt><trkpt lat="54.7319435" lon="25.284416300000004"><ele>136.0</ele><time>2021-12-05T15:06:56Z</time></trkpt><trkpt lat="54.7320411" lon="25.284424100000024"><ele>137.0</ele><time>2021-12-05T15:07:06Z</time></trkpt><trkpt lat="54.732128599999996" lon="25.28446120000001"><ele>137.0</ele><time>2021-12-05T15:07:15Z</time></trkpt><trkpt lat="54.73222440000001" lon="25.284506499999992"><ele>137.0</ele><time>2021-12-05T15:07:26Z</time></trkpt><trkpt lat="54.73230789999999" lon="25.284610499999957"><ele>138.0</ele><time>2021-12-05T15:07:33Z</time></trkpt><trkpt lat="54.732375" lon="25.284725500000008"><ele>138.0</ele><time>2021-12-05T15:07:45Z</time></trkpt><trkpt lat="54.73241409999999" lon="25.284875599999992"><ele>137.0</ele><time>2021-12-05T15:07:55Z</time></trkpt><trkpt lat="54.7324638" lon="25.285006899999985"><ele>135.0</ele><time>2021-12-05T15:08:04Z</time></trkpt><trkpt lat="54.7324993" lon="25.285166000000004"><ele>134.0</ele><time>2021-12-05T15:08:14Z</time></trkpt><trkpt lat="54.73255329999999" lon="25.285300699999993"><ele>134.0</ele><time>2021-12-05T15:08:22Z</time></trkpt><trkpt lat="54.732606599999976" lon="25.285436199999992"><ele>133.0</ele><time>2021-12-05T15:08:46Z</time></trkpt><trkpt lat="54.73268209999999" lon="25.285528599999992"><ele>132.0</ele><time>2021-12-05T15:09:11Z</time></trkpt><trkpt lat="54.7327671" lon="25.285617599999995"><ele>131.0</ele><time>2021-12-05T15:09:20Z</time></trkpt><trkpt lat="54.7328361" lon="25.285718099999997"><ele>131.0</ele><time>2021-12-05T15:09:27Z</time></trkpt><trkpt lat="54.732904500000004" lon="25.285826299999997"><ele>130.0</ele><time>2021-12-05T15:09:36Z</time></trkpt><trkpt lat="54.7329792" lon="25.285942800000015"><ele>130.0</ele><time>2021-12-05T15:09:43Z</time></trkpt><trkpt lat="54.7330351" lon="25.28607930000004"><ele>130.0</ele><time>2021-12-05T15:09:52Z</time></trkpt><trkpt lat="54.7331108" lon="25.286168800000013"><ele>130.0</ele><time>2021-12-05T15:10:03Z</time></trkpt><trkpt lat="54.73318840000001" lon="25.286263500000018"><ele>131.0</ele><time>2021-12-05T15:10:24Z</time></trkpt><trkpt lat="54.733274499999986" lon="25.286348199999992"><ele>131.0</ele><time>2021-12-05T15:10:33Z</time></trkpt><trkpt lat="54.7333563" lon="25.286425200000025"><ele>131.0</ele><time>2021-12-05T15:10:41Z</time></trkpt><trkpt lat="54.73343739999998" lon="25.28650540000004"><ele>132.0</ele><time>2021-12-05T15:10:51Z</time></trkpt><trkpt lat="54.7335216" lon="25.286561199999966"><ele>132.0</ele><time>2021-12-05T15:10:58Z</time></trkpt><trkpt lat="54.73361749999999" lon="25.2865539"><ele>133.0</ele><time>2021-12-05T15:11:16Z</time></trkpt><trkpt lat="54.733717700000014" lon="25.28654190000003"><ele>134.0</ele><time>2021-12-05T15:11:34Z</time></trkpt><trkpt lat="54.7338044" lon="25.286464500000022"><ele>135.0</ele><time>2021-12-05T15:11:47Z</time></trkpt><trkpt lat="54.7338802" lon="25.286361499999998"><ele>136.0</ele><time>2021-12-05T15:11:59Z</time></trkpt><trkpt lat="54.733950300000004" lon="25.28626220000001"><ele>137.0</ele><time>2021-12-05T15:12:14Z</time></trkpt><trkpt lat="54.734027000000005" lon="25.286178799999988"><ele>137.0</ele><time>2021-12-05T15:12:23Z</time></trkpt><trkpt lat="54.734102099999994" lon="25.28607690000004"><ele>138.0</ele><time>2021-12-05T15:12:32Z</time></trkpt><trkpt lat="54.73418529999999" lon="25.285994699999975"><ele>139.0</ele><time>2021-12-05T15:12:43Z</time></trkpt><trkpt lat="54.734274600000006" lon="25.285953000000006"><ele>140.0</ele><time>2021-12-05T15:12:53Z</time></trkpt><trkpt lat="54.73436349999999" lon="25.285904500000044"><ele>141.0</ele><time>2021-12-05T15:13:05Z</time></trkpt><trkpt lat="54.734441699999984" lon="25.2858186"><ele>143.0</ele><time>2021-12-05T15:13:20Z</time></trkpt><trkpt lat="54.73450239999998" lon="25.28569010000001"><ele>145.0</ele><time>2021-12-05T15:13:40Z</time></trkpt><trkpt lat="54.734520799999984" lon="25.285533100000038"><ele>146.0</ele><time>2021-12-05T15:13:51Z</time></trkpt><trkpt lat="54.734543099999996" lon="25.285370400000005"><ele>146.0</ele><time>2021-12-05T15:14:05Z</time></trkpt><trkpt lat="54.7346049" lon="25.285246900000033"><ele>146.0</ele><time>2021-12-05T15:14:21Z</time></trkpt><trkpt lat="54.7346885" lon="25.285154600000027"><ele>145.0</ele><time>2021-12-05T15:14:32Z</time></trkpt><trkpt lat="54.73476730000001" lon="25.285231799999963"><ele>144.0</ele><time>2021-12-05T15:14:47Z</time></trkpt><trkpt lat="54.734863399999995" lon="25.28526199999999"><ele>143.0</ele><time>2021-12-05T15:14:56Z</time></trkpt><trkpt lat="54.7349573" lon="25.28530330000001"><ele>143.0</ele><time>2021-12-05T15:15:04Z</time></trkpt><trkpt lat="54.73501730000001" lon="25.28542139999999"><ele>142.0</ele><time>2021-12-05T15:15:15Z</time></trkpt><trkpt lat="54.735106200000004" lon="25.285462999999993"><ele>142.0</ele><time>2021-12-05T15:15:26Z</time></trkpt><trkpt lat="54.735188099999995" lon="25.285547399999984"><ele>141.0</ele><time>2021-12-05T15:15:36Z</time></trkpt><trkpt lat="54.7352741" lon="25.285610899999995"><ele>141.0</ele><time>2021-12-05T15:15:48Z</time></trkpt><trkpt lat="54.7353591" lon="25.285719099999994"><ele>141.0</ele><time>2021-12-05T15:16:11Z</time></trkpt><trkpt lat="54.73544569999999" lon="25.285790700000007"><ele>140.0</ele><time>2021-12-05T15:16:17Z</time></trkpt><trkpt lat="54.73552769999999" lon="25.28586200000001"><ele>139.0</ele><time>2021-12-05T15:16:25Z</time></trkpt><trkpt lat="54.735602899999996" lon="25.285882500000014"><ele>140.0</ele><time>2021-12-05T15:22:47Z</time></trkpt><trkpt lat="54.73566929999999" lon="25.285767899999996"><ele>143.0</ele><time>2021-12-05T15:23:11Z</time></trkpt><trkpt lat="54.7357336" lon="25.285646600000007"><ele>146.0</ele><time>2021-12-05T15:23:24Z</time></trkpt><trkpt lat="54.735767900000006" lon="25.285498400000023"><ele>147.0</ele><time>2021-12-05T15:23:37Z</time></trkpt><trkpt lat="54.735867000000006" lon="25.285473300000007"><ele>149.0</ele><time>2021-12-05T15:24:21Z</time></trkpt><trkpt lat="54.7359648" lon="25.28547979999999"><ele>149.0</ele><time>2021-12-05T15:24:30Z</time></trkpt><trkpt lat="54.73605789999999" lon="25.285427800000036"><ele>148.0</ele><time>2021-12-05T15:24:40Z</time></trkpt><trkpt lat="54.7361517" lon="25.285450300000036"><ele>148.0</ele><time>2021-12-05T15:24:55Z</time></trkpt><trkpt lat="54.736246" lon="25.285470000000032"><ele>149.0</ele><time>2021-12-05T15:25:04Z</time></trkpt><trkpt lat="54.7363368" lon="25.28548699999999"><ele>148.0</ele><time>2021-12-05T15:25:26Z</time></trkpt><trkpt lat="54.73643429999999" lon="25.285488300000026"><ele>143.0</ele><time>2021-12-05T15:26:22Z</time></trkpt><trkpt lat="54.736514399999976" lon="25.285401300000018"><ele>141.0</ele><time>2021-12-05T15:26:57Z</time></trkpt><trkpt lat="54.736499399999985" lon="25.285237499999994"><ele>143.0</ele><time>2021-12-05T15:27:23Z</time></trkpt><trkpt lat="54.7364587" lon="25.28509410000001"><ele>144.0</ele><time>2021-12-05T15:27:36Z</time></trkpt><trkpt lat="54.736408600000004" lon="25.28495240000001"><ele>144.0</ele><time>2021-12-05T15:27:51Z</time></trkpt><trkpt lat="54.73636299999998" lon="25.28480540000004"><ele>146.0</ele><time>2021-12-05T15:28:03Z</time></trkpt><trkpt lat="54.7363789" lon="25.284647199999995"><ele>147.0</ele><time>2021-12-05T15:28:10Z</time></trkpt><trkpt lat="54.7364489" lon="25.28454290000002"><ele>149.0</ele><time>2021-12-05T15:28:34Z</time></trkpt><trkpt lat="54.736540299999994" lon="25.284489699999995"><ele>149.0</ele><time>2021-12-05T15:28:46Z</time></trkpt><trkpt lat="54.73663179999999" lon="25.28444840000003"><ele>150.0</ele><time>2021-12-05T15:28:56Z</time></trkpt><trkpt lat="54.7367229" lon="25.284409900000043"><ele>150.0</ele><time>2021-12-05T15:29:07Z</time></trkpt><trkpt lat="54.7368245" lon="25.284404300000006"><ele>150.0</ele><time>2021-12-05T15:29:15Z</time></trkpt><trkpt lat="54.73690550000001" lon="25.28448350000002"><ele>149.0</ele><time>2021-12-05T15:29:24Z</time></trkpt><trkpt lat="54.7370048" lon="25.284512200000023"><ele>149.0</ele><time>2021-12-05T15:29:34Z</time></trkpt><trkpt lat="54.737097699999985" lon="25.28453860000002"><ele>150.0</ele><time>2021-12-05T15:29:46Z</time></trkpt><trkpt lat="54.7371967" lon="25.28455550000001"><ele>149.0</ele><time>2021-12-05T15:30:11Z</time></trkpt><trkpt lat="54.73729199999999" lon="25.28459049999998"><ele>148.0</ele><time>2021-12-05T15:30:18Z</time></trkpt><trkpt lat="54.73738219999999" lon="25.2846763"><ele>146.0</ele><time>2021-12-05T15:30:25Z</time></trkpt><trkpt lat="54.73746469999999" lon="25.284795000000003"><ele>146.0</ele><time>2021-12-05T15:30:42Z</time></trkpt><trkpt lat="54.7375463" lon="25.284870100000035"><ele>146.0</ele><time>2021-12-05T15:30:49Z</time></trkpt><trkpt lat="54.73762789999999" lon="25.28497740000003"><ele>146.0</ele><time>2021-12-05T15:30:56Z</time></trkpt><trkpt lat="54.7376928" lon="25.285087300000015"><ele>147.0</ele><time>2021-12-05T15:31:04Z</time></trkpt><trkpt lat="54.73777859999999" lon="25.28516479999999"><ele>148.0</ele><time>2021-12-05T15:31:16Z</time></trkpt><trkpt lat="54.73786069999999" lon="25.285246900000033"><ele>148.0</ele><time>2021-12-05T15:31:25Z</time></trkpt><trkpt lat="54.7379427" lon="25.28531480000001"><ele>149.0</ele><time>2021-12-05T15:31:33Z</time></trkpt><trkpt lat="54.7380357" lon="25.285324299999985"><ele>149.0</ele><time>2021-12-05T15:31:42Z</time></trkpt><trkpt lat="54.73812519999999" lon="25.285342500000013"><ele>149.0</ele><time>2021-12-05T15:31:59Z</time></trkpt><trkpt lat="54.7382202" lon="25.285348099999993"><ele>149.0</ele><time>2021-12-05T15:32:07Z</time></trkpt><trkpt lat="54.738319399999995" lon="25.28538560000004"><ele>149.0</ele><time>2021-12-05T15:32:15Z</time></trkpt><trkpt lat="54.7384133" lon="25.2854404"><ele>149.0</ele><time>2021-12-05T15:32:24Z</time></trkpt><trkpt lat="54.73850279999999" lon="25.28546560000001"><ele>149.0</ele><time>2021-12-05T15:32:35Z</time></trkpt><trkpt lat="54.73859749999999" lon="25.28547789999999"><ele>150.0</ele><time>2021-12-05T15:32:46Z</time></trkpt><trkpt lat="54.738694899999985" lon="25.285476999999986"><ele>150.0</ele><time>2021-12-05T15:32:55Z</time></trkpt><trkpt lat="54.73878630000001" lon="25.285481500000003"><ele>150.0</ele><time>2021-12-05T15:33:04Z</time></trkpt><trkpt lat="54.7388779" lon="25.28548010000003"><ele>150.0</ele><time>2021-12-05T15:33:18Z</time></trkpt><trkpt lat="54.7389677" lon="25.285435800000016"><ele>150.0</ele><time>2021-12-05T15:33:27Z</time></trkpt><trkpt lat="54.739065000000004" lon="25.285423400000013"><ele>150.0</ele><time>2021-12-05T15:33:35Z</time></trkpt><trkpt lat="54.73916249999999" lon="25.285424699999993"><ele>151.0</ele><time>2021-12-05T15:33:45Z</time></trkpt><trkpt lat="54.739256299999994" lon="25.285419100000013"><ele>152.0</ele><time>2021-12-05T15:33:53Z</time></trkpt><trkpt lat="54.7393484" lon="25.285379200000023"><ele>152.0</ele><time>2021-12-05T15:34:00Z</time></trkpt><trkpt lat="54.739413899999995" lon="25.285262200000005"><ele>152.0</ele><time>2021-12-05T15:34:19Z</time></trkpt><trkpt lat="54.7394444" lon="25.285106100000007"><ele>152.0</ele><time>2021-12-05T15:34:42Z</time></trkpt><trkpt lat="54.73944159999999" lon="25.284937699999972"><ele>153.0</ele><time>2021-12-05T15:34:50Z</time></trkpt><trkpt lat="54.73946899999999" lon="25.284777100000014"><ele>153.0</ele><time>2021-12-05T15:35:14Z</time></trkpt><trkpt lat="54.7394864" lon="25.284621200000004"><ele>153.0</ele><time>2021-12-05T15:35:59Z</time></trkpt><trkpt lat="54.73951699999998" lon="25.284469099999967"><ele>153.0</ele><time>2021-12-05T15:36:06Z</time></trkpt></trkseg></trk></gpx>