<gpx xmlns="http://www.topografix.com/GPX/1/1" xmlns:xsi="http://www.w3.org/2001/XMLSchema-instance" xsi:schemaLocation="http://www.topografix.com/GPX/1/1 http://www.topografix.com/GPX/1/1/gpx.xsd" version="1.1" creator="togpx"><metadata/><trk><name>trails.lt route</name><desc>name=trails.lt route</desc><trkseg><trkpt lat="54.77600684281265" lon="25.443527132105828"/><trkpt lat="54.77754146710346" lon="25.444342523646355"/><trkpt lat="54.77808599721256" lon="25.44451418502331"/><trkpt lat="54.7783830105461" lon="25.445415407252312"/><trkpt lat="54.77924928697902" lon="25.4467457829237"/><trkpt lat="54.780239294470974" lon="25.44721785171032"/><trkpt lat="54.781031283017995" lon="25.447132021021844"/><trkpt lat="54.78241722565956" lon="25.445844560694695"/><trkpt lat="54.78338240765891" lon="25.44451418502331"/><trkpt lat="54.78410009216238" lon="25.443355470728875"/><trkpt lat="54.784669281160824" lon="25.442797571253777"/><trkpt lat="54.78523846214826" lon="25.441381364893914"/><trkpt lat="54.785733395625556" lon="25.439664751124383"/><trkpt lat="54.785733395625556" lon="25.439278513026238"/><trkpt lat="54.7867727362111" lon="25.437604814600945"/><trkpt lat="54.78719341409175" lon="25.43674650771618"/><trkpt lat="54.78758934221696" lon="25.4372185765028"/><trkpt lat="54.7882574621376" lon="25.43799105269909"/><trkpt lat="54.790954574763134" lon="25.437347322535516"/><trkpt lat="54.791647381990266" lon="25.436403184962273"/><trkpt lat="54.7925381166954" lon="25.43397846801281"/><trkpt lat="54.7926587088674" lon="25.43281690694812"/><trkpt lat="54.7925381166954" lon="25.431360632014275"/><trkpt lat="54.79241440471544" lon="25.4307169018507"/><trkpt lat="54.79225357857554" lon="25.430437952113152"/><trkpt lat="54.79200615249568" lon="25.429858594965935"/><trkpt lat="54.79167212488595" lon="25.429794221949578"/><trkpt lat="54.79133809451652" lon="25.43050232512951"/><trkpt lat="54.79090508807836" lon="25.431146055293084"/><trkpt lat="54.79002668934411" lon="25.431682497096062"/><trkpt lat="54.78928436567692" lon="25.431811243128777"/><trkpt lat="54.788183227136024" lon="25.43224039657116"/><trkpt lat="54.78773781426445" lon="25.432691007685662"/><trkpt lat="54.7870078214486" lon="25.43327036483288"/><trkpt lat="54.78672324440796" lon="25.43399992568493"/><trkpt lat="54.78656239562958" lon="25.434686571192742"/><trkpt lat="54.78640154621136" lon="25.4352015553236"/><trkpt lat="54.78604272597283" lon="25.43569508178234"/><trkpt lat="54.78584475482317" lon="25.436102777552605"/><trkpt lat="54.785857128048406" lon="25.436810880732537"/><trkpt lat="54.785696275824854" lon="25.437583356928826"/><trkpt lat="54.78552304963786" lon="25.438291460108758"/><trkpt lat="54.78548592964408" lon="25.43846312148571"/><trkpt lat="54.78527145815359" lon="25.438098341059685"/><trkpt lat="54.785172470812014" lon="25.4377764759779"/><trkpt lat="54.78529620495113" lon="25.437368780207635"/><trkpt lat="54.785358071878726" lon="25.436639219355584"/><trkpt lat="54.78529620495113" lon="25.436338811945916"/><trkpt lat="54.7851972176701" lon="25.436081319880486"/><trkpt lat="54.7851972176701" lon="25.43573799712658"/><trkpt lat="54.78537044525289" lon="25.435437589716912"/><trkpt lat="54.785419938711655" lon="25.43445053679943"/><trkpt lat="54.785419938711655" lon="25.432433515620232"/><trkpt lat="54.78572927145669" lon="25.43148937804699"/><trkpt lat="54.786397422110625" lon="25.43099585158825"/><trkpt lat="54.787065561725036" lon="25.43045940978527"/><trkpt lat="54.78796876995093" lon="25.42972984893322"/><trkpt lat="54.78869874541906" lon="25.42921486480236"/><trkpt lat="54.789032797594" lon="25.42876425368786"/><trkpt lat="54.789354474857774" lon="25.428163438868523"/><trkpt lat="54.789490568314356" lon="25.427348047327996"/><trkpt lat="54.789725637751346" lon="25.42648974044323"/><trkpt lat="54.78979986992121" lon="25.42550268752575"/><trkpt lat="54.78977512587974" lon="25.4252237377882"/><trkpt lat="54.78958954508599" lon="25.424944788050652"/><trkpt lat="54.789379219156665" lon="25.4247731266737"/><trkpt lat="54.78920600874633" lon="25.424580007624627"/><trkpt lat="54.78911940326289" lon="25.423871904444695"/><trkpt lat="54.788847213393076" lon="25.422670274806023"/><trkpt lat="54.788315200629675" lon="25.419194131922723"/><trkpt lat="54.78805537789887" lon="25.41799250228405"/><trkpt lat="54.78584063066564" lon="25.41329327208996"/><trkpt lat="54.78558079203438" lon="25.41275683028698"/><trkpt lat="54.785209591093505" lon="25.412628084254266"/><trkpt lat="54.78475177190712" lon="25.412070184779168"/><trkpt lat="54.78429394753783" lon="25.41252079589367"/><trkpt lat="54.783650509933786" lon="25.412370592188836"/><trkpt lat="54.783081306596614" lon="25.413100153040887"/><trkpt lat="54.78233885542167" lon="25.413464933466912"/><trkpt lat="54.781348899319894" lon="25.414108663630486"/><trkpt lat="54.781249902377006" lon="25.414902597498894"/><trkpt lat="54.781150905191815" lon="25.416383176875115"/><trkpt lat="54.78113853052662" lon="25.41855040175915"/><trkpt lat="54.781200403814694" lon="25.424322515559197"/><trkpt lat="54.78079203836428" lon="25.42470875365734"/><trkpt lat="54.78048166613809" lon="25.425235247170235"/><trkpt lat="54.78035891898715" lon="25.4257816372633"/><trkpt lat="54.78009904513463" lon="25.426575571131707"/><trkpt lat="54.77998767011527" lon="25.427648454737664"/><trkpt lat="54.77814375022778" lon="25.427562624049187"/><trkpt lat="54.77777248102403" lon="25.42771282775402"/><trkpt lat="54.77747546320755" lon="25.428141981196404"/><trkpt lat="54.77715369144528" lon="25.428184896540643"/><trkpt lat="54.77690617296338" lon="25.428184896540643"/><trkpt lat="54.77639875534072" lon="25.428313642573357"/><trkpt lat="54.77644825977924" lon="25.42900028808117"/><trkpt lat="54.77653489240083" lon="25.429837137293816"/><trkpt lat="54.77627499397947" lon="25.43000879867077"/><trkpt lat="54.77594083641274" lon="25.430094629359246"/><trkpt lat="54.77542103026698" lon="25.43048086745739"/><trkpt lat="54.77506211260163" lon="25.43200436217785"/><trkpt lat="54.7749012174421" lon="25.43301287276745"/><trkpt lat="54.77493834715109" lon="25.43372097594738"/><trkpt lat="54.775123995184906" lon="25.434429079127312"/><trkpt lat="54.7752477600675" lon="25.434901147913934"/><trkpt lat="54.77539627742677" lon="25.435373216700555"/><trkpt lat="54.77568093417479" lon="25.43625298125744"/><trkpt lat="54.77613885604474" lon="25.43646755797863"/><trkpt lat="54.77646063587939" lon="25.436081319880486"/><trkpt lat="54.77648538806836" lon="25.435544878077508"/><trkpt lat="54.7774507116244" lon="25.432133108210564"/><trkpt lat="54.7777972324103" lon="25.43148937804699"/><trkpt lat="54.778007618582066" lon="25.43075981719494"/><trkpt lat="54.77832938355178" lon="25.43050232512951"/><trkpt lat="54.77876252466154" lon="25.430373579096795"/><trkpt lat="54.77951741665252" lon="25.43121042830944"/><trkpt lat="54.78035891898715" lon="25.43247643096447"/><trkpt lat="54.7807796635893" lon="25.433163076472283"/><trkpt lat="54.7802846694854" lon="25.433592229914666"/><trkpt lat="54.78003898651285" lon="25.433904619062787"/><trkpt lat="54.7799010448882" lon="25.43451490981579"/><trkpt lat="54.77982679454589" lon="25.434815317225457"/><trkpt lat="54.779678293452406" lon="25.435308843684197"/><trkpt lat="54.779146160056875" lon="25.436424642634393"/><trkpt lat="54.77893577980676" lon="25.437583356928826"/><trkpt lat="54.77858926877421" lon="25.439299970698357"/><trkpt lat="54.778255130324396" lon="25.439857870173455"/><trkpt lat="54.777661099598426" lon="25.44095221145153"/><trkpt lat="54.776807165146586" lon="25.441917806696893"/><trkpt lat="54.77605222257503" lon="25.442540079188348"/><trkpt lat="54.77553241786051" lon="25.442904859614373"/><trkpt lat="54.7753220188153" lon="25.44320526702404"/><trkpt lat="54.77594083641274" lon="25.44350567443371"/></trkseg></trk></gpx>