<?xml version="1.0" encoding="UTF-8"?>
<gpx creator="StravaGPX" version="1.1" xmlns="http://www.topografix.com/GPX/1/1" xmlns:xsi="http://www.w3.org/2001/XMLSchema-instance" xsi:schemaLocation="http://www.topografix.com/GPX/1/1 http://www.topografix.com/GPX/1/1/gpx.xsd">
 <metadata>
  <name>3 Kryziai</name>
  <author>
   <name>Laurynas Remeika</name>
   <link href="https://www.strava.com/athletes/6442387"/>
  </author>
  <copyright author="OpenStreetMap contributors">
   <year>2020</year>
   <license>https://www.openstreetmap.org/copyright</license>
  </copyright>
  <link href="https://www.strava.com/routes/3475078185520760222"/>
 </metadata>
 <trk>
  <name>3 Kryziai</name>
  <link href="https://www.strava.com/routes/3475078185520760222"/>
  <type>running</type>
  <trkseg>
   <trkpt lat="54.688280000000006" lon="25.293750000000003">
    <ele>95.54</ele>
   </trkpt>
   <trkpt lat="54.688280000000006" lon="25.293920000000004">
    <ele>96.34</ele>
   </trkpt>
   <trkpt lat="54.688480000000006" lon="25.294860000000003">
    <ele>100.37000000000002</ele>
   </trkpt>
   <trkpt lat="54.68862000000001" lon="25.295620000000003">
    <ele>109.83000000000001</ele>
   </trkpt>
   <trkpt lat="54.688700000000004" lon="25.296190000000003">
    <ele>112.91000000000001</ele>
   </trkpt>
   <trkpt lat="54.68869" lon="25.296660000000003">
    <ele>116.73000000000002</ele>
   </trkpt>
   <trkpt lat="54.688610000000004" lon="25.297200000000004">
    <ele>120.92000000000002</ele>
   </trkpt>
   <trkpt lat="54.68858" lon="25.297210000000003">
    <ele>120.92000000000002</ele>
   </trkpt>
   <trkpt lat="54.688370000000006" lon="25.29774">
    <ele>126.22</ele>
   </trkpt>
   <trkpt lat="54.688140000000004" lon="25.298260000000003">
    <ele>131.16</ele>
   </trkpt>
   <trkpt lat="54.687990000000006" lon="25.29831">
    <ele>133.06</ele>
   </trkpt>
   <trkpt lat="54.687630000000006" lon="25.29831">
    <ele>139.02</ele>
   </trkpt>
   <trkpt lat="54.68744" lon="25.298280000000002">
    <ele>143.20000000000002</ele>
   </trkpt>
   <trkpt lat="54.687340000000006" lon="25.298280000000002">
    <ele>143.20000000000002</ele>
   </trkpt>
   <trkpt lat="54.68704" lon="25.298340000000003">
    <ele>147.97000000000003</ele>
   </trkpt>
   <trkpt lat="54.6867" lon="25.298460000000002">
    <ele>151.15</ele>
   </trkpt>
   <trkpt lat="54.686870000000006" lon="25.298060000000003">
    <ele>157.35000000000002</ele>
   </trkpt>
   <trkpt lat="54.687000000000005" lon="25.297670000000004">
    <ele>161.88000000000002</ele>
   </trkpt>
   <trkpt lat="54.68683000000001" lon="25.29773">
    <ele>162.33</ele>
   </trkpt>
   <trkpt lat="54.68679" lon="25.297780000000003">
    <ele>162.41000000000003</ele>
   </trkpt>
   <trkpt lat="54.68674000000001" lon="25.297790000000003">
    <ele>162.41000000000003</ele>
   </trkpt>
   <trkpt lat="54.686690000000006" lon="25.29774">
    <ele>162.73000000000002</ele>
   </trkpt>
   <trkpt lat="54.68666" lon="25.29763">
    <ele>162.85000000000002</ele>
   </trkpt>
   <trkpt lat="54.68668" lon="25.297530000000002">
    <ele>162.97</ele>
   </trkpt>
   <trkpt lat="54.6867" lon="25.297500000000003">
    <ele>162.96</ele>
   </trkpt>
   <trkpt lat="54.68668" lon="25.297530000000002">
    <ele>162.93</ele>
   </trkpt>
   <trkpt lat="54.68666" lon="25.29763">
    <ele>162.85000000000002</ele>
   </trkpt>
   <trkpt lat="54.686690000000006" lon="25.29774">
    <ele>162.73000000000002</ele>
   </trkpt>
   <trkpt lat="54.68674000000001" lon="25.297790000000003">
    <ele>162.41000000000003</ele>
   </trkpt>
   <trkpt lat="54.68679" lon="25.297780000000003">
    <ele>162.33</ele>
   </trkpt>
   <trkpt lat="54.68683000000001" lon="25.29773">
    <ele>162.33</ele>
   </trkpt>
   <trkpt lat="54.687000000000005" lon="25.297670000000004">
    <ele>161.88000000000002</ele>
   </trkpt>
   <trkpt lat="54.68685000000001" lon="25.298140000000004">
    <ele>154.63000000000002</ele>
   </trkpt>
   <trkpt lat="54.6867" lon="25.298460000000002">
    <ele>151.15</ele>
   </trkpt>
   <trkpt lat="54.68697" lon="25.298360000000002">
    <ele>148.4</ele>
   </trkpt>
   <trkpt lat="54.687340000000006" lon="25.298280000000002">
    <ele>143.20000000000002</ele>
   </trkpt>
   <trkpt lat="54.68744" lon="25.298280000000002">
    <ele>141.89000000000001</ele>
   </trkpt>
   <trkpt lat="54.687630000000006" lon="25.29831">
    <ele>139.02</ele>
   </trkpt>
   <trkpt lat="54.687990000000006" lon="25.29831">
    <ele>133.06</ele>
   </trkpt>
   <trkpt lat="54.688140000000004" lon="25.298260000000003">
    <ele>131.16</ele>
   </trkpt>
   <trkpt lat="54.688430000000004" lon="25.297600000000003">
    <ele>124.95</ele>
   </trkpt>
   <trkpt lat="54.68858" lon="25.297210000000003">
    <ele>120.92000000000002</ele>
   </trkpt>
   <trkpt lat="54.688610000000004" lon="25.297200000000004">
    <ele>120.92000000000002</ele>
   </trkpt>
   <trkpt lat="54.68869" lon="25.296660000000003">
    <ele>116.73000000000002</ele>
   </trkpt>
   <trkpt lat="54.688700000000004" lon="25.296190000000003">
    <ele>112.91000000000001</ele>
   </trkpt>
   <trkpt lat="54.68862000000001" lon="25.295620000000003">
    <ele>109.83000000000001</ele>
   </trkpt>
   <trkpt lat="54.688480000000006" lon="25.294860000000003">
    <ele>100.37000000000002</ele>
   </trkpt>
   <trkpt lat="54.688280000000006" lon="25.293920000000004">
    <ele>96.02000000000001</ele>
   </trkpt>
   <trkpt lat="54.688280000000006" lon="25.293590000000002">
    <ele>95.10000000000001</ele>
   </trkpt>
  </trkseg>
 </trk>
</gpx>
