<?xml version="1.0" encoding="UTF-8"?>
<gpx creator="StravaGPX" version="1.1" xmlns="http://www.topografix.com/GPX/1/1" xmlns:xsi="http://www.w3.org/2001/XMLSchema-instance" xsi:schemaLocation="http://www.topografix.com/GPX/1/1 http://www.topografix.com/GPX/1/1/gpx.xsd">
 <metadata>
  <name>Vilnius Trail Run 21+</name>
  <author>
   <name>Vilius Aleliūnas</name>
   <link href="https://www.strava.com/athletes/18878315"/>
  </author>
  <copyright author="OpenStreetMap contributors">
   <year>2020</year>
   <license>https://www.openstreetmap.org/copyright</license>
  </copyright>
  <link href="https://www.strava.com/routes/3357287058796052916"/>
 </metadata>
 <trk>
  <name>Vilnius Trail Run 21+</name>
  <link href="https://www.strava.com/routes/3357287058796052916"/>
  <type>running</type>
  <trkseg>
   <trkpt lat="54.6897" lon="25.29897">
    <ele>119.13000000000001</ele>
   </trkpt>
   <trkpt lat="54.68956000000001" lon="25.298470000000002">
    <ele>118.30000000000001</ele>
   </trkpt>
   <trkpt lat="54.68967000000001" lon="25.2986">
    <ele>117.81000000000002</ele>
   </trkpt>
   <trkpt lat="54.68945000000001" lon="25.298260000000003">
    <ele>118.19</ele>
   </trkpt>
   <trkpt lat="54.68932" lon="25.29803">
    <ele>117.75</ele>
   </trkpt>
   <trkpt lat="54.68916" lon="25.29794">
    <ele>118.57000000000001</ele>
   </trkpt>
   <trkpt lat="54.68880000000001" lon="25.29792">
    <ele>124.89000000000001</ele>
   </trkpt>
   <trkpt lat="54.68849" lon="25.298260000000003">
    <ele>132.58</ele>
   </trkpt>
   <trkpt lat="54.688280000000006" lon="25.298430000000003">
    <ele>136.96</ele>
   </trkpt>
   <trkpt lat="54.687850000000005" lon="25.298430000000003">
    <ele>142.74</ele>
   </trkpt>
   <trkpt lat="54.68706999992133" lon="25.298500001354128">
    <ele>149.58</ele>
   </trkpt>
   <trkpt lat="54.68629000000001" lon="25.29857">
    <ele>147.78000000000003</ele>
   </trkpt>
   <trkpt lat="54.685810000000004" lon="25.29876">
    <ele>141.74</ele>
   </trkpt>
   <trkpt lat="54.685010000000005" lon="25.29858">
    <ele>120.42000000000002</ele>
   </trkpt>
   <trkpt lat="54.68415" lon="25.29886">
    <ele>104.48</ele>
   </trkpt>
   <trkpt lat="54.684140000000006" lon="25.298910000000003">
    <ele>98.0</ele>
   </trkpt>
   <trkpt lat="54.684000000000005" lon="25.29904">
    <ele>97.76</ele>
   </trkpt>
   <trkpt lat="54.683440000000004" lon="25.29935">
    <ele>99.06</ele>
   </trkpt>
   <trkpt lat="54.68329000000001" lon="25.299400000000002">
    <ele>100.30000000000001</ele>
   </trkpt>
   <trkpt lat="54.68294" lon="25.299390000000002">
    <ele>100.34</ele>
   </trkpt>
   <trkpt lat="54.68283" lon="25.299360000000004">
    <ele>99.96000000000001</ele>
   </trkpt>
   <trkpt lat="54.68269000000001" lon="25.299270000000003">
    <ele>99.66000000000001</ele>
   </trkpt>
   <trkpt lat="54.68238" lon="25.299010000000003">
    <ele>98.84</ele>
   </trkpt>
   <trkpt lat="54.68222" lon="25.29885">
    <ele>98.33000000000001</ele>
   </trkpt>
   <trkpt lat="54.681920000000005" lon="25.298360000000002">
    <ele>97.55000000000001</ele>
   </trkpt>
   <trkpt lat="54.681830000000005" lon="25.29811">
    <ele>97.52000000000001</ele>
   </trkpt>
   <trkpt lat="54.68175" lon="25.297590000000003">
    <ele>96.89</ele>
   </trkpt>
   <trkpt lat="54.681720000000006" lon="25.297230000000003">
    <ele>96.38000000000001</ele>
   </trkpt>
   <trkpt lat="54.68177000000001" lon="25.29672">
    <ele>96.42</ele>
   </trkpt>
   <trkpt lat="54.682" lon="25.29549">
    <ele>97.80000000000001</ele>
   </trkpt>
   <trkpt lat="54.68229" lon="25.29566">
    <ele>97.05000000000001</ele>
   </trkpt>
   <trkpt lat="54.682520000000004" lon="25.294410000000003">
    <ele>97.76</ele>
   </trkpt>
   <trkpt lat="54.68254" lon="25.293960000000002">
    <ele>98.03</ele>
   </trkpt>
   <trkpt lat="54.68249" lon="25.29352">
    <ele>98.41000000000001</ele>
   </trkpt>
   <trkpt lat="54.68238" lon="25.29331">
    <ele>98.57000000000001</ele>
   </trkpt>
   <trkpt lat="54.682280000000006" lon="25.29313">
    <ele>98.65</ele>
   </trkpt>
   <trkpt lat="54.6822" lon="25.29304">
    <ele>98.76000000000002</ele>
   </trkpt>
   <trkpt lat="54.682120000000005" lon="25.293000000000003">
    <ele>98.88000000000001</ele>
   </trkpt>
   <trkpt lat="54.68187" lon="25.292990000000003">
    <ele>99.61</ele>
   </trkpt>
   <trkpt lat="54.681700000000006" lon="25.292910000000003">
    <ele>99.61</ele>
   </trkpt>
   <trkpt lat="54.681490000000004" lon="25.29268">
    <ele>99.92</ele>
   </trkpt>
   <trkpt lat="54.681270000000005" lon="25.292790000000004">
    <ele>100.0</ele>
   </trkpt>
   <trkpt lat="54.68101000000001" lon="25.292820000000003">
    <ele>99.98000000000002</ele>
   </trkpt>
   <trkpt lat="54.68076000000001" lon="25.292530000000003">
    <ele>100.07000000000001</ele>
   </trkpt>
   <trkpt lat="54.680640000000004" lon="25.292420000000003">
    <ele>100.07000000000001</ele>
   </trkpt>
   <trkpt lat="54.680510000000005" lon="25.292350000000003">
    <ele>100.07000000000001</ele>
   </trkpt>
   <trkpt lat="54.680440000000004" lon="25.29228">
    <ele>99.93</ele>
   </trkpt>
   <trkpt lat="54.67971000000001" lon="25.292800000000003">
    <ele>99.74000000000001</ele>
   </trkpt>
   <trkpt lat="54.679480000000005" lon="25.29295">
    <ele>99.9</ele>
   </trkpt>
   <trkpt lat="54.67934" lon="25.293080000000003">
    <ele>100.03</ele>
   </trkpt>
   <trkpt lat="54.67924000000001" lon="25.293200000000002">
    <ele>100.33</ele>
   </trkpt>
   <trkpt lat="54.67916" lon="25.293380000000003">
    <ele>100.33</ele>
   </trkpt>
   <trkpt lat="54.679080000000006" lon="25.293680000000002">
    <ele>100.53</ele>
   </trkpt>
   <trkpt lat="54.679050000000004" lon="25.29398">
    <ele>100.53</ele>
   </trkpt>
   <trkpt lat="54.679083346821436" lon="25.295259997847907">
    <ele>100.71000000000001</ele>
   </trkpt>
   <trkpt lat="54.679116680153484" lon="25.29653999779808">
    <ele>101.10000000000001</ele>
   </trkpt>
   <trkpt lat="54.67915000000001" lon="25.29782">
    <ele>101.63000000000001</ele>
   </trkpt>
   <trkpt lat="54.6792" lon="25.297950000000004">
    <ele>101.68</ele>
   </trkpt>
   <trkpt lat="54.679210000000005" lon="25.298070000000003">
    <ele>101.68</ele>
   </trkpt>
   <trkpt lat="54.679190000000006" lon="25.298170000000002">
    <ele>101.63000000000001</ele>
   </trkpt>
   <trkpt lat="54.679230000000004" lon="25.29839">
    <ele>101.63000000000001</ele>
   </trkpt>
   <trkpt lat="54.67974" lon="25.299450000000004">
    <ele>101.33</ele>
   </trkpt>
   <trkpt lat="54.67980000000001" lon="25.299500000000002">
    <ele>101.33</ele>
   </trkpt>
   <trkpt lat="54.6799" lon="25.299650000000003">
    <ele>101.34000000000002</ele>
   </trkpt>
   <trkpt lat="54.680110000000006" lon="25.300030000000003">
    <ele>101.36</ele>
   </trkpt>
   <trkpt lat="54.68025000000001" lon="25.30035">
    <ele>101.36</ele>
   </trkpt>
   <trkpt lat="54.68038000000001" lon="25.30082">
    <ele>101.57000000000001</ele>
   </trkpt>
   <trkpt lat="54.680420000000005" lon="25.301080000000002">
    <ele>101.62</ele>
   </trkpt>
   <trkpt lat="54.680440000000004" lon="25.301540000000003">
    <ele>101.89</ele>
   </trkpt>
   <trkpt lat="54.68041" lon="25.301820000000003">
    <ele>101.89</ele>
   </trkpt>
   <trkpt lat="54.68028" lon="25.302550000000004">
    <ele>102.05</ele>
   </trkpt>
   <trkpt lat="54.680170000000004" lon="25.30308">
    <ele>102.23</ele>
   </trkpt>
   <trkpt lat="54.679930000000006" lon="25.303910000000002">
    <ele>102.85000000000001</ele>
   </trkpt>
   <trkpt lat="54.679690002603074" lon="25.30469500442368">
    <ele>103.17000000000002</ele>
   </trkpt>
   <trkpt lat="54.67945" lon="25.305480000000003">
    <ele>103.79</ele>
   </trkpt>
   <trkpt lat="54.679320000000004" lon="25.305970000000002">
    <ele>104.08</ele>
   </trkpt>
   <trkpt lat="54.67924000000001" lon="25.306410000000003">
    <ele>103.81000000000002</ele>
   </trkpt>
   <trkpt lat="54.679210000000005" lon="25.30673">
    <ele>103.81000000000002</ele>
   </trkpt>
   <trkpt lat="54.679170000000006" lon="25.308090000000004">
    <ele>103.77000000000001</ele>
   </trkpt>
   <trkpt lat="54.67925" lon="25.30947">
    <ele>103.57000000000001</ele>
   </trkpt>
   <trkpt lat="54.67933500356449" lon="25.31039999809685">
    <ele>104.14000000000001</ele>
   </trkpt>
   <trkpt lat="54.67942000000001" lon="25.31133">
    <ele>104.71000000000001</ele>
   </trkpt>
   <trkpt lat="54.679410000000004" lon="25.311660000000003">
    <ele>104.63000000000001</ele>
   </trkpt>
   <trkpt lat="54.679370000000006" lon="25.311850000000003">
    <ele>104.50000000000001</ele>
   </trkpt>
   <trkpt lat="54.679280000000006" lon="25.31209">
    <ele>104.49000000000001</ele>
   </trkpt>
   <trkpt lat="54.67915000000001" lon="25.31229">
    <ele>104.66</ele>
   </trkpt>
   <trkpt lat="54.67906000000001" lon="25.312320000000003">
    <ele>105.2</ele>
   </trkpt>
   <trkpt lat="54.67853" lon="25.31218">
    <ele>107.3</ele>
   </trkpt>
   <trkpt lat="54.678450000000005" lon="25.312150000000003">
    <ele>107.50000000000001</ele>
   </trkpt>
   <trkpt lat="54.67855" lon="25.311750000000004">
    <ele>108.03000000000002</ele>
   </trkpt>
   <trkpt lat="54.678610000000006" lon="25.311650000000004">
    <ele>108.61000000000001</ele>
   </trkpt>
   <trkpt lat="54.67862" lon="25.311560000000004">
    <ele>108.61000000000001</ele>
   </trkpt>
   <trkpt lat="54.6786" lon="25.311490000000003">
    <ele>108.61000000000001</ele>
   </trkpt>
   <trkpt lat="54.67833" lon="25.311180000000004">
    <ele>108.85</ele>
   </trkpt>
   <trkpt lat="54.67833" lon="25.311120000000003">
    <ele>108.85</ele>
   </trkpt>
   <trkpt lat="54.678380000000004" lon="25.31098">
    <ele>108.82000000000001</ele>
   </trkpt>
   <trkpt lat="54.678670000000004" lon="25.311300000000003">
    <ele>108.93</ele>
   </trkpt>
   <trkpt lat="54.679120000000005" lon="25.311860000000003">
    <ele>109.36000000000001</ele>
   </trkpt>
   <trkpt lat="54.67962500157906" lon="25.312449992831677">
    <ele>110.91000000000001</ele>
   </trkpt>
   <trkpt lat="54.680130000000005" lon="25.31304">
    <ele>112.05000000000001</ele>
   </trkpt>
   <trkpt lat="54.68074000000001" lon="25.31379">
    <ele>115.68</ele>
   </trkpt>
   <trkpt lat="54.68144" lon="25.314680000000003">
    <ele>120.3</ele>
   </trkpt>
   <trkpt lat="54.68133" lon="25.314890000000002">
    <ele>121.06000000000002</ele>
   </trkpt>
   <trkpt lat="54.681470000000004" lon="25.315120000000004">
    <ele>122.4</ele>
   </trkpt>
   <trkpt lat="54.68142" lon="25.31547">
    <ele>127.85000000000002</ele>
   </trkpt>
   <trkpt lat="54.681250000000006" lon="25.31585">
    <ele>132.22</ele>
   </trkpt>
   <trkpt lat="54.681230000000006" lon="25.315890000000003">
    <ele>132.22</ele>
   </trkpt>
   <trkpt lat="54.68106" lon="25.316350000000003">
    <ele>133.88</ele>
   </trkpt>
   <trkpt lat="54.680960000000006" lon="25.316570000000002">
    <ele>135.42000000000002</ele>
   </trkpt>
   <trkpt lat="54.68092000000001" lon="25.316750000000003">
    <ele>136.04000000000002</ele>
   </trkpt>
   <trkpt lat="54.6809" lon="25.316940000000002">
    <ele>136.19</ele>
   </trkpt>
   <trkpt lat="54.680930000000004" lon="25.317330000000002">
    <ele>137.22</ele>
   </trkpt>
   <trkpt lat="54.68103000000001" lon="25.317760000000003">
    <ele>140.13</ele>
   </trkpt>
   <trkpt lat="54.68132000000001" lon="25.318170000000002">
    <ele>150.26</ele>
   </trkpt>
   <trkpt lat="54.681430000000006" lon="25.3184">
    <ele>153.03</ele>
   </trkpt>
   <trkpt lat="54.68141000000001" lon="25.318500000000004">
    <ele>153.43</ele>
   </trkpt>
   <trkpt lat="54.680910000000004" lon="25.3184">
    <ele>153.66000000000003</ele>
   </trkpt>
   <trkpt lat="54.680690000000006" lon="25.318420000000003">
    <ele>153.41000000000003</ele>
   </trkpt>
   <trkpt lat="54.68063000000001" lon="25.318520000000003">
    <ele>153.18</ele>
   </trkpt>
   <trkpt lat="54.680310000000006" lon="25.319360000000003">
    <ele>153.61</ele>
   </trkpt>
   <trkpt lat="54.68027000000001" lon="25.31953">
    <ele>153.38000000000002</ele>
   </trkpt>
   <trkpt lat="54.68018000000001" lon="25.31971">
    <ele>153.03</ele>
   </trkpt>
   <trkpt lat="54.67991000000001" lon="25.32054">
    <ele>152.35000000000002</ele>
   </trkpt>
   <trkpt lat="54.67989000000001" lon="25.320700000000002">
    <ele>152.17</ele>
   </trkpt>
   <trkpt lat="54.679840000000006" lon="25.320860000000003">
    <ele>152.17</ele>
   </trkpt>
   <trkpt lat="54.67963" lon="25.321930000000002">
    <ele>152.19000000000003</ele>
   </trkpt>
   <trkpt lat="54.67963" lon="25.32223">
    <ele>152.11</ele>
   </trkpt>
   <trkpt lat="54.67972" lon="25.322580000000002">
    <ele>151.98</ele>
   </trkpt>
   <trkpt lat="54.679730000000006" lon="25.323010000000004">
    <ele>152.01</ele>
   </trkpt>
   <trkpt lat="54.679660000000005" lon="25.323380000000004">
    <ele>152.31</ele>
   </trkpt>
   <trkpt lat="54.679660000000005" lon="25.323610000000002">
    <ele>152.46</ele>
   </trkpt>
   <trkpt lat="54.67969000000001" lon="25.32381">
    <ele>152.46</ele>
   </trkpt>
   <trkpt lat="54.67969000000001" lon="25.324270000000002">
    <ele>152.15</ele>
   </trkpt>
   <trkpt lat="54.67982000000001" lon="25.324550000000002">
    <ele>151.63000000000002</ele>
   </trkpt>
   <trkpt lat="54.67987" lon="25.32494">
    <ele>152.65</ele>
   </trkpt>
   <trkpt lat="54.67987" lon="25.32637">
    <ele>152.87</ele>
   </trkpt>
   <trkpt lat="54.68001" lon="25.32685">
    <ele>151.66000000000003</ele>
   </trkpt>
   <trkpt lat="54.68019" lon="25.32722">
    <ele>151.18</ele>
   </trkpt>
   <trkpt lat="54.68038000000001" lon="25.327370000000002">
    <ele>151.46</ele>
   </trkpt>
   <trkpt lat="54.680530000000005" lon="25.327270000000002">
    <ele>153.39000000000001</ele>
   </trkpt>
   <trkpt lat="54.68038000000001" lon="25.327370000000002">
    <ele>151.46</ele>
   </trkpt>
   <trkpt lat="54.680460000000004" lon="25.32741">
    <ele>151.99</ele>
   </trkpt>
   <trkpt lat="54.680550000000004" lon="25.32748">
    <ele>152.4</ele>
   </trkpt>
   <trkpt lat="54.68068" lon="25.327640000000002">
    <ele>152.97000000000003</ele>
   </trkpt>
   <trkpt lat="54.68072000000001" lon="25.32804">
    <ele>153.31</ele>
   </trkpt>
   <trkpt lat="54.68081" lon="25.32852">
    <ele>152.81</ele>
   </trkpt>
   <trkpt lat="54.680890000000005" lon="25.329480000000004">
    <ele>152.65</ele>
   </trkpt>
   <trkpt lat="54.680890000000005" lon="25.33004">
    <ele>153.67</ele>
   </trkpt>
   <trkpt lat="54.68081" lon="25.33123">
    <ele>156.81</ele>
   </trkpt>
   <trkpt lat="54.680780000000006" lon="25.331840000000003">
    <ele>158.13000000000002</ele>
   </trkpt>
   <trkpt lat="54.68085000000001" lon="25.33247">
    <ele>155.13000000000002</ele>
   </trkpt>
   <trkpt lat="54.68084" lon="25.33283">
    <ele>152.54</ele>
   </trkpt>
   <trkpt lat="54.680780000000006" lon="25.3333">
    <ele>148.59</ele>
   </trkpt>
   <trkpt lat="54.68077" lon="25.33351">
    <ele>148.05</ele>
   </trkpt>
   <trkpt lat="54.680780000000006" lon="25.333730000000003">
    <ele>144.63</ele>
   </trkpt>
   <trkpt lat="54.68081" lon="25.333920000000003">
    <ele>144.63</ele>
   </trkpt>
   <trkpt lat="54.68081" lon="25.334370000000003">
    <ele>141.42000000000002</ele>
   </trkpt>
   <trkpt lat="54.680780000000006" lon="25.33462">
    <ele>141.42000000000002</ele>
   </trkpt>
   <trkpt lat="54.680800000000005" lon="25.334940000000003">
    <ele>138.77</ele>
   </trkpt>
   <trkpt lat="54.68086" lon="25.33527">
    <ele>137.59</ele>
   </trkpt>
   <trkpt lat="54.681180000000005" lon="25.335880000000003">
    <ele>135.34</ele>
   </trkpt>
   <trkpt lat="54.681400000000004" lon="25.33585">
    <ele>135.75</ele>
   </trkpt>
   <trkpt lat="54.681580000000004" lon="25.335890000000003">
    <ele>136.12</ele>
   </trkpt>
   <trkpt lat="54.681940000000004" lon="25.33604">
    <ele>137.81</ele>
   </trkpt>
   <trkpt lat="54.682190000000006" lon="25.336240000000004">
    <ele>139.44</ele>
   </trkpt>
   <trkpt lat="54.68229" lon="25.336260000000003">
    <ele>139.44</ele>
   </trkpt>
   <trkpt lat="54.6824" lon="25.336250000000003">
    <ele>139.44</ele>
   </trkpt>
   <trkpt lat="54.68251000000001" lon="25.33622">
    <ele>139.44</ele>
   </trkpt>
   <trkpt lat="54.68265" lon="25.336150000000004">
    <ele>141.45000000000002</ele>
   </trkpt>
   <trkpt lat="54.68285" lon="25.335970000000003">
    <ele>142.77</ele>
   </trkpt>
   <trkpt lat="54.683040000000005" lon="25.335720000000002">
    <ele>143.78000000000003</ele>
   </trkpt>
   <trkpt lat="54.68318000000001" lon="25.335430000000002">
    <ele>144.32</ele>
   </trkpt>
   <trkpt lat="54.68321" lon="25.33526">
    <ele>144.32</ele>
   </trkpt>
   <trkpt lat="54.683310000000006" lon="25.33499">
    <ele>145.54</ele>
   </trkpt>
   <trkpt lat="54.68338000000001" lon="25.33491">
    <ele>146.01</ele>
   </trkpt>
   <trkpt lat="54.68347000000001" lon="25.334850000000003">
    <ele>146.53000000000003</ele>
   </trkpt>
   <trkpt lat="54.68372" lon="25.334580000000003">
    <ele>148.68</ele>
   </trkpt>
   <trkpt lat="54.68406" lon="25.33454">
    <ele>150.62</ele>
   </trkpt>
   <trkpt lat="54.68413" lon="25.334500000000002">
    <ele>150.83</ele>
   </trkpt>
   <trkpt lat="54.68413" lon="25.33451">
    <ele>150.82</ele>
   </trkpt>
   <trkpt lat="54.684180000000005" lon="25.334490000000002">
    <ele>151.09</ele>
   </trkpt>
   <trkpt lat="54.684270000000005" lon="25.334400000000002">
    <ele>151.55</ele>
   </trkpt>
   <trkpt lat="54.68479000000001" lon="25.334120000000002">
    <ele>155.29000000000002</ele>
   </trkpt>
   <trkpt lat="54.684940000000005" lon="25.334080000000004">
    <ele>156.23000000000002</ele>
   </trkpt>
   <trkpt lat="54.68522" lon="25.33405">
    <ele>158.47</ele>
   </trkpt>
   <trkpt lat="54.685300000000005" lon="25.334080000000004">
    <ele>158.69000000000003</ele>
   </trkpt>
   <trkpt lat="54.685570000000006" lon="25.334300000000002">
    <ele>159.44000000000003</ele>
   </trkpt>
   <trkpt lat="54.685750000000006" lon="25.334490000000002">
    <ele>160.07000000000002</ele>
   </trkpt>
   <trkpt lat="54.68591000000001" lon="25.33472">
    <ele>161.37</ele>
   </trkpt>
   <trkpt lat="54.6861" lon="25.335040000000003">
    <ele>163.68</ele>
   </trkpt>
   <trkpt lat="54.686170000000004" lon="25.3351">
    <ele>164.35000000000002</ele>
   </trkpt>
   <trkpt lat="54.68627000000001" lon="25.335110000000004">
    <ele>166.96</ele>
   </trkpt>
   <trkpt lat="54.68636000000001" lon="25.33509">
    <ele>169.05</ele>
   </trkpt>
   <trkpt lat="54.68645000000001" lon="25.33501">
    <ele>171.36</ele>
   </trkpt>
   <trkpt lat="54.68659" lon="25.33479">
    <ele>176.22</ele>
   </trkpt>
   <trkpt lat="54.68672" lon="25.334750000000003">
    <ele>179.17000000000002</ele>
   </trkpt>
   <trkpt lat="54.686820000000004" lon="25.334960000000002">
    <ele>181.79</ele>
   </trkpt>
   <trkpt lat="54.687110000000004" lon="25.335340000000002">
    <ele>189.81</ele>
   </trkpt>
   <trkpt lat="54.687250000000006" lon="25.335680000000004">
    <ele>190.77</ele>
   </trkpt>
   <trkpt lat="54.687380000000005" lon="25.33612">
    <ele>189.26000000000002</ele>
   </trkpt>
   <trkpt lat="54.687540000000006" lon="25.33707">
    <ele>184.75000000000003</ele>
   </trkpt>
   <trkpt lat="54.68742" lon="25.337010000000003">
    <ele>187.06</ele>
   </trkpt>
   <trkpt lat="54.687270000000005" lon="25.338040000000003">
    <ele>183.94000000000003</ele>
   </trkpt>
   <trkpt lat="54.6871" lon="25.339070000000003">
    <ele>181.36</ele>
   </trkpt>
   <trkpt lat="54.687110000000004" lon="25.339370000000002">
    <ele>180.98</ele>
   </trkpt>
   <trkpt lat="54.686890000000005" lon="25.339900000000004">
    <ele>180.61</ele>
   </trkpt>
   <trkpt lat="54.68681" lon="25.340230000000002">
    <ele>180.43</ele>
   </trkpt>
   <trkpt lat="54.68679" lon="25.340480000000003">
    <ele>180.39000000000001</ele>
   </trkpt>
   <trkpt lat="54.686820000000004" lon="25.340880000000002">
    <ele>180.3</ele>
   </trkpt>
   <trkpt lat="54.6869" lon="25.341220000000003">
    <ele>180.55</ele>
   </trkpt>
   <trkpt lat="54.68694000000001" lon="25.34128">
    <ele>181.05</ele>
   </trkpt>
   <trkpt lat="54.687160000000006" lon="25.34148">
    <ele>183.03000000000003</ele>
   </trkpt>
   <trkpt lat="54.68733" lon="25.341520000000003">
    <ele>185.36</ele>
   </trkpt>
   <trkpt lat="54.68751" lon="25.341530000000002">
    <ele>186.83</ele>
   </trkpt>
   <trkpt lat="54.68757000000001" lon="25.34165">
    <ele>187.02</ele>
   </trkpt>
   <trkpt lat="54.687830000000005" lon="25.342470000000002">
    <ele>189.00000000000003</ele>
   </trkpt>
   <trkpt lat="54.68806000000001" lon="25.34296">
    <ele>189.60000000000002</ele>
   </trkpt>
   <trkpt lat="54.688770000000005" lon="25.3439">
    <ele>191.88000000000002</ele>
   </trkpt>
   <trkpt lat="54.68923" lon="25.34446">
    <ele>194.18</ele>
   </trkpt>
   <trkpt lat="54.688930000000006" lon="25.344450000000002">
    <ele>190.41000000000003</ele>
   </trkpt>
   <trkpt lat="54.688570000000006" lon="25.344350000000002">
    <ele>186.78</ele>
   </trkpt>
   <trkpt lat="54.688340000000004" lon="25.34438">
    <ele>185.45</ele>
   </trkpt>
   <trkpt lat="54.68813" lon="25.34449">
    <ele>184.25000000000003</ele>
   </trkpt>
   <trkpt lat="54.688" lon="25.34467">
    <ele>182.49</ele>
   </trkpt>
   <trkpt lat="54.687810000000006" lon="25.345080000000003">
    <ele>180.46</ele>
   </trkpt>
   <trkpt lat="54.68750500232745" lon="25.34582500549392">
    <ele>178.19</ele>
   </trkpt>
   <trkpt lat="54.687200000000004" lon="25.346570000000003">
    <ele>176.43</ele>
   </trkpt>
   <trkpt lat="54.68685000000001" lon="25.347510000000003">
    <ele>175.53000000000003</ele>
   </trkpt>
   <trkpt lat="54.68663" lon="25.34794">
    <ele>176.27</ele>
   </trkpt>
   <trkpt lat="54.686510000000006" lon="25.34812">
    <ele>177.29</ele>
   </trkpt>
   <trkpt lat="54.68614" lon="25.348630000000004">
    <ele>180.69000000000003</ele>
   </trkpt>
   <trkpt lat="54.685840000000006" lon="25.34915">
    <ele>177.05</ele>
   </trkpt>
   <trkpt lat="54.68565" lon="25.349690000000002">
    <ele>169.5</ele>
   </trkpt>
   <trkpt lat="54.685590000000005" lon="25.349990000000002">
    <ele>168.91</ele>
   </trkpt>
   <trkpt lat="54.68565" lon="25.350350000000002">
    <ele>167.19</ele>
   </trkpt>
   <trkpt lat="54.68589000000001" lon="25.35078">
    <ele>165.74</ele>
   </trkpt>
   <trkpt lat="54.68605" lon="25.351210000000002">
    <ele>163.43</ele>
   </trkpt>
   <trkpt lat="54.686020000000006" lon="25.351540000000004">
    <ele>160.88000000000002</ele>
   </trkpt>
   <trkpt lat="54.68565" lon="25.35282">
    <ele>151.78000000000003</ele>
   </trkpt>
   <trkpt lat="54.68554" lon="25.35331">
    <ele>149.2</ele>
   </trkpt>
   <trkpt lat="54.68545" lon="25.35357">
    <ele>146.3</ele>
   </trkpt>
   <trkpt lat="54.68524000000001" lon="25.35378">
    <ele>143.26</ele>
   </trkpt>
   <trkpt lat="54.68504000000001" lon="25.35452">
    <ele>134.72</ele>
   </trkpt>
   <trkpt lat="54.685100000000006" lon="25.354680000000002">
    <ele>133.20000000000002</ele>
   </trkpt>
   <trkpt lat="54.685100000000006" lon="25.354840000000003">
    <ele>132.19</ele>
   </trkpt>
   <trkpt lat="54.68488000319164" lon="25.355705004249206">
    <ele>128.74</ele>
   </trkpt>
   <trkpt lat="54.68466" lon="25.35657">
    <ele>125.35000000000001</ele>
   </trkpt>
   <trkpt lat="54.68497000000001" lon="25.356890000000003">
    <ele>124.72000000000001</ele>
   </trkpt>
   <trkpt lat="54.685230000000004" lon="25.357070000000004">
    <ele>122.38000000000001</ele>
   </trkpt>
   <trkpt lat="54.685320000000004" lon="25.357170000000004">
    <ele>122.13000000000001</ele>
   </trkpt>
   <trkpt lat="54.68535000000001" lon="25.357290000000003">
    <ele>122.13000000000001</ele>
   </trkpt>
   <trkpt lat="54.68538" lon="25.3575">
    <ele>122.05</ele>
   </trkpt>
   <trkpt lat="54.68554" lon="25.357820000000004">
    <ele>122.10000000000001</ele>
   </trkpt>
   <trkpt lat="54.685590000000005" lon="25.35779">
    <ele>122.10000000000001</ele>
   </trkpt>
   <trkpt lat="54.68571000000001" lon="25.357580000000002">
    <ele>122.07000000000001</ele>
   </trkpt>
   <trkpt lat="54.685590000000005" lon="25.35779">
    <ele>122.10000000000001</ele>
   </trkpt>
   <trkpt lat="54.68571000000001" lon="25.357580000000002">
    <ele>122.07000000000001</ele>
   </trkpt>
   <trkpt lat="54.68573000000001" lon="25.357300000000002">
    <ele>122.19</ele>
   </trkpt>
   <trkpt lat="54.685680000000005" lon="25.356700000000004">
    <ele>121.70000000000002</ele>
   </trkpt>
   <trkpt lat="54.68576" lon="25.35621">
    <ele>121.03000000000002</ele>
   </trkpt>
   <trkpt lat="54.68582000000001" lon="25.355980000000002">
    <ele>121.25000000000001</ele>
   </trkpt>
   <trkpt lat="54.685990000000004" lon="25.35555">
    <ele>121.86000000000001</ele>
   </trkpt>
   <trkpt lat="54.6861" lon="25.35536">
    <ele>121.87</ele>
   </trkpt>
   <trkpt lat="54.68634" lon="25.355030000000003">
    <ele>121.81000000000002</ele>
   </trkpt>
   <trkpt lat="54.686640000000004" lon="25.35441">
    <ele>122.19</ele>
   </trkpt>
   <trkpt lat="54.68688" lon="25.35404">
    <ele>122.2</ele>
   </trkpt>
   <trkpt lat="54.686930000000004" lon="25.353910000000003">
    <ele>122.04</ele>
   </trkpt>
   <trkpt lat="54.68704" lon="25.353510000000004">
    <ele>121.97000000000001</ele>
   </trkpt>
   <trkpt lat="54.68715" lon="25.353330000000003">
    <ele>122.15</ele>
   </trkpt>
   <trkpt lat="54.68728" lon="25.3532">
    <ele>122.15</ele>
   </trkpt>
   <trkpt lat="54.68744" lon="25.35311">
    <ele>122.56000000000002</ele>
   </trkpt>
   <trkpt lat="54.6876" lon="25.353080000000002">
    <ele>122.65</ele>
   </trkpt>
   <trkpt lat="54.687760000000004" lon="25.35311">
    <ele>122.75000000000001</ele>
   </trkpt>
   <trkpt lat="54.687900000000006" lon="25.353180000000002">
    <ele>122.9</ele>
   </trkpt>
   <trkpt lat="54.688100000000006" lon="25.353410000000004">
    <ele>123.98</ele>
   </trkpt>
   <trkpt lat="54.688230000000004" lon="25.353720000000003">
    <ele>126.23</ele>
   </trkpt>
   <trkpt lat="54.68833000000001" lon="25.354200000000002">
    <ele>130.81</ele>
   </trkpt>
   <trkpt lat="54.68842000000001" lon="25.354350000000004">
    <ele>130.96</ele>
   </trkpt>
   <trkpt lat="54.688460000000006" lon="25.354380000000003">
    <ele>130.91</ele>
   </trkpt>
   <trkpt lat="54.68858" lon="25.354370000000003">
    <ele>130.34</ele>
   </trkpt>
   <trkpt lat="54.68880000000001" lon="25.354300000000002">
    <ele>129.11</ele>
   </trkpt>
   <trkpt lat="54.689060000000005" lon="25.35431">
    <ele>124.21000000000001</ele>
   </trkpt>
   <trkpt lat="54.68909000000001" lon="25.354260000000004">
    <ele>124.21000000000001</ele>
   </trkpt>
   <trkpt lat="54.68911000000001" lon="25.353910000000003">
    <ele>122.71000000000001</ele>
   </trkpt>
   <trkpt lat="54.689130000000006" lon="25.353830000000002">
    <ele>122.54</ele>
   </trkpt>
   <trkpt lat="54.68925" lon="25.353640000000002">
    <ele>122.26</ele>
   </trkpt>
   <trkpt lat="54.68934" lon="25.353360000000002">
    <ele>122.21000000000001</ele>
   </trkpt>
   <trkpt lat="54.689400000000006" lon="25.353250000000003">
    <ele>122.31000000000002</ele>
   </trkpt>
   <trkpt lat="54.68959" lon="25.353040000000004">
    <ele>123.09</ele>
   </trkpt>
   <trkpt lat="54.68965000000001" lon="25.35301">
    <ele>123.09</ele>
   </trkpt>
   <trkpt lat="54.689930000000004" lon="25.352940000000004">
    <ele>123.39000000000001</ele>
   </trkpt>
   <trkpt lat="54.69028" lon="25.352980000000002">
    <ele>123.7</ele>
   </trkpt>
   <trkpt lat="54.690270000000005" lon="25.352980000000002">
    <ele>123.71000000000001</ele>
   </trkpt>
   <trkpt lat="54.690310000000004" lon="25.352990000000002">
    <ele>123.69000000000001</ele>
   </trkpt>
   <trkpt lat="54.69041000000001" lon="25.35293">
    <ele>123.53000000000002</ele>
   </trkpt>
   <trkpt lat="54.69052000000001" lon="25.35275">
    <ele>123.01</ele>
   </trkpt>
   <trkpt lat="54.69066" lon="25.35262">
    <ele>122.81000000000002</ele>
   </trkpt>
   <trkpt lat="54.690720000000006" lon="25.352610000000002">
    <ele>122.81000000000002</ele>
   </trkpt>
   <trkpt lat="54.691" lon="25.35263">
    <ele>123.14000000000001</ele>
   </trkpt>
   <trkpt lat="54.691140000000004" lon="25.352680000000003">
    <ele>123.14000000000001</ele>
   </trkpt>
   <trkpt lat="54.69117000000001" lon="25.35274">
    <ele>123.67000000000002</ele>
   </trkpt>
   <trkpt lat="54.69118" lon="25.35281">
    <ele>123.67000000000002</ele>
   </trkpt>
   <trkpt lat="54.69116" lon="25.353330000000003">
    <ele>124.00000000000001</ele>
   </trkpt>
   <trkpt lat="54.69113" lon="25.35359">
    <ele>123.93</ele>
   </trkpt>
   <trkpt lat="54.691030000000005" lon="25.35412">
    <ele>123.37</ele>
   </trkpt>
   <trkpt lat="54.690630000000006" lon="25.354820000000004">
    <ele>123.85000000000001</ele>
   </trkpt>
   <trkpt lat="54.690540000000006" lon="25.354920000000003">
    <ele>124.16000000000001</ele>
   </trkpt>
   <trkpt lat="54.69035" lon="25.355040000000002">
    <ele>125.2</ele>
   </trkpt>
   <trkpt lat="54.690310000000004" lon="25.355100000000004">
    <ele>125.2</ele>
   </trkpt>
   <trkpt lat="54.690250000000006" lon="25.35537">
    <ele>125.79</ele>
   </trkpt>
   <trkpt lat="54.690200000000004" lon="25.35547">
    <ele>125.86</ele>
   </trkpt>
   <trkpt lat="54.68997" lon="25.355770000000003">
    <ele>126.24000000000002</ele>
   </trkpt>
   <trkpt lat="54.68967000000001" lon="25.35612">
    <ele>126.39</ele>
   </trkpt>
   <trkpt lat="54.689130000000006" lon="25.356550000000002">
    <ele>126.99000000000002</ele>
   </trkpt>
   <trkpt lat="54.68872" lon="25.356990000000003">
    <ele>126.83</ele>
   </trkpt>
   <trkpt lat="54.68865" lon="25.357170000000004">
    <ele>126.79</ele>
   </trkpt>
   <trkpt lat="54.688590000000005" lon="25.35763">
    <ele>126.65</ele>
   </trkpt>
   <trkpt lat="54.68854" lon="25.358340000000002">
    <ele>125.83</ele>
   </trkpt>
   <trkpt lat="54.688680000000005" lon="25.358320000000003">
    <ele>125.81</ele>
   </trkpt>
   <trkpt lat="54.68874" lon="25.35828">
    <ele>125.86</ele>
   </trkpt>
   <trkpt lat="54.68894" lon="25.35789">
    <ele>125.88000000000002</ele>
   </trkpt>
   <trkpt lat="54.68900000000001" lon="25.357850000000003">
    <ele>125.68</ele>
   </trkpt>
   <trkpt lat="54.68923" lon="25.35799">
    <ele>125.39</ele>
   </trkpt>
   <trkpt lat="54.68976000000001" lon="25.358400000000003">
    <ele>126.55000000000003</ele>
   </trkpt>
   <trkpt lat="54.68992000000001" lon="25.358770000000003">
    <ele>129.23000000000002</ele>
   </trkpt>
   <trkpt lat="54.69048000000001" lon="25.35921">
    <ele>138.24</ele>
   </trkpt>
   <trkpt lat="54.690560000000005" lon="25.3591">
    <ele>141.37000000000003</ele>
   </trkpt>
   <trkpt lat="54.690670000000004" lon="25.35894">
    <ele>147.45000000000002</ele>
   </trkpt>
   <trkpt lat="54.69061000000001" lon="25.35885">
    <ele>147.76</ele>
   </trkpt>
   <trkpt lat="54.69042" lon="25.35883">
    <ele>147.89000000000001</ele>
   </trkpt>
   <trkpt lat="54.690400000000004" lon="25.358670000000004">
    <ele>148.48</ele>
   </trkpt>
   <trkpt lat="54.69052000000001" lon="25.358410000000003">
    <ele>151.32</ele>
   </trkpt>
   <trkpt lat="54.690720000000006" lon="25.358120000000003">
    <ele>153.50000000000003</ele>
   </trkpt>
   <trkpt lat="54.690920000000006" lon="25.35744">
    <ele>155.64</ele>
   </trkpt>
   <trkpt lat="54.691" lon="25.35725">
    <ele>155.94000000000003</ele>
   </trkpt>
   <trkpt lat="54.69113" lon="25.35705">
    <ele>156.63000000000002</ele>
   </trkpt>
   <trkpt lat="54.69131" lon="25.35686">
    <ele>157.41000000000003</ele>
   </trkpt>
   <trkpt lat="54.691410000000005" lon="25.35669">
    <ele>157.75</ele>
   </trkpt>
   <trkpt lat="54.69153000000001" lon="25.356350000000003">
    <ele>158.55</ele>
   </trkpt>
   <trkpt lat="54.691570000000006" lon="25.356060000000003">
    <ele>159.5</ele>
   </trkpt>
   <trkpt lat="54.69176" lon="25.35526">
    <ele>164.60000000000002</ele>
   </trkpt>
   <trkpt lat="54.691930000000006" lon="25.354950000000002">
    <ele>169.62</ele>
   </trkpt>
   <trkpt lat="54.69192" lon="25.354670000000002">
    <ele>173.69</ele>
   </trkpt>
   <trkpt lat="54.69198" lon="25.35442">
    <ele>174.47</ele>
   </trkpt>
   <trkpt lat="54.69200000000001" lon="25.354180000000003">
    <ele>174.98000000000002</ele>
   </trkpt>
   <trkpt lat="54.69202000000001" lon="25.353890000000003">
    <ele>175.15000000000003</ele>
   </trkpt>
   <trkpt lat="54.69211000000001" lon="25.353550000000002">
    <ele>175.95000000000002</ele>
   </trkpt>
   <trkpt lat="54.69216" lon="25.353040000000004">
    <ele>180.70000000000002</ele>
   </trkpt>
   <trkpt lat="54.69227000000001" lon="25.352700000000002">
    <ele>185.68</ele>
   </trkpt>
   <trkpt lat="54.692370000000004" lon="25.35234">
    <ele>188.29000000000002</ele>
   </trkpt>
   <trkpt lat="54.69249000000001" lon="25.351660000000003">
    <ele>191.5</ele>
   </trkpt>
   <trkpt lat="54.692550000000004" lon="25.351020000000002">
    <ele>193.88000000000002</ele>
   </trkpt>
   <trkpt lat="54.692530000000005" lon="25.35077">
    <ele>197.5</ele>
   </trkpt>
   <trkpt lat="54.692660000000004" lon="25.35047">
    <ele>198.45000000000002</ele>
   </trkpt>
   <trkpt lat="54.69279" lon="25.350410000000004">
    <ele>198.13000000000002</ele>
   </trkpt>
   <trkpt lat="54.692890000000006" lon="25.350240000000003">
    <ele>197.47</ele>
   </trkpt>
   <trkpt lat="54.692980000000006" lon="25.349960000000003">
    <ele>195.45000000000002</ele>
   </trkpt>
   <trkpt lat="54.693110000000004" lon="25.349410000000002">
    <ele>191.75</ele>
   </trkpt>
   <trkpt lat="54.69319" lon="25.349580000000003">
    <ele>191.79000000000002</ele>
   </trkpt>
   <trkpt lat="54.693290000000005" lon="25.349680000000003">
    <ele>191.85999999999999</ele>
   </trkpt>
   <trkpt lat="54.69384" lon="25.34984">
    <ele>192.55</ele>
   </trkpt>
   <trkpt lat="54.69418" lon="25.3499">
    <ele>195.31</ele>
   </trkpt>
   <trkpt lat="54.69426000000001" lon="25.34993">
    <ele>196.20000000000002</ele>
   </trkpt>
   <trkpt lat="54.69429" lon="25.3499">
    <ele>196.19</ele>
   </trkpt>
   <trkpt lat="54.69436" lon="25.35002">
    <ele>196.61</ele>
   </trkpt>
   <trkpt lat="54.694770000000005" lon="25.35038">
    <ele>197.94</ele>
   </trkpt>
   <trkpt lat="54.694880000000005" lon="25.3504">
    <ele>198.03</ele>
   </trkpt>
   <trkpt lat="54.69496" lon="25.350350000000002">
    <ele>197.96</ele>
   </trkpt>
   <trkpt lat="54.695190000000004" lon="25.350050000000003">
    <ele>197.86</ele>
   </trkpt>
   <trkpt lat="54.6959" lon="25.34927">
    <ele>197.36</ele>
   </trkpt>
   <trkpt lat="54.695980000000006" lon="25.34927">
    <ele>197.36</ele>
   </trkpt>
   <trkpt lat="54.69608" lon="25.349310000000003">
    <ele>197.35000000000002</ele>
   </trkpt>
   <trkpt lat="54.696310000000004" lon="25.34946">
    <ele>197.64000000000001</ele>
   </trkpt>
   <trkpt lat="54.696400000000004" lon="25.349570000000003">
    <ele>197.84</ele>
   </trkpt>
   <trkpt lat="54.69653" lon="25.35">
    <ele>199.07000000000002</ele>
   </trkpt>
   <trkpt lat="54.696690000000004" lon="25.3501">
    <ele>200.20000000000002</ele>
   </trkpt>
   <trkpt lat="54.69679000000001" lon="25.350140000000003">
    <ele>201.02</ele>
   </trkpt>
   <trkpt lat="54.69684" lon="25.350130000000004">
    <ele>201.02</ele>
   </trkpt>
   <trkpt lat="54.69693" lon="25.35018">
    <ele>202.44</ele>
   </trkpt>
   <trkpt lat="54.69708000000001" lon="25.350330000000003">
    <ele>203.98000000000002</ele>
   </trkpt>
   <trkpt lat="54.697300000000006" lon="25.350620000000003">
    <ele>204.77</ele>
   </trkpt>
   <trkpt lat="54.69758" lon="25.35094">
    <ele>206.97</ele>
   </trkpt>
   <trkpt lat="54.697970000000005" lon="25.351260000000003">
    <ele>207.47</ele>
   </trkpt>
   <trkpt lat="54.69807" lon="25.351250000000004">
    <ele>207.48000000000002</ele>
   </trkpt>
   <trkpt lat="54.69816" lon="25.351210000000002">
    <ele>207.55</ele>
   </trkpt>
   <trkpt lat="54.698710000000005" lon="25.350600000000004">
    <ele>209.1</ele>
   </trkpt>
   <trkpt lat="54.69885000000001" lon="25.35031">
    <ele>209.03000000000003</ele>
   </trkpt>
   <trkpt lat="54.699070000000006" lon="25.350260000000002">
    <ele>209.08</ele>
   </trkpt>
   <trkpt lat="54.69932000000001" lon="25.350240000000003">
    <ele>208.31000000000003</ele>
   </trkpt>
   <trkpt lat="54.69946" lon="25.350350000000002">
    <ele>207.11</ele>
   </trkpt>
   <trkpt lat="54.69970000000001" lon="25.350420000000003">
    <ele>206.39000000000001</ele>
   </trkpt>
   <trkpt lat="54.69975" lon="25.350150000000003">
    <ele>206.26000000000002</ele>
   </trkpt>
   <trkpt lat="54.699760000000005" lon="25.348910000000004">
    <ele>203.3</ele>
   </trkpt>
   <trkpt lat="54.699780000000004" lon="25.348720000000004">
    <ele>203.1</ele>
   </trkpt>
   <trkpt lat="54.699850000000005" lon="25.34871">
    <ele>203.08</ele>
   </trkpt>
   <trkpt lat="54.69990000000001" lon="25.348640000000003">
    <ele>203.08</ele>
   </trkpt>
   <trkpt lat="54.699920000000006" lon="25.348530000000004">
    <ele>202.97</ele>
   </trkpt>
   <trkpt lat="54.69991" lon="25.34842">
    <ele>202.97</ele>
   </trkpt>
   <trkpt lat="54.69986" lon="25.34834">
    <ele>202.81</ele>
   </trkpt>
   <trkpt lat="54.69989" lon="25.34777">
    <ele>202.35000000000002</ele>
   </trkpt>
   <trkpt lat="54.69990000000001" lon="25.347160000000002">
    <ele>202.06</ele>
   </trkpt>
   <trkpt lat="54.69997000000001" lon="25.347170000000002">
    <ele>202.22</ele>
   </trkpt>
   <trkpt lat="54.70004" lon="25.347320000000003">
    <ele>202.15000000000003</ele>
   </trkpt>
   <trkpt lat="54.70008000000001" lon="25.34737">
    <ele>201.99</ele>
   </trkpt>
   <trkpt lat="54.70011" lon="25.34738">
    <ele>201.79000000000002</ele>
   </trkpt>
   <trkpt lat="54.700210000000006" lon="25.347350000000002">
    <ele>198.69</ele>
   </trkpt>
   <trkpt lat="54.70028000000001" lon="25.347260000000002">
    <ele>198.69</ele>
   </trkpt>
   <trkpt lat="54.700430000000004" lon="25.346850000000003">
    <ele>195.39000000000001</ele>
   </trkpt>
   <trkpt lat="54.700590000000005" lon="25.346220000000002">
    <ele>191.82000000000002</ele>
   </trkpt>
   <trkpt lat="54.70073000000001" lon="25.3459">
    <ele>190.13000000000002</ele>
   </trkpt>
   <trkpt lat="54.700990000000004" lon="25.34542">
    <ele>187.12</ele>
   </trkpt>
   <trkpt lat="54.701220000000006" lon="25.345180000000003">
    <ele>184.38000000000002</ele>
   </trkpt>
   <trkpt lat="54.701370000000004" lon="25.344970000000004">
    <ele>181.89000000000001</ele>
   </trkpt>
   <trkpt lat="54.70154" lon="25.344520000000003">
    <ele>180.52</ele>
   </trkpt>
   <trkpt lat="54.70178000000001" lon="25.344050000000003">
    <ele>178.57</ele>
   </trkpt>
   <trkpt lat="54.70186" lon="25.343930000000004">
    <ele>178.07</ele>
   </trkpt>
   <trkpt lat="54.70194000000001" lon="25.343870000000003">
    <ele>177.4</ele>
   </trkpt>
   <trkpt lat="54.70243000000001" lon="25.34374">
    <ele>173.97</ele>
   </trkpt>
   <trkpt lat="54.70255" lon="25.343660000000003">
    <ele>172.53</ele>
   </trkpt>
   <trkpt lat="54.70326000000001" lon="25.342740000000003">
    <ele>166.69</ele>
   </trkpt>
   <trkpt lat="54.70337000000001" lon="25.342630000000003">
    <ele>166.69</ele>
   </trkpt>
   <trkpt lat="54.70353000000001" lon="25.34252">
    <ele>164.94</ele>
   </trkpt>
   <trkpt lat="54.70367" lon="25.3425">
    <ele>164.01000000000002</ele>
   </trkpt>
   <trkpt lat="54.70389" lon="25.342550000000003">
    <ele>162.78</ele>
   </trkpt>
   <trkpt lat="54.704060000000005" lon="25.342650000000003">
    <ele>161.84</ele>
   </trkpt>
   <trkpt lat="54.70423" lon="25.3427">
    <ele>161.16000000000003</ele>
   </trkpt>
   <trkpt lat="54.70438000000001" lon="25.342710000000004">
    <ele>160.16000000000003</ele>
   </trkpt>
   <trkpt lat="54.70447000000001" lon="25.34269">
    <ele>159.52</ele>
   </trkpt>
   <trkpt lat="54.704550000000005" lon="25.342640000000003">
    <ele>158.35000000000002</ele>
   </trkpt>
   <trkpt lat="54.704730000000005" lon="25.342670000000002">
    <ele>157.53</ele>
   </trkpt>
   <trkpt lat="54.70544" lon="25.342470000000002">
    <ele>154.67</ele>
   </trkpt>
   <trkpt lat="54.705740000000006" lon="25.342250000000003">
    <ele>153.57000000000002</ele>
   </trkpt>
   <trkpt lat="54.70584" lon="25.342150000000004">
    <ele>153.57000000000002</ele>
   </trkpt>
   <trkpt lat="54.70582" lon="25.3423">
    <ele>153.65</ele>
   </trkpt>
   <trkpt lat="54.70595" lon="25.34269">
    <ele>154.22000000000003</ele>
   </trkpt>
   <trkpt lat="54.705940000000005" lon="25.342750000000002">
    <ele>154.22000000000003</ele>
   </trkpt>
   <trkpt lat="54.70584" lon="25.34297">
    <ele>155.0</ele>
   </trkpt>
   <trkpt lat="54.705780000000004" lon="25.343220000000002">
    <ele>155.21</ele>
   </trkpt>
   <trkpt lat="54.705760000000005" lon="25.34352">
    <ele>156.13000000000002</ele>
   </trkpt>
   <trkpt lat="54.705760000000005" lon="25.344060000000002">
    <ele>161.31</ele>
   </trkpt>
   <trkpt lat="54.70573" lon="25.344140000000003">
    <ele>165.02</ele>
   </trkpt>
   <trkpt lat="54.70566" lon="25.34418">
    <ele>165.02</ele>
   </trkpt>
   <trkpt lat="54.705490000000005" lon="25.34436">
    <ele>169.86</ele>
   </trkpt>
   <trkpt lat="54.70539" lon="25.3443">
    <ele>171.15000000000003</ele>
   </trkpt>
   <trkpt lat="54.70535" lon="25.344140000000003">
    <ele>172.55</ele>
   </trkpt>
   <trkpt lat="54.70523000000001" lon="25.3441">
    <ele>174.88</ele>
   </trkpt>
   <trkpt lat="54.705070000000006" lon="25.34428">
    <ele>176.76000000000002</ele>
   </trkpt>
   <trkpt lat="54.70501" lon="25.34449">
    <ele>176.81000000000003</ele>
   </trkpt>
   <trkpt lat="54.70505000000001" lon="25.344620000000003">
    <ele>176.68</ele>
   </trkpt>
   <trkpt lat="54.70508" lon="25.34494">
    <ele>175.69</ele>
   </trkpt>
   <trkpt lat="54.705040000000004" lon="25.345100000000002">
    <ele>175.59000000000003</ele>
   </trkpt>
   <trkpt lat="54.70503000000001" lon="25.34558">
    <ele>176.50000000000003</ele>
   </trkpt>
   <trkpt lat="54.705130000000004" lon="25.345860000000002">
    <ele>177.21</ele>
   </trkpt>
   <trkpt lat="54.70512000000001" lon="25.346220000000002">
    <ele>177.69</ele>
   </trkpt>
   <trkpt lat="54.704950000000004" lon="25.34691">
    <ele>178.28000000000003</ele>
   </trkpt>
   <trkpt lat="54.70460000195032" lon="25.34760500607166">
    <ele>182.94000000000003</ele>
   </trkpt>
   <trkpt lat="54.70425" lon="25.348300000000002">
    <ele>184.23</ele>
   </trkpt>
   <trkpt lat="54.704190000000004" lon="25.34859">
    <ele>183.91000000000003</ele>
   </trkpt>
   <trkpt lat="54.704080000000005" lon="25.348840000000003">
    <ele>184.73</ele>
   </trkpt>
   <trkpt lat="54.70407" lon="25.349100000000004">
    <ele>185.86</ele>
   </trkpt>
   <trkpt lat="54.704150000000006" lon="25.35018">
    <ele>197.29000000000002</ele>
   </trkpt>
   <trkpt lat="54.70418000000001" lon="25.350900000000003">
    <ele>207.82</ele>
   </trkpt>
   <trkpt lat="54.704240000000006" lon="25.35189">
    <ele>207.61</ele>
   </trkpt>
   <trkpt lat="54.70427" lon="25.352040000000002">
    <ele>207.12000000000003</ele>
   </trkpt>
   <trkpt lat="54.704370000000004" lon="25.35227">
    <ele>207.5</ele>
   </trkpt>
   <trkpt lat="54.70445" lon="25.352690000000003">
    <ele>210.76000000000002</ele>
   </trkpt>
   <trkpt lat="54.704420000000006" lon="25.353170000000002">
    <ele>214.27</ele>
   </trkpt>
   <trkpt lat="54.70447000000001" lon="25.353430000000003">
    <ele>215.72000000000003</ele>
   </trkpt>
   <trkpt lat="54.7045" lon="25.353920000000002">
    <ele>222.03</ele>
   </trkpt>
   <trkpt lat="54.704460000000005" lon="25.354360000000003">
    <ele>222.28</ele>
   </trkpt>
   <trkpt lat="54.70449000000001" lon="25.354480000000002">
    <ele>221.42</ele>
   </trkpt>
   <trkpt lat="54.704550000000005" lon="25.354550000000003">
    <ele>221.16000000000003</ele>
   </trkpt>
   <trkpt lat="54.70469000000001" lon="25.353550000000002">
    <ele>216.55</ele>
   </trkpt>
   <trkpt lat="54.70488500215049" lon="25.352835003266566">
    <ele>208.0</ele>
   </trkpt>
   <trkpt lat="54.70508" lon="25.352120000000003">
    <ele>198.12</ele>
   </trkpt>
   <trkpt lat="54.70512000000001" lon="25.35215">
    <ele>197.11</ele>
   </trkpt>
   <trkpt lat="54.70528" lon="25.352430000000002">
    <ele>189.96</ele>
   </trkpt>
   <trkpt lat="54.705420000000004" lon="25.35246">
    <ele>187.74</ele>
   </trkpt>
   <trkpt lat="54.70557" lon="25.35255">
    <ele>184.53000000000003</ele>
   </trkpt>
   <trkpt lat="54.70586" lon="25.35254">
    <ele>182.36</ele>
   </trkpt>
   <trkpt lat="54.705940000000005" lon="25.352500000000003">
    <ele>181.8</ele>
   </trkpt>
   <trkpt lat="54.70597000000001" lon="25.35237">
    <ele>181.13</ele>
   </trkpt>
   <trkpt lat="54.706340000000004" lon="25.351630000000004">
    <ele>177.50000000000003</ele>
   </trkpt>
   <trkpt lat="54.70646000000001" lon="25.351460000000003">
    <ele>176.3</ele>
   </trkpt>
   <trkpt lat="54.70665" lon="25.35131">
    <ele>175.03</ele>
   </trkpt>
   <trkpt lat="54.706880000000005" lon="25.351360000000003">
    <ele>173.99</ele>
   </trkpt>
   <trkpt lat="54.70703" lon="25.351370000000003">
    <ele>173.44</ele>
   </trkpt>
   <trkpt lat="54.70716" lon="25.35124">
    <ele>172.40000000000003</ele>
   </trkpt>
   <trkpt lat="54.707190000000004" lon="25.351070000000004">
    <ele>171.98000000000002</ele>
   </trkpt>
   <trkpt lat="54.707570000000004" lon="25.351930000000003">
    <ele>175.92000000000002</ele>
   </trkpt>
   <trkpt lat="54.70783" lon="25.352390000000003">
    <ele>177.87000000000003</ele>
   </trkpt>
   <trkpt lat="54.707890000000006" lon="25.352470000000004">
    <ele>177.88</ele>
   </trkpt>
   <trkpt lat="54.70812" lon="25.352970000000003">
    <ele>179.9</ele>
   </trkpt>
   <trkpt lat="54.708290000000005" lon="25.353930000000002">
    <ele>183.9</ele>
   </trkpt>
   <trkpt lat="54.70832000000001" lon="25.355040000000002">
    <ele>190.14</ele>
   </trkpt>
   <trkpt lat="54.70839" lon="25.355510000000002">
    <ele>193.36</ele>
   </trkpt>
   <trkpt lat="54.70852000000001" lon="25.355860000000003">
    <ele>194.87</ele>
   </trkpt>
   <trkpt lat="54.708800000000004" lon="25.356420000000004">
    <ele>197.39000000000001</ele>
   </trkpt>
   <trkpt lat="54.708940000000005" lon="25.356790000000004">
    <ele>199.9</ele>
   </trkpt>
   <trkpt lat="54.70918" lon="25.35734">
    <ele>204.06</ele>
   </trkpt>
   <trkpt lat="54.70933" lon="25.357550000000003">
    <ele>207.46</ele>
   </trkpt>
   <trkpt lat="54.70944000000001" lon="25.35722">
    <ele>210.87000000000003</ele>
   </trkpt>
   <trkpt lat="54.70947" lon="25.35687">
    <ele>211.79</ele>
   </trkpt>
   <trkpt lat="54.709540000000004" lon="25.35638">
    <ele>212.33</ele>
   </trkpt>
   <trkpt lat="54.70957000000001" lon="25.355960000000003">
    <ele>213.38</ele>
   </trkpt>
   <trkpt lat="54.70957000000001" lon="25.355590000000003">
    <ele>214.48</ele>
   </trkpt>
   <trkpt lat="54.70955000000001" lon="25.355150000000002">
    <ele>215.06000000000003</ele>
   </trkpt>
   <trkpt lat="54.70949" lon="25.354680000000002">
    <ele>214.02</ele>
   </trkpt>
   <trkpt lat="54.70951" lon="25.35347">
    <ele>210.16</ele>
   </trkpt>
   <trkpt lat="54.70942" lon="25.353440000000003">
    <ele>210.16</ele>
   </trkpt>
   <trkpt lat="54.709250000000004" lon="25.35322">
    <ele>208.72</ele>
   </trkpt>
   <trkpt lat="54.7092" lon="25.35303">
    <ele>208.28000000000003</ele>
   </trkpt>
   <trkpt lat="54.7092" lon="25.35302">
    <ele>208.26000000000002</ele>
   </trkpt>
   <trkpt lat="54.70909" lon="25.352490000000003">
    <ele>207.22</ele>
   </trkpt>
   <trkpt lat="54.70902" lon="25.35226">
    <ele>205.78</ele>
   </trkpt>
   <trkpt lat="54.70871" lon="25.35189">
    <ele>203.19</ele>
   </trkpt>
   <trkpt lat="54.70870000000001" lon="25.35189">
    <ele>203.18000000000004</ele>
   </trkpt>
   <trkpt lat="54.70859" lon="25.351760000000002">
    <ele>203.37</ele>
   </trkpt>
   <trkpt lat="54.708380000000005" lon="25.3517">
    <ele>205.36</ele>
   </trkpt>
   <trkpt lat="54.70834000000001" lon="25.351630000000004">
    <ele>205.71</ele>
   </trkpt>
   <trkpt lat="54.70828" lon="25.351100000000002">
    <ele>206.62000000000003</ele>
   </trkpt>
   <trkpt lat="54.708380000000005" lon="25.350890000000003">
    <ele>206.01000000000002</ele>
   </trkpt>
   <trkpt lat="54.70837" lon="25.350910000000002">
    <ele>206.01000000000002</ele>
   </trkpt>
   <trkpt lat="54.70844" lon="25.350800000000003">
    <ele>205.02</ele>
   </trkpt>
   <trkpt lat="54.708650000000006" lon="25.35076">
    <ele>204.08</ele>
   </trkpt>
   <trkpt lat="54.708780000000004" lon="25.35085">
    <ele>203.12</ele>
   </trkpt>
   <trkpt lat="54.709010000000006" lon="25.35086">
    <ele>200.3</ele>
   </trkpt>
   <trkpt lat="54.709360000000004" lon="25.35076">
    <ele>199.13000000000002</ele>
   </trkpt>
   <trkpt lat="54.709540000000004" lon="25.35038">
    <ele>197.87</ele>
   </trkpt>
   <trkpt lat="54.7096" lon="25.350150000000003">
    <ele>197.55</ele>
   </trkpt>
   <trkpt lat="54.709770000000006" lon="25.34974">
    <ele>197.44</ele>
   </trkpt>
   <trkpt lat="54.709700000000005" lon="25.349500000000003">
    <ele>197.52000000000004</ele>
   </trkpt>
   <trkpt lat="54.709720000000004" lon="25.349300000000003">
    <ele>198.24</ele>
   </trkpt>
   <trkpt lat="54.70971" lon="25.34908">
    <ele>199.32000000000002</ele>
   </trkpt>
   <trkpt lat="54.70957000000001" lon="25.348820000000003">
    <ele>201.23000000000002</ele>
   </trkpt>
   <trkpt lat="54.709320000000005" lon="25.348670000000002">
    <ele>201.67000000000002</ele>
   </trkpt>
   <trkpt lat="54.709270000000004" lon="25.348580000000002">
    <ele>201.75</ele>
   </trkpt>
   <trkpt lat="54.7092" lon="25.34832">
    <ele>202.20000000000002</ele>
   </trkpt>
   <trkpt lat="54.70906000000001" lon="25.347980000000003">
    <ele>203.51000000000002</ele>
   </trkpt>
   <trkpt lat="54.70904" lon="25.34784">
    <ele>203.59</ele>
   </trkpt>
   <trkpt lat="54.70906000000001" lon="25.347720000000002">
    <ele>203.55</ele>
   </trkpt>
   <trkpt lat="54.70910000000001" lon="25.347600000000003">
    <ele>203.37</ele>
   </trkpt>
   <trkpt lat="54.7092" lon="25.34746">
    <ele>203.01000000000002</ele>
   </trkpt>
   <trkpt lat="54.70924" lon="25.347340000000003">
    <ele>202.8</ele>
   </trkpt>
   <trkpt lat="54.70924" lon="25.3472">
    <ele>202.63</ele>
   </trkpt>
   <trkpt lat="54.70913" lon="25.346980000000002">
    <ele>202.44</ele>
   </trkpt>
   <trkpt lat="54.70922" lon="25.346980000000002">
    <ele>202.41</ele>
   </trkpt>
   <trkpt lat="54.70931" lon="25.346890000000002">
    <ele>201.89000000000001</ele>
   </trkpt>
   <trkpt lat="54.70944000000001" lon="25.346690000000002">
    <ele>200.77</ele>
   </trkpt>
   <trkpt lat="54.71002000000001" lon="25.346380000000003">
    <ele>194.8</ele>
   </trkpt>
   <trkpt lat="54.710170000000005" lon="25.34624">
    <ele>193.89000000000001</ele>
   </trkpt>
   <trkpt lat="54.71036" lon="25.345950000000002">
    <ele>192.29000000000002</ele>
   </trkpt>
   <trkpt lat="54.710440000000006" lon="25.3457">
    <ele>192.05</ele>
   </trkpt>
   <trkpt lat="54.710730000000005" lon="25.345250000000004">
    <ele>193.68</ele>
   </trkpt>
   <trkpt lat="54.71094000000001" lon="25.344990000000003">
    <ele>192.45000000000002</ele>
   </trkpt>
   <trkpt lat="54.711180000000006" lon="25.34476">
    <ele>191.38000000000002</ele>
   </trkpt>
   <trkpt lat="54.711240000000004" lon="25.34466">
    <ele>190.81</ele>
   </trkpt>
   <trkpt lat="54.71135" lon="25.34455">
    <ele>190.08</ele>
   </trkpt>
   <trkpt lat="54.71143000000001" lon="25.344810000000003">
    <ele>189.64</ele>
   </trkpt>
   <trkpt lat="54.711470000000006" lon="25.34458">
    <ele>189.43</ele>
   </trkpt>
   <trkpt lat="54.71150000000001" lon="25.344400000000004">
    <ele>189.24</ele>
   </trkpt>
   <trkpt lat="54.71159" lon="25.343930000000004">
    <ele>188.86</ele>
   </trkpt>
   <trkpt lat="54.71172000000001" lon="25.34251">
    <ele>187.12</ele>
   </trkpt>
   <trkpt lat="54.711780000000005" lon="25.342150000000004">
    <ele>183.89000000000001</ele>
   </trkpt>
   <trkpt lat="54.711760000000005" lon="25.34165">
    <ele>184.39000000000001</ele>
   </trkpt>
   <trkpt lat="54.71161000000001" lon="25.341730000000002">
    <ele>185.39000000000001</ele>
   </trkpt>
   <trkpt lat="54.71148" lon="25.341120000000004">
    <ele>185.10000000000002</ele>
   </trkpt>
   <trkpt lat="54.71134000000001" lon="25.340970000000002">
    <ele>184.81</ele>
   </trkpt>
   <trkpt lat="54.711310000000005" lon="25.340840000000004">
    <ele>184.69000000000003</ele>
   </trkpt>
   <trkpt lat="54.71115" lon="25.340860000000003">
    <ele>182.50000000000003</ele>
   </trkpt>
   <trkpt lat="54.71085000000001" lon="25.3411">
    <ele>178.15</ele>
   </trkpt>
   <trkpt lat="54.7107" lon="25.34119">
    <ele>177.09000000000003</ele>
   </trkpt>
   <trkpt lat="54.710440000000006" lon="25.3413">
    <ele>173.04000000000002</ele>
   </trkpt>
   <trkpt lat="54.710370000000005" lon="25.341310000000004">
    <ele>173.04000000000002</ele>
   </trkpt>
   <trkpt lat="54.710170000000005" lon="25.34127">
    <ele>170.93000000000004</ele>
   </trkpt>
   <trkpt lat="54.71011000000001" lon="25.341240000000003">
    <ele>170.19</ele>
   </trkpt>
   <trkpt lat="54.71000000000001" lon="25.341120000000004">
    <ele>169.43000000000004</ele>
   </trkpt>
   <trkpt lat="54.7098" lon="25.340790000000002">
    <ele>168.06</ele>
   </trkpt>
   <trkpt lat="54.709630000000004" lon="25.34045">
    <ele>165.94</ele>
   </trkpt>
   <trkpt lat="54.70937000000001" lon="25.339920000000003">
    <ele>162.86</ele>
   </trkpt>
   <trkpt lat="54.70918" lon="25.33932">
    <ele>160.71</ele>
   </trkpt>
   <trkpt lat="54.70904" lon="25.339180000000002">
    <ele>160.07999999999998</ele>
   </trkpt>
   <trkpt lat="54.70895" lon="25.33893">
    <ele>159.43</ele>
   </trkpt>
   <trkpt lat="54.708850000000005" lon="25.338900000000002">
    <ele>158.26000000000002</ele>
   </trkpt>
   <trkpt lat="54.70879000000001" lon="25.33892">
    <ele>153.65</ele>
   </trkpt>
   <trkpt lat="54.708600000000004" lon="25.33904">
    <ele>153.22000000000003</ele>
   </trkpt>
   <trkpt lat="54.70853" lon="25.339050000000004">
    <ele>152.88000000000002</ele>
   </trkpt>
   <trkpt lat="54.707750000000004" lon="25.338600000000003">
    <ele>144.84000000000003</ele>
   </trkpt>
   <trkpt lat="54.707770000000004" lon="25.338490000000004">
    <ele>144.47</ele>
   </trkpt>
   <trkpt lat="54.707600003775994" lon="25.339445003874904">
    <ele>145.84000000000003</ele>
   </trkpt>
   <trkpt lat="54.70743" lon="25.340400000000002">
    <ele>147.48</ele>
   </trkpt>
   <trkpt lat="54.707240000000006" lon="25.340700000000002">
    <ele>147.99</ele>
   </trkpt>
   <trkpt lat="54.706950000000006" lon="25.341060000000002">
    <ele>148.9</ele>
   </trkpt>
   <trkpt lat="54.70691000000001" lon="25.341050000000003">
    <ele>148.9</ele>
   </trkpt>
   <trkpt lat="54.70651" lon="25.341230000000003">
    <ele>150.77</ele>
   </trkpt>
   <trkpt lat="54.70633" lon="25.341410000000003">
    <ele>152.44000000000003</ele>
   </trkpt>
   <trkpt lat="54.70624" lon="25.34147">
    <ele>152.44000000000003</ele>
   </trkpt>
   <trkpt lat="54.70608000000001" lon="25.341510000000003">
    <ele>152.74</ele>
   </trkpt>
   <trkpt lat="54.705980000000004" lon="25.341530000000002">
    <ele>153.07000000000002</ele>
   </trkpt>
   <trkpt lat="54.705980000000004" lon="25.341">
    <ele>156.18</ele>
   </trkpt>
   <trkpt lat="54.70595" lon="25.34082">
    <ele>159.66000000000003</ele>
   </trkpt>
   <trkpt lat="54.70597000000001" lon="25.340390000000003">
    <ele>163.12</ele>
   </trkpt>
   <trkpt lat="54.705920000000006" lon="25.34015">
    <ele>164.20000000000002</ele>
   </trkpt>
   <trkpt lat="54.705830000000006" lon="25.339850000000002">
    <ele>164.56</ele>
   </trkpt>
   <trkpt lat="54.705830000000006" lon="25.339250000000003">
    <ele>163.74</ele>
   </trkpt>
   <trkpt lat="54.7058" lon="25.3392">
    <ele>162.10000000000002</ele>
   </trkpt>
   <trkpt lat="54.70571" lon="25.338620000000002">
    <ele>159.55</ele>
   </trkpt>
   <trkpt lat="54.70575" lon="25.33798">
    <ele>161.01000000000002</ele>
   </trkpt>
   <trkpt lat="54.705760000000005" lon="25.337650000000004">
    <ele>161.47</ele>
   </trkpt>
   <trkpt lat="54.70577" lon="25.337580000000003">
    <ele>161.55</ele>
   </trkpt>
   <trkpt lat="54.705650000000006" lon="25.33742">
    <ele>160.03</ele>
   </trkpt>
   <trkpt lat="54.705630000000006" lon="25.337320000000002">
    <ele>157.74</ele>
   </trkpt>
   <trkpt lat="54.70555" lon="25.33726">
    <ele>157.74</ele>
   </trkpt>
   <trkpt lat="54.705470000000005" lon="25.336900000000004">
    <ele>156.16000000000003</ele>
   </trkpt>
   <trkpt lat="54.705470000000005" lon="25.33689">
    <ele>156.16000000000003</ele>
   </trkpt>
   <trkpt lat="54.70544" lon="25.336730000000003">
    <ele>155.13000000000002</ele>
   </trkpt>
   <trkpt lat="54.705450000000006" lon="25.335990000000002">
    <ele>152.32000000000002</ele>
   </trkpt>
   <trkpt lat="54.70543000000001" lon="25.335590000000003">
    <ele>151.06</ele>
   </trkpt>
   <trkpt lat="54.705380000000005" lon="25.33528">
    <ele>149.59</ele>
   </trkpt>
   <trkpt lat="54.70544" lon="25.33491">
    <ele>148.1</ele>
   </trkpt>
   <trkpt lat="54.705560000000006" lon="25.33454">
    <ele>146.98</ele>
   </trkpt>
   <trkpt lat="54.705690000000004" lon="25.334400000000002">
    <ele>146.41</ele>
   </trkpt>
   <trkpt lat="54.705890000000004" lon="25.334290000000003">
    <ele>146.71</ele>
   </trkpt>
   <trkpt lat="54.705960000000005" lon="25.33423">
    <ele>146.68</ele>
   </trkpt>
   <trkpt lat="54.706140000000005" lon="25.33395">
    <ele>146.41</ele>
   </trkpt>
   <trkpt lat="54.70599000000001" lon="25.334000000000003">
    <ele>147.58</ele>
   </trkpt>
   <trkpt lat="54.705980000000004" lon="25.334000000000003">
    <ele>147.61</ele>
   </trkpt>
   <trkpt lat="54.70586" lon="25.334000000000003">
    <ele>149.36</ele>
   </trkpt>
   <trkpt lat="54.70571" lon="25.333840000000002">
    <ele>149.7</ele>
   </trkpt>
   <trkpt lat="54.70537" lon="25.333180000000002">
    <ele>150.51</ele>
   </trkpt>
   <trkpt lat="54.70524" lon="25.332980000000003">
    <ele>149.21</ele>
   </trkpt>
   <trkpt lat="54.70526" lon="25.332520000000002">
    <ele>146.68</ele>
   </trkpt>
   <trkpt lat="54.705310000000004" lon="25.33238">
    <ele>146.17000000000002</ele>
   </trkpt>
   <trkpt lat="54.70537" lon="25.33219">
    <ele>145.59000000000003</ele>
   </trkpt>
   <trkpt lat="54.70541000000001" lon="25.331930000000003">
    <ele>145.43</ele>
   </trkpt>
   <trkpt lat="54.70548" lon="25.331750000000003">
    <ele>145.43</ele>
   </trkpt>
   <trkpt lat="54.70553" lon="25.331390000000003">
    <ele>146.34000000000003</ele>
   </trkpt>
   <trkpt lat="54.70523000000001" lon="25.33011">
    <ele>156.94000000000003</ele>
   </trkpt>
   <trkpt lat="54.70501" lon="25.32964">
    <ele>156.49</ele>
   </trkpt>
   <trkpt lat="54.70478000000001" lon="25.329220000000003">
    <ele>159.04000000000002</ele>
   </trkpt>
   <trkpt lat="54.70469000000001" lon="25.329030000000003">
    <ele>159.70000000000002</ele>
   </trkpt>
   <trkpt lat="54.7045" lon="25.32879">
    <ele>159.85000000000002</ele>
   </trkpt>
   <trkpt lat="54.70438000000001" lon="25.32871">
    <ele>158.59</ele>
   </trkpt>
   <trkpt lat="54.70431000000001" lon="25.328640000000004">
    <ele>158.59</ele>
   </trkpt>
   <trkpt lat="54.703920000000004" lon="25.328370000000003">
    <ele>151.71</ele>
   </trkpt>
   <trkpt lat="54.703540000000004" lon="25.32816">
    <ele>147.21</ele>
   </trkpt>
   <trkpt lat="54.703" lon="25.327710000000003">
    <ele>143.06000000000003</ele>
   </trkpt>
   <trkpt lat="54.70243000071962" lon="25.327269993757632">
    <ele>140.26000000000002</ele>
   </trkpt>
   <trkpt lat="54.70186" lon="25.32683">
    <ele>139.49</ele>
   </trkpt>
   <trkpt lat="54.70168" lon="25.32653">
    <ele>139.88</ele>
   </trkpt>
   <trkpt lat="54.701350000000005" lon="25.32608">
    <ele>141.41</ele>
   </trkpt>
   <trkpt lat="54.70159" lon="25.326420000000002">
    <ele>140.25</ele>
   </trkpt>
   <trkpt lat="54.70129000000001" lon="25.326">
    <ele>141.51000000000002</ele>
   </trkpt>
   <trkpt lat="54.701260000000005" lon="25.325930000000003">
    <ele>141.59000000000003</ele>
   </trkpt>
   <trkpt lat="54.701240000000006" lon="25.32579">
    <ele>141.78</ele>
   </trkpt>
   <trkpt lat="54.70118000000001" lon="25.325830000000003">
    <ele>142.24</ele>
   </trkpt>
   <trkpt lat="54.70089" lon="25.326410000000003">
    <ele>145.34000000000003</ele>
   </trkpt>
   <trkpt lat="54.70076" lon="25.326570000000004">
    <ele>147.16</ele>
   </trkpt>
   <trkpt lat="54.700660000000006" lon="25.32663">
    <ele>148.23</ele>
   </trkpt>
   <trkpt lat="54.70053000000001" lon="25.32666">
    <ele>150.15</ele>
   </trkpt>
   <trkpt lat="54.70038" lon="25.326780000000003">
    <ele>154.56</ele>
   </trkpt>
   <trkpt lat="54.700300000000006" lon="25.32693">
    <ele>156.56</ele>
   </trkpt>
   <trkpt lat="54.70002" lon="25.326620000000002">
    <ele>162.72</ele>
   </trkpt>
   <trkpt lat="54.699920000000006" lon="25.326490000000003">
    <ele>165.95000000000002</ele>
   </trkpt>
   <trkpt lat="54.699850000000005" lon="25.326330000000002">
    <ele>168.52</ele>
   </trkpt>
   <trkpt lat="54.69977000000001" lon="25.32625">
    <ele>169.01000000000002</ele>
   </trkpt>
   <trkpt lat="54.69962" lon="25.32628">
    <ele>168.5</ele>
   </trkpt>
   <trkpt lat="54.699540000000006" lon="25.32626">
    <ele>168.17000000000002</ele>
   </trkpt>
   <trkpt lat="54.69941000000001" lon="25.326340000000002">
    <ele>167.89000000000001</ele>
   </trkpt>
   <trkpt lat="54.699200000000005" lon="25.32636">
    <ele>166.81</ele>
   </trkpt>
   <trkpt lat="54.69906" lon="25.326290000000004">
    <ele>166.56</ele>
   </trkpt>
   <trkpt lat="54.69899" lon="25.326210000000003">
    <ele>167.52</ele>
   </trkpt>
   <trkpt lat="54.6989" lon="25.32617">
    <ele>169.1</ele>
   </trkpt>
   <trkpt lat="54.69867000000001" lon="25.32617">
    <ele>172.73000000000002</ele>
   </trkpt>
   <trkpt lat="54.69858000000001" lon="25.326050000000002">
    <ele>174.84000000000003</ele>
   </trkpt>
   <trkpt lat="54.698510000000006" lon="25.32627">
    <ele>179.32</ele>
   </trkpt>
   <trkpt lat="54.698420000000006" lon="25.326310000000003">
    <ele>181.31000000000003</ele>
   </trkpt>
   <trkpt lat="54.6983" lon="25.32644">
    <ele>184.11</ele>
   </trkpt>
   <trkpt lat="54.698280000000004" lon="25.326400000000003">
    <ele>184.11</ele>
   </trkpt>
   <trkpt lat="54.698330000000006" lon="25.32619">
    <ele>189.75</ele>
   </trkpt>
   <trkpt lat="54.69832" lon="25.326110000000003">
    <ele>189.75</ele>
   </trkpt>
   <trkpt lat="54.69829000000001" lon="25.326050000000002">
    <ele>190.8</ele>
   </trkpt>
   <trkpt lat="54.698240000000006" lon="25.326030000000003">
    <ele>192.64000000000001</ele>
   </trkpt>
   <trkpt lat="54.69816" lon="25.326040000000003">
    <ele>194.05</ele>
   </trkpt>
   <trkpt lat="54.69807" lon="25.326240000000002">
    <ele>194.02</ele>
   </trkpt>
   <trkpt lat="54.69802000000001" lon="25.326610000000002">
    <ele>194.78</ele>
   </trkpt>
   <trkpt lat="54.698040000000006" lon="25.32694">
    <ele>194.37</ele>
   </trkpt>
   <trkpt lat="54.69807" lon="25.327090000000002">
    <ele>193.05</ele>
   </trkpt>
   <trkpt lat="54.69784000000001" lon="25.326980000000002">
    <ele>191.76000000000002</ele>
   </trkpt>
   <trkpt lat="54.69765" lon="25.326860000000003">
    <ele>189.59</ele>
   </trkpt>
   <trkpt lat="54.69751" lon="25.326610000000002">
    <ele>188.22000000000003</ele>
   </trkpt>
   <trkpt lat="54.69751" lon="25.326600000000003">
    <ele>188.14</ele>
   </trkpt>
   <trkpt lat="54.697390000000006" lon="25.32645">
    <ele>186.87</ele>
   </trkpt>
   <trkpt lat="54.697230000000005" lon="25.32637">
    <ele>185.83</ele>
   </trkpt>
   <trkpt lat="54.697160000000004" lon="25.32636">
    <ele>184.73</ele>
   </trkpt>
   <trkpt lat="54.69704" lon="25.326130000000003">
    <ele>184.04</ele>
   </trkpt>
   <trkpt lat="54.69684" lon="25.325920000000004">
    <ele>182.35</ele>
   </trkpt>
   <trkpt lat="54.69662" lon="25.325870000000002">
    <ele>181.21</ele>
   </trkpt>
   <trkpt lat="54.69643000000001" lon="25.325930000000003">
    <ele>179.71</ele>
   </trkpt>
   <trkpt lat="54.69632000000001" lon="25.326020000000003">
    <ele>179.71</ele>
   </trkpt>
   <trkpt lat="54.6961" lon="25.326010000000004">
    <ele>178.77</ele>
   </trkpt>
   <trkpt lat="54.69585000000001" lon="25.326130000000003">
    <ele>176.86</ele>
   </trkpt>
   <trkpt lat="54.696070000000006" lon="25.326030000000003">
    <ele>178.51</ele>
   </trkpt>
   <trkpt lat="54.69585000000001" lon="25.326130000000003">
    <ele>176.86</ele>
   </trkpt>
   <trkpt lat="54.695800000000006" lon="25.326100000000004">
    <ele>176.6</ele>
   </trkpt>
   <trkpt lat="54.695780000000006" lon="25.326060000000002">
    <ele>176.6</ele>
   </trkpt>
   <trkpt lat="54.69576000000001" lon="25.325920000000004">
    <ele>177.09000000000003</ele>
   </trkpt>
   <trkpt lat="54.695660000000004" lon="25.32571">
    <ele>177.29</ele>
   </trkpt>
   <trkpt lat="54.695460000000004" lon="25.325390000000002">
    <ele>177.23000000000002</ele>
   </trkpt>
   <trkpt lat="54.695240000000005" lon="25.325100000000003">
    <ele>177.47</ele>
   </trkpt>
   <trkpt lat="54.695130000000006" lon="25.324880000000004">
    <ele>177.39000000000001</ele>
   </trkpt>
   <trkpt lat="54.69498" lon="25.32466">
    <ele>177.46</ele>
   </trkpt>
   <trkpt lat="54.694810000000004" lon="25.32429">
    <ele>177.05</ele>
   </trkpt>
   <trkpt lat="54.69469" lon="25.323780000000003">
    <ele>175.68</ele>
   </trkpt>
   <trkpt lat="54.69462000000001" lon="25.323590000000003">
    <ele>176.66</ele>
   </trkpt>
   <trkpt lat="54.69446000000001" lon="25.32327">
    <ele>179.34000000000003</ele>
   </trkpt>
   <trkpt lat="54.69426000000001" lon="25.322940000000003">
    <ele>178.99</ele>
   </trkpt>
   <trkpt lat="54.694120000000005" lon="25.322830000000003">
    <ele>178.97000000000003</ele>
   </trkpt>
   <trkpt lat="54.69397000000001" lon="25.3228">
    <ele>178.59000000000003</ele>
   </trkpt>
   <trkpt lat="54.693760000000005" lon="25.322660000000003">
    <ele>178.1</ele>
   </trkpt>
   <trkpt lat="54.693580000000004" lon="25.322300000000002">
    <ele>177.11</ele>
   </trkpt>
   <trkpt lat="54.69350000000001" lon="25.322190000000003">
    <ele>176.77</ele>
   </trkpt>
   <trkpt lat="54.69341000000001" lon="25.32212">
    <ele>176.27</ele>
   </trkpt>
   <trkpt lat="54.69337" lon="25.32206">
    <ele>175.93</ele>
   </trkpt>
   <trkpt lat="54.693250000000006" lon="25.321690000000004">
    <ele>173.45000000000002</ele>
   </trkpt>
   <trkpt lat="54.693220000000004" lon="25.32166">
    <ele>173.45000000000002</ele>
   </trkpt>
   <trkpt lat="54.69319" lon="25.32139">
    <ele>173.07</ele>
   </trkpt>
   <trkpt lat="54.69321000000001" lon="25.32119">
    <ele>173.04000000000002</ele>
   </trkpt>
   <trkpt lat="54.69317" lon="25.321130000000004">
    <ele>173.01000000000002</ele>
   </trkpt>
   <trkpt lat="54.6931" lon="25.321060000000003">
    <ele>173.01000000000002</ele>
   </trkpt>
   <trkpt lat="54.693000000000005" lon="25.321070000000002">
    <ele>173.29000000000002</ele>
   </trkpt>
   <trkpt lat="54.69292000000001" lon="25.321">
    <ele>173.82</ele>
   </trkpt>
   <trkpt lat="54.69279" lon="25.320940000000004">
    <ele>174.3</ele>
   </trkpt>
   <trkpt lat="54.692780000000006" lon="25.320940000000004">
    <ele>174.38</ele>
   </trkpt>
   <trkpt lat="54.692710000000005" lon="25.320850000000004">
    <ele>175.07</ele>
   </trkpt>
   <trkpt lat="54.692690000000006" lon="25.32075">
    <ele>175.32</ele>
   </trkpt>
   <trkpt lat="54.69249000000001" lon="25.320500000000003">
    <ele>175.64000000000001</ele>
   </trkpt>
   <trkpt lat="54.69249000000001" lon="25.319930000000003">
    <ele>176.03000000000003</ele>
   </trkpt>
   <trkpt lat="54.692510000000006" lon="25.319860000000002">
    <ele>176.03000000000003</ele>
   </trkpt>
   <trkpt lat="54.69257" lon="25.319770000000002">
    <ele>176.03000000000003</ele>
   </trkpt>
   <trkpt lat="54.69254" lon="25.319560000000003">
    <ele>175.95000000000002</ele>
   </trkpt>
   <trkpt lat="54.69239" lon="25.31933">
    <ele>175.54</ele>
   </trkpt>
   <trkpt lat="54.692310000000006" lon="25.319180000000003">
    <ele>175.64000000000001</ele>
   </trkpt>
   <trkpt lat="54.69223" lon="25.31885">
    <ele>176.3</ele>
   </trkpt>
   <trkpt lat="54.69211000000001" lon="25.318710000000003">
    <ele>175.63</ele>
   </trkpt>
   <trkpt lat="54.691930000000006" lon="25.318640000000002">
    <ele>175.1</ele>
   </trkpt>
   <trkpt lat="54.691810000000004" lon="25.318520000000003">
    <ele>175.03</ele>
   </trkpt>
   <trkpt lat="54.69163" lon="25.318260000000002">
    <ele>175.43</ele>
   </trkpt>
   <trkpt lat="54.69155000000001" lon="25.318220000000004">
    <ele>175.43</ele>
   </trkpt>
   <trkpt lat="54.691300000000005" lon="25.317970000000003">
    <ele>176.8</ele>
   </trkpt>
   <trkpt lat="54.691190000000006" lon="25.317980000000002">
    <ele>177.1</ele>
   </trkpt>
   <trkpt lat="54.69115000000001" lon="25.318030000000004">
    <ele>177.1</ele>
   </trkpt>
   <trkpt lat="54.69089" lon="25.31821">
    <ele>177.24</ele>
   </trkpt>
   <trkpt lat="54.690830000000005" lon="25.31828">
    <ele>177.17000000000002</ele>
   </trkpt>
   <trkpt lat="54.69053" lon="25.31812">
    <ele>176.83</ele>
   </trkpt>
   <trkpt lat="54.69037" lon="25.31809">
    <ele>176.49</ele>
   </trkpt>
   <trkpt lat="54.69026" lon="25.318160000000002">
    <ele>176.27</ele>
   </trkpt>
   <trkpt lat="54.69015" lon="25.318150000000003">
    <ele>175.68</ele>
   </trkpt>
   <trkpt lat="54.69008" lon="25.318170000000002">
    <ele>174.86</ele>
   </trkpt>
   <trkpt lat="54.69005000000001" lon="25.318220000000004">
    <ele>173.58</ele>
   </trkpt>
   <trkpt lat="54.68995" lon="25.318640000000002">
    <ele>170.39000000000001</ele>
   </trkpt>
   <trkpt lat="54.68979" lon="25.31906">
    <ele>163.78</ele>
   </trkpt>
   <trkpt lat="54.689730000000004" lon="25.31912">
    <ele>163.07000000000002</ele>
   </trkpt>
   <trkpt lat="54.68986" lon="25.31818">
    <ele>164.49</ele>
   </trkpt>
   <trkpt lat="54.68988" lon="25.31743">
    <ele>161.66000000000003</ele>
   </trkpt>
   <trkpt lat="54.689910000000005" lon="25.317220000000002">
    <ele>160.17000000000002</ele>
   </trkpt>
   <trkpt lat="54.689960000000006" lon="25.317010000000003">
    <ele>159.12</ele>
   </trkpt>
   <trkpt lat="54.69005000000001" lon="25.316840000000003">
    <ele>157.0</ele>
   </trkpt>
   <trkpt lat="54.69040500101658" lon="25.316330004538923">
    <ele>153.86</ele>
   </trkpt>
   <trkpt lat="54.690760000000004" lon="25.315820000000002">
    <ele>150.02</ele>
   </trkpt>
   <trkpt lat="54.690920000000006" lon="25.315600000000003">
    <ele>148.52</ele>
   </trkpt>
   <trkpt lat="54.69082" lon="25.315540000000002">
    <ele>150.18</ele>
   </trkpt>
   <trkpt lat="54.69070000000001" lon="25.315130000000003">
    <ele>154.09</ele>
   </trkpt>
   <trkpt lat="54.690630000000006" lon="25.315">
    <ele>154.09</ele>
   </trkpt>
   <trkpt lat="54.69052000000001" lon="25.31499">
    <ele>156.79000000000002</ele>
   </trkpt>
   <trkpt lat="54.69039000000001" lon="25.314940000000004">
    <ele>158.22</ele>
   </trkpt>
   <trkpt lat="54.690340000000006" lon="25.314950000000003">
    <ele>158.58</ele>
   </trkpt>
   <trkpt lat="54.690250000000006" lon="25.31491">
    <ele>159.05</ele>
   </trkpt>
   <trkpt lat="54.69017" lon="25.3148">
    <ele>159.62</ele>
   </trkpt>
   <trkpt lat="54.69015" lon="25.314700000000002">
    <ele>160.16000000000003</ele>
   </trkpt>
   <trkpt lat="54.690220000000004" lon="25.31425">
    <ele>161.45000000000002</ele>
   </trkpt>
   <trkpt lat="54.690220000000004" lon="25.31417">
    <ele>162.04999999999998</ele>
   </trkpt>
   <trkpt lat="54.690180000000005" lon="25.313940000000002">
    <ele>164.76000000000002</ele>
   </trkpt>
   <trkpt lat="54.68994000000001" lon="25.314290000000003">
    <ele>173.02</ele>
   </trkpt>
   <trkpt lat="54.689840000000004" lon="25.31434">
    <ele>175.22</ele>
   </trkpt>
   <trkpt lat="54.689780000000006" lon="25.314400000000003">
    <ele>176.20000000000002</ele>
   </trkpt>
   <trkpt lat="54.68974000000001" lon="25.314500000000002">
    <ele>176.16</ele>
   </trkpt>
   <trkpt lat="54.68972" lon="25.314610000000002">
    <ele>175.98000000000002</ele>
   </trkpt>
   <trkpt lat="54.68974000000001" lon="25.314500000000002">
    <ele>176.26000000000002</ele>
   </trkpt>
   <trkpt lat="54.689780000000006" lon="25.314400000000003">
    <ele>176.20000000000002</ele>
   </trkpt>
   <trkpt lat="54.689840000000004" lon="25.31434">
    <ele>175.22</ele>
   </trkpt>
   <trkpt lat="54.68994000000001" lon="25.314290000000003">
    <ele>173.02</ele>
   </trkpt>
   <trkpt lat="54.690180000000005" lon="25.313940000000002">
    <ele>164.76000000000002</ele>
   </trkpt>
   <trkpt lat="54.690220000000004" lon="25.31417">
    <ele>162.04999999999998</ele>
   </trkpt>
   <trkpt lat="54.690220000000004" lon="25.31425">
    <ele>161.45000000000002</ele>
   </trkpt>
   <trkpt lat="54.69015" lon="25.314700000000002">
    <ele>160.16000000000003</ele>
   </trkpt>
   <trkpt lat="54.690180000000005" lon="25.31482">
    <ele>159.49</ele>
   </trkpt>
   <trkpt lat="54.69019" lon="25.31482">
    <ele>159.47</ele>
   </trkpt>
   <trkpt lat="54.69017" lon="25.3148">
    <ele>159.47</ele>
   </trkpt>
   <trkpt lat="54.69015" lon="25.314700000000002">
    <ele>160.16000000000003</ele>
   </trkpt>
   <trkpt lat="54.690220000000004" lon="25.31425">
    <ele>161.45000000000002</ele>
   </trkpt>
   <trkpt lat="54.690220000000004" lon="25.31417">
    <ele>162.04999999999998</ele>
   </trkpt>
   <trkpt lat="54.690180000000005" lon="25.313940000000002">
    <ele>164.76000000000002</ele>
   </trkpt>
   <trkpt lat="54.68994000000001" lon="25.314290000000003">
    <ele>173.02</ele>
   </trkpt>
   <trkpt lat="54.689840000000004" lon="25.31434">
    <ele>175.87000000000003</ele>
   </trkpt>
   <trkpt lat="54.689780000000006" lon="25.314400000000003">
    <ele>176.20000000000002</ele>
   </trkpt>
   <trkpt lat="54.68974000000001" lon="25.314500000000002">
    <ele>176.16</ele>
   </trkpt>
   <trkpt lat="54.68972" lon="25.314610000000002">
    <ele>175.98000000000002</ele>
   </trkpt>
   <trkpt lat="54.689600000000006" lon="25.31436">
    <ele>174.02</ele>
   </trkpt>
   <trkpt lat="54.68952" lon="25.31433">
    <ele>173.36</ele>
   </trkpt>
   <trkpt lat="54.689420000000005" lon="25.31434">
    <ele>173.06</ele>
   </trkpt>
   <trkpt lat="54.6893" lon="25.314280000000004">
    <ele>172.02</ele>
   </trkpt>
   <trkpt lat="54.68920000000001" lon="25.31416">
    <ele>171.59</ele>
   </trkpt>
   <trkpt lat="54.688990000000004" lon="25.313760000000002">
    <ele>170.83</ele>
   </trkpt>
   <trkpt lat="54.68889000000001" lon="25.3133">
    <ele>171.09</ele>
   </trkpt>
   <trkpt lat="54.688900000000004" lon="25.31331">
    <ele>171.03</ele>
   </trkpt>
   <trkpt lat="54.68882000000001" lon="25.312910000000002">
    <ele>171.5</ele>
   </trkpt>
   <trkpt lat="54.688860000000005" lon="25.312230000000003">
    <ele>173.05</ele>
   </trkpt>
   <trkpt lat="54.688750000000006" lon="25.310820000000003">
    <ele>171.70000000000002</ele>
   </trkpt>
   <trkpt lat="54.688810000000004" lon="25.31058">
    <ele>171.77</ele>
   </trkpt>
   <trkpt lat="54.68882000000001" lon="25.310090000000002">
    <ele>171.69</ele>
   </trkpt>
   <trkpt lat="54.688810000000004" lon="25.309980000000003">
    <ele>171.62000000000003</ele>
   </trkpt>
   <trkpt lat="54.68885" lon="25.30957">
    <ele>172.88</ele>
   </trkpt>
   <trkpt lat="54.68880000000001" lon="25.30919">
    <ele>174.98000000000002</ele>
   </trkpt>
   <trkpt lat="54.68878" lon="25.30892">
    <ele>174.43</ele>
   </trkpt>
   <trkpt lat="54.688680000000005" lon="25.30882">
    <ele>172.41</ele>
   </trkpt>
   <trkpt lat="54.68865" lon="25.30873">
    <ele>172.41</ele>
   </trkpt>
   <trkpt lat="54.68865" lon="25.308470000000003">
    <ele>168.93000000000004</ele>
   </trkpt>
   <trkpt lat="54.688610000000004" lon="25.308270000000004">
    <ele>165.86</ele>
   </trkpt>
   <trkpt lat="54.6886" lon="25.30826">
    <ele>165.86</ele>
   </trkpt>
   <trkpt lat="54.68856" lon="25.30825">
    <ele>165.86</ele>
   </trkpt>
   <trkpt lat="54.68853000000001" lon="25.30807">
    <ele>161.21</ele>
   </trkpt>
   <trkpt lat="54.68853000000001" lon="25.308120000000002">
    <ele>162.07000000000002</ele>
   </trkpt>
   <trkpt lat="54.68851000000001" lon="25.307940000000002">
    <ele>159.5</ele>
   </trkpt>
   <trkpt lat="54.68851000000001" lon="25.307830000000003">
    <ele>157.33</ele>
   </trkpt>
   <trkpt lat="54.688480000000006" lon="25.307710000000004">
    <ele>156.34</ele>
   </trkpt>
   <trkpt lat="54.688480000000006" lon="25.30758">
    <ele>154.57000000000002</ele>
   </trkpt>
   <trkpt lat="54.6884" lon="25.30723">
    <ele>151.85000000000002</ele>
   </trkpt>
   <trkpt lat="54.687940000000005" lon="25.307340000000003">
    <ele>147.70000000000002</ele>
   </trkpt>
   <trkpt lat="54.68793" lon="25.306780000000003">
    <ele>144.47</ele>
   </trkpt>
   <trkpt lat="54.687900000000006" lon="25.30664">
    <ele>143.54</ele>
   </trkpt>
   <trkpt lat="54.687580000000004" lon="25.305740000000004">
    <ele>140.27</ele>
   </trkpt>
   <trkpt lat="54.68769" lon="25.30563">
    <ele>139.82</ele>
   </trkpt>
   <trkpt lat="54.687580000000004" lon="25.305300000000003">
    <ele>139.55</ele>
   </trkpt>
   <trkpt lat="54.68803000079037" lon="25.304865004812047">
    <ele>136.61</ele>
   </trkpt>
   <trkpt lat="54.688480000000006" lon="25.304430000000004">
    <ele>134.5</ele>
   </trkpt>
   <trkpt lat="54.68869" lon="25.3043">
    <ele>133.56</ele>
   </trkpt>
   <trkpt lat="54.688840000000006" lon="25.304240000000004">
    <ele>132.44</ele>
   </trkpt>
   <trkpt lat="54.68851000000001" lon="25.303590000000003">
    <ele>136.36</ele>
   </trkpt>
   <trkpt lat="54.688100000000006" lon="25.30291">
    <ele>141.48000000000002</ele>
   </trkpt>
   <trkpt lat="54.688010000000006" lon="25.30281">
    <ele>141.48000000000002</ele>
   </trkpt>
   <trkpt lat="54.68786000000001" lon="25.302690000000002">
    <ele>144.75000000000003</ele>
   </trkpt>
   <trkpt lat="54.6878" lon="25.302690000000002">
    <ele>144.75000000000003</ele>
   </trkpt>
   <trkpt lat="54.68770000000001" lon="25.302690000000002">
    <ele>146.02</ele>
   </trkpt>
   <trkpt lat="54.687760000000004" lon="25.302650000000003">
    <ele>144.89000000000001</ele>
   </trkpt>
   <trkpt lat="54.68802" lon="25.302270000000004">
    <ele>141.12000000000003</ele>
   </trkpt>
   <trkpt lat="54.68862000000001" lon="25.301330000000004">
    <ele>138.40000000000003</ele>
   </trkpt>
   <trkpt lat="54.68883" lon="25.30101">
    <ele>136.25</ele>
   </trkpt>
   <trkpt lat="54.688840000000006" lon="25.300950000000004">
    <ele>136.25</ele>
   </trkpt>
   <trkpt lat="54.689150000000005" lon="25.300060000000002">
    <ele>131.5</ele>
   </trkpt>
   <trkpt lat="54.689440000000005" lon="25.30029">
    <ele>126.87</ele>
   </trkpt>
   <trkpt lat="54.689960000000006" lon="25.300510000000003">
    <ele>120.77000000000001</ele>
   </trkpt>
   <trkpt lat="54.69013" lon="25.300530000000002">
    <ele>119.75</ele>
   </trkpt>
   <trkpt lat="54.690470000000005" lon="25.300250000000002">
    <ele>118.11</ele>
   </trkpt>
   <trkpt lat="54.69057" lon="25.2999">
    <ele>115.83000000000001</ele>
   </trkpt>
   <trkpt lat="54.69046" lon="25.29942">
    <ele>113.10000000000001</ele>
   </trkpt>
   <trkpt lat="54.690220000000004" lon="25.29926">
    <ele>114.33000000000001</ele>
   </trkpt>
   <trkpt lat="54.689820000000005" lon="25.29907">
    <ele>118.03</ele>
   </trkpt>
  </trkseg>
 </trk>
</gpx>
