<?xml version="1.0" encoding="UTF-8"?>
<gpx creator="StravaGPX" version="1.1" xmlns="http://www.topografix.com/GPX/1/1" xmlns:xsi="http://www.w3.org/2001/XMLSchema-instance" xsi:schemaLocation="http://www.topografix.com/GPX/1/1 http://www.topografix.com/GPX/1/1/gpx.xsd">
 <metadata>
  <name>Vilnius Trail Run 15+</name>
  <desc>2026 m. gegužės 9 d. Vilnius Trail Run 15+

----------------------------------------------------------------------

2026 May 9th Vilnius trail run 15+</desc>
  <author>
   <name>Vilius Aleliūnas</name>
   <link href="https://www.strava.com/athletes/18878315"/>
  </author>
  <copyright author="OpenStreetMap contributors">
   <year>2020</year>
   <license>https://www.openstreetmap.org/copyright</license>
  </copyright>
  <link href="https://www.strava.com/routes/3345122535105713228"/>
 </metadata>
 <trk>
  <name>Vilnius Trail Run 15+</name>
  <desc>2026 m. gegužės 9 d. Vilnius Trail Run 15+

----------------------------------------------------------------------

2026 May 9th Vilnius trail run 15+</desc>
  <link href="https://www.strava.com/routes/3345122535105713228"/>
  <type>trail_running</type>
  <trkseg>
   <trkpt lat="54.689780000000006" lon="25.29907">
    <ele>118.35000000000001</ele>
   </trkpt>
   <trkpt lat="54.68957" lon="25.29895">
    <ele>120.81000000000002</ele>
   </trkpt>
   <trkpt lat="54.689510000000006" lon="25.298930000000002">
    <ele>121.32000000000001</ele>
   </trkpt>
   <trkpt lat="54.689460000000004" lon="25.29876">
    <ele>121.21000000000001</ele>
   </trkpt>
   <trkpt lat="54.689460000000004" lon="25.298340000000003">
    <ele>118.96000000000001</ele>
   </trkpt>
   <trkpt lat="54.689370000000004" lon="25.29812">
    <ele>117.95000000000002</ele>
   </trkpt>
   <trkpt lat="54.68921" lon="25.297900000000002">
    <ele>117.75</ele>
   </trkpt>
   <trkpt lat="54.688970000000005" lon="25.29785">
    <ele>120.96000000000001</ele>
   </trkpt>
   <trkpt lat="54.688840000000006" lon="25.297870000000003">
    <ele>124.06</ele>
   </trkpt>
   <trkpt lat="54.68874" lon="25.297990000000002">
    <ele>126.49000000000002</ele>
   </trkpt>
   <trkpt lat="54.68863" lon="25.29812">
    <ele>129.66</ele>
   </trkpt>
   <trkpt lat="54.68836" lon="25.298430000000003">
    <ele>135.85</ele>
   </trkpt>
   <trkpt lat="54.68817000000001" lon="25.2983">
    <ele>138.21</ele>
   </trkpt>
   <trkpt lat="54.68808000000001" lon="25.298270000000002">
    <ele>139.13</ele>
   </trkpt>
   <trkpt lat="54.687760000000004" lon="25.2983">
    <ele>143.64000000000001</ele>
   </trkpt>
   <trkpt lat="54.68748000000001" lon="25.2983">
    <ele>146.68</ele>
   </trkpt>
   <trkpt lat="54.687290000000004" lon="25.29829">
    <ele>148.17000000000002</ele>
   </trkpt>
   <trkpt lat="54.687050000000006" lon="25.29832">
    <ele>149.11</ele>
   </trkpt>
   <trkpt lat="54.68683000000001" lon="25.29841">
    <ele>149.72000000000003</ele>
   </trkpt>
   <trkpt lat="54.68654000000001" lon="25.29849">
    <ele>149.51</ele>
   </trkpt>
   <trkpt lat="54.68634" lon="25.298560000000002">
    <ele>148.29</ele>
   </trkpt>
   <trkpt lat="54.686150000000005" lon="25.29867">
    <ele>146.36</ele>
   </trkpt>
   <trkpt lat="54.685880000000004" lon="25.298800000000004">
    <ele>142.69</ele>
   </trkpt>
   <trkpt lat="54.685880000000004" lon="25.29877">
    <ele>146.73</ele>
   </trkpt>
   <trkpt lat="54.685550000000006" lon="25.298920000000003">
    <ele>142.32</ele>
   </trkpt>
   <trkpt lat="54.68545" lon="25.298890000000004">
    <ele>141.20000000000002</ele>
   </trkpt>
   <trkpt lat="54.68533000000001" lon="25.29859">
    <ele>139.12</ele>
   </trkpt>
   <trkpt lat="54.68529" lon="25.298550000000002">
    <ele>138.45000000000002</ele>
   </trkpt>
   <trkpt lat="54.68518" lon="25.29867">
    <ele>133.07000000000002</ele>
   </trkpt>
   <trkpt lat="54.685030000000005" lon="25.29869">
    <ele>124.98</ele>
   </trkpt>
   <trkpt lat="54.6848" lon="25.29878">
    <ele>113.99000000000001</ele>
   </trkpt>
   <trkpt lat="54.684670000000004" lon="25.298730000000003">
    <ele>107.79</ele>
   </trkpt>
   <trkpt lat="54.684430000000006" lon="25.298730000000003">
    <ele>100.39</ele>
   </trkpt>
   <trkpt lat="54.68428" lon="25.298730000000003">
    <ele>98.34</ele>
   </trkpt>
   <trkpt lat="54.684200000000004" lon="25.29885">
    <ele>98.0</ele>
   </trkpt>
   <trkpt lat="54.684000000000005" lon="25.29904">
    <ele>97.76</ele>
   </trkpt>
   <trkpt lat="54.683440000000004" lon="25.29935">
    <ele>99.06</ele>
   </trkpt>
   <trkpt lat="54.68329000000001" lon="25.299400000000002">
    <ele>100.30000000000001</ele>
   </trkpt>
   <trkpt lat="54.68294" lon="25.299390000000002">
    <ele>100.34</ele>
   </trkpt>
   <trkpt lat="54.68283" lon="25.299360000000004">
    <ele>99.96000000000001</ele>
   </trkpt>
   <trkpt lat="54.68265" lon="25.29924">
    <ele>99.77000000000001</ele>
   </trkpt>
   <trkpt lat="54.68265" lon="25.29923">
    <ele>99.76</ele>
   </trkpt>
   <trkpt lat="54.68238" lon="25.299010000000003">
    <ele>98.84</ele>
   </trkpt>
   <trkpt lat="54.68222" lon="25.29885">
    <ele>98.33000000000001</ele>
   </trkpt>
   <trkpt lat="54.681920000000005" lon="25.298360000000002">
    <ele>97.55000000000001</ele>
   </trkpt>
   <trkpt lat="54.681830000000005" lon="25.29811">
    <ele>97.52000000000001</ele>
   </trkpt>
   <trkpt lat="54.68179000000001" lon="25.29792">
    <ele>97.55000000000001</ele>
   </trkpt>
   <trkpt lat="54.681720000000006" lon="25.297230000000003">
    <ele>96.38000000000001</ele>
   </trkpt>
   <trkpt lat="54.68177000000001" lon="25.29672">
    <ele>96.42</ele>
   </trkpt>
   <trkpt lat="54.682" lon="25.29549">
    <ele>97.80000000000001</ele>
   </trkpt>
   <trkpt lat="54.68229" lon="25.29566">
    <ele>97.05000000000001</ele>
   </trkpt>
   <trkpt lat="54.68236" lon="25.29529">
    <ele>97.04</ele>
   </trkpt>
   <trkpt lat="54.682520000000004" lon="25.294410000000003">
    <ele>97.76</ele>
   </trkpt>
   <trkpt lat="54.68254" lon="25.293960000000002">
    <ele>98.03</ele>
   </trkpt>
   <trkpt lat="54.68249" lon="25.29352">
    <ele>98.41000000000001</ele>
   </trkpt>
   <trkpt lat="54.68238" lon="25.29331">
    <ele>98.57000000000001</ele>
   </trkpt>
   <trkpt lat="54.68227" lon="25.293110000000002">
    <ele>98.61</ele>
   </trkpt>
   <trkpt lat="54.682100000000005" lon="25.293000000000003">
    <ele>98.62</ele>
   </trkpt>
   <trkpt lat="54.68197000000001" lon="25.292990000000003">
    <ele>98.41000000000001</ele>
   </trkpt>
   <trkpt lat="54.6818" lon="25.29297">
    <ele>98.30000000000001</ele>
   </trkpt>
   <trkpt lat="54.68175" lon="25.29295">
    <ele>98.25</ele>
   </trkpt>
   <trkpt lat="54.6816" lon="25.29287">
    <ele>98.48</ele>
   </trkpt>
   <trkpt lat="54.68130000000001" lon="25.292830000000002">
    <ele>99.01000000000002</ele>
   </trkpt>
   <trkpt lat="54.68108" lon="25.29285">
    <ele>99.47</ele>
   </trkpt>
   <trkpt lat="54.6809" lon="25.292700000000004">
    <ele>100.69</ele>
   </trkpt>
   <trkpt lat="54.68074000000001" lon="25.292510000000004">
    <ele>101.87</ele>
   </trkpt>
   <trkpt lat="54.680580000000006" lon="25.29239">
    <ele>102.71000000000001</ele>
   </trkpt>
   <trkpt lat="54.68045000000001" lon="25.292320000000004">
    <ele>103.27000000000001</ele>
   </trkpt>
   <trkpt lat="54.68036000000001" lon="25.292360000000002">
    <ele>103.27000000000001</ele>
   </trkpt>
   <trkpt lat="54.68018000000001" lon="25.29247">
    <ele>103.06000000000002</ele>
   </trkpt>
   <trkpt lat="54.67980000000001" lon="25.292740000000002">
    <ele>102.39</ele>
   </trkpt>
   <trkpt lat="54.67943" lon="25.292990000000003">
    <ele>101.25</ele>
   </trkpt>
   <trkpt lat="54.67929" lon="25.293170000000003">
    <ele>100.32000000000001</ele>
   </trkpt>
   <trkpt lat="54.679280000000006" lon="25.29314">
    <ele>100.15</ele>
   </trkpt>
   <trkpt lat="54.67924000000001" lon="25.293200000000002">
    <ele>100.15</ele>
   </trkpt>
   <trkpt lat="54.67916" lon="25.293380000000003">
    <ele>100.33</ele>
   </trkpt>
   <trkpt lat="54.679080000000006" lon="25.293680000000002">
    <ele>100.53</ele>
   </trkpt>
   <trkpt lat="54.679050000000004" lon="25.29398">
    <ele>100.53</ele>
   </trkpt>
   <trkpt lat="54.67909" lon="25.295430000000003">
    <ele>100.88000000000001</ele>
   </trkpt>
   <trkpt lat="54.67909" lon="25.29541">
    <ele>100.87</ele>
   </trkpt>
   <trkpt lat="54.679115005437296" lon="25.296559998971663">
    <ele>101.10000000000001</ele>
   </trkpt>
   <trkpt lat="54.679140000000004" lon="25.297710000000002">
    <ele>101.63000000000001</ele>
   </trkpt>
   <trkpt lat="54.67915000000001" lon="25.29782">
    <ele>101.63000000000001</ele>
   </trkpt>
   <trkpt lat="54.6792" lon="25.297950000000004">
    <ele>101.68</ele>
   </trkpt>
   <trkpt lat="54.679210000000005" lon="25.298070000000003">
    <ele>101.68</ele>
   </trkpt>
   <trkpt lat="54.679190000000006" lon="25.298170000000002">
    <ele>101.63000000000001</ele>
   </trkpt>
   <trkpt lat="54.6792" lon="25.298250000000003">
    <ele>101.63000000000001</ele>
   </trkpt>
   <trkpt lat="54.679230000000004" lon="25.29839">
    <ele>101.63000000000001</ele>
   </trkpt>
   <trkpt lat="54.679500000000004" lon="25.29896">
    <ele>101.34000000000002</ele>
   </trkpt>
   <trkpt lat="54.679500000000004" lon="25.29895">
    <ele>101.35000000000001</ele>
   </trkpt>
   <trkpt lat="54.67974" lon="25.299450000000004">
    <ele>101.33</ele>
   </trkpt>
   <trkpt lat="54.67980000000001" lon="25.299500000000002">
    <ele>101.33</ele>
   </trkpt>
   <trkpt lat="54.6799" lon="25.299650000000003">
    <ele>101.34000000000002</ele>
   </trkpt>
   <trkpt lat="54.680110000000006" lon="25.300030000000003">
    <ele>101.36</ele>
   </trkpt>
   <trkpt lat="54.68025000000001" lon="25.30035">
    <ele>101.36</ele>
   </trkpt>
   <trkpt lat="54.68038000000001" lon="25.30082">
    <ele>101.57000000000001</ele>
   </trkpt>
   <trkpt lat="54.680420000000005" lon="25.301080000000002">
    <ele>101.62</ele>
   </trkpt>
   <trkpt lat="54.680440000000004" lon="25.301540000000003">
    <ele>101.89</ele>
   </trkpt>
   <trkpt lat="54.68036000000001" lon="25.30206">
    <ele>101.93</ele>
   </trkpt>
   <trkpt lat="54.680170000000004" lon="25.30308">
    <ele>102.23</ele>
   </trkpt>
   <trkpt lat="54.679930000000006" lon="25.303910000000002">
    <ele>102.85000000000001</ele>
   </trkpt>
   <trkpt lat="54.67978" lon="25.30439">
    <ele>103.11</ele>
   </trkpt>
   <trkpt lat="54.67945" lon="25.305480000000003">
    <ele>103.79</ele>
   </trkpt>
   <trkpt lat="54.679320000000004" lon="25.305970000000002">
    <ele>104.08</ele>
   </trkpt>
   <trkpt lat="54.67924000000001" lon="25.306410000000003">
    <ele>103.81000000000002</ele>
   </trkpt>
   <trkpt lat="54.679210000000005" lon="25.30673">
    <ele>103.81000000000002</ele>
   </trkpt>
   <trkpt lat="54.679170000000006" lon="25.308090000000004">
    <ele>103.77000000000001</ele>
   </trkpt>
   <trkpt lat="54.67925" lon="25.30947">
    <ele>103.57000000000001</ele>
   </trkpt>
   <trkpt lat="54.67933500356449" lon="25.31039999809685">
    <ele>104.14000000000001</ele>
   </trkpt>
   <trkpt lat="54.67942000000001" lon="25.31133">
    <ele>104.71000000000001</ele>
   </trkpt>
   <trkpt lat="54.679410000000004" lon="25.311660000000003">
    <ele>104.63000000000001</ele>
   </trkpt>
   <trkpt lat="54.67938" lon="25.311760000000003">
    <ele>104.60000000000001</ele>
   </trkpt>
   <trkpt lat="54.679280000000006" lon="25.31209">
    <ele>104.49000000000001</ele>
   </trkpt>
   <trkpt lat="54.67915000000001" lon="25.31229">
    <ele>104.66</ele>
   </trkpt>
   <trkpt lat="54.67906000000001" lon="25.312320000000003">
    <ele>104.89000000000001</ele>
   </trkpt>
   <trkpt lat="54.67869" lon="25.312220000000003">
    <ele>106.67000000000002</ele>
   </trkpt>
   <trkpt lat="54.67868000000001" lon="25.312220000000003">
    <ele>106.68</ele>
   </trkpt>
   <trkpt lat="54.678450000000005" lon="25.312150000000003">
    <ele>107.50000000000001</ele>
   </trkpt>
   <trkpt lat="54.67855" lon="25.311750000000004">
    <ele>108.03000000000002</ele>
   </trkpt>
   <trkpt lat="54.678610000000006" lon="25.311650000000004">
    <ele>108.61000000000001</ele>
   </trkpt>
   <trkpt lat="54.67862" lon="25.311560000000004">
    <ele>108.61000000000001</ele>
   </trkpt>
   <trkpt lat="54.67866000000001" lon="25.311570000000003">
    <ele>108.61000000000001</ele>
   </trkpt>
   <trkpt lat="54.678850000000004" lon="25.311770000000003">
    <ele>109.38000000000001</ele>
   </trkpt>
   <trkpt lat="54.679" lon="25.311840000000004">
    <ele>109.73</ele>
   </trkpt>
   <trkpt lat="54.67909" lon="25.311940000000003">
    <ele>109.94000000000001</ele>
   </trkpt>
   <trkpt lat="54.67974" lon="25.312710000000003">
    <ele>111.84</ele>
   </trkpt>
   <trkpt lat="54.68020500149117" lon="25.313279993659652">
    <ele>114.02000000000001</ele>
   </trkpt>
   <trkpt lat="54.680670000000006" lon="25.313850000000002">
    <ele>117.64</ele>
   </trkpt>
   <trkpt lat="54.68108000129439" lon="25.31440999434897">
    <ele>118.84000000000002</ele>
   </trkpt>
   <trkpt lat="54.681490000000004" lon="25.314970000000002">
    <ele>121.37</ele>
   </trkpt>
   <trkpt lat="54.681490000000004" lon="25.314960000000003">
    <ele>120.13000000000001</ele>
   </trkpt>
   <trkpt lat="54.68146" lon="25.315220000000004">
    <ele>121.29</ele>
   </trkpt>
   <trkpt lat="54.681470000000004" lon="25.315120000000004">
    <ele>122.4</ele>
   </trkpt>
   <trkpt lat="54.68142" lon="25.31547">
    <ele>127.85000000000002</ele>
   </trkpt>
   <trkpt lat="54.681250000000006" lon="25.31585">
    <ele>132.22</ele>
   </trkpt>
   <trkpt lat="54.681230000000006" lon="25.315890000000003">
    <ele>132.22</ele>
   </trkpt>
   <trkpt lat="54.681140000000006" lon="25.31612">
    <ele>133.05</ele>
   </trkpt>
   <trkpt lat="54.68106" lon="25.316350000000003">
    <ele>133.88</ele>
   </trkpt>
   <trkpt lat="54.680960000000006" lon="25.316570000000002">
    <ele>135.42000000000002</ele>
   </trkpt>
   <trkpt lat="54.68092000000001" lon="25.316750000000003">
    <ele>135.91</ele>
   </trkpt>
   <trkpt lat="54.6809" lon="25.316940000000002">
    <ele>136.19</ele>
   </trkpt>
   <trkpt lat="54.680930000000004" lon="25.317330000000002">
    <ele>137.22</ele>
   </trkpt>
   <trkpt lat="54.68103000000001" lon="25.317760000000003">
    <ele>140.13</ele>
   </trkpt>
   <trkpt lat="54.68132000000001" lon="25.318170000000002">
    <ele>148.31000000000003</ele>
   </trkpt>
   <trkpt lat="54.681430000000006" lon="25.3184">
    <ele>153.03</ele>
   </trkpt>
   <trkpt lat="54.68141000000001" lon="25.318500000000004">
    <ele>153.43</ele>
   </trkpt>
   <trkpt lat="54.680910000000004" lon="25.3184">
    <ele>153.66000000000003</ele>
   </trkpt>
   <trkpt lat="54.680690000000006" lon="25.318420000000003">
    <ele>153.32000000000002</ele>
   </trkpt>
   <trkpt lat="54.68063000000001" lon="25.318520000000003">
    <ele>153.18</ele>
   </trkpt>
   <trkpt lat="54.680310000000006" lon="25.319360000000003">
    <ele>153.61</ele>
   </trkpt>
   <trkpt lat="54.68027000000001" lon="25.31953">
    <ele>153.48</ele>
   </trkpt>
   <trkpt lat="54.68018000000001" lon="25.31971">
    <ele>153.03</ele>
   </trkpt>
   <trkpt lat="54.67991000000001" lon="25.32054">
    <ele>152.35000000000002</ele>
   </trkpt>
   <trkpt lat="54.67989000000001" lon="25.320700000000002">
    <ele>152.17</ele>
   </trkpt>
   <trkpt lat="54.679840000000006" lon="25.320860000000003">
    <ele>152.17</ele>
   </trkpt>
   <trkpt lat="54.67963" lon="25.321880000000004">
    <ele>152.24</ele>
   </trkpt>
   <trkpt lat="54.67963" lon="25.32223">
    <ele>152.11</ele>
   </trkpt>
   <trkpt lat="54.67972" lon="25.322580000000002">
    <ele>151.98</ele>
   </trkpt>
   <trkpt lat="54.679730000000006" lon="25.323010000000004">
    <ele>151.94000000000003</ele>
   </trkpt>
   <trkpt lat="54.679660000000005" lon="25.323380000000004">
    <ele>152.31</ele>
   </trkpt>
   <trkpt lat="54.679660000000005" lon="25.323610000000002">
    <ele>152.46</ele>
   </trkpt>
   <trkpt lat="54.67969000000001" lon="25.32381">
    <ele>152.46</ele>
   </trkpt>
   <trkpt lat="54.67969000000001" lon="25.324270000000002">
    <ele>152.15</ele>
   </trkpt>
   <trkpt lat="54.67982000000001" lon="25.324550000000002">
    <ele>151.62</ele>
   </trkpt>
   <trkpt lat="54.67987" lon="25.32494">
    <ele>152.65</ele>
   </trkpt>
   <trkpt lat="54.67987" lon="25.32637">
    <ele>152.87</ele>
   </trkpt>
   <trkpt lat="54.67994" lon="25.326620000000002">
    <ele>152.44000000000003</ele>
   </trkpt>
   <trkpt lat="54.67994" lon="25.326610000000002">
    <ele>152.46</ele>
   </trkpt>
   <trkpt lat="54.68001" lon="25.32685">
    <ele>151.66000000000003</ele>
   </trkpt>
   <trkpt lat="54.68019" lon="25.32722">
    <ele>151.19000000000003</ele>
   </trkpt>
   <trkpt lat="54.68038000000001" lon="25.327370000000002">
    <ele>151.46</ele>
   </trkpt>
   <trkpt lat="54.680460000000004" lon="25.32741">
    <ele>151.99</ele>
   </trkpt>
   <trkpt lat="54.680550000000004" lon="25.32748">
    <ele>152.4</ele>
   </trkpt>
   <trkpt lat="54.68068" lon="25.327640000000002">
    <ele>152.97000000000003</ele>
   </trkpt>
   <trkpt lat="54.68072000000001" lon="25.32804">
    <ele>153.31</ele>
   </trkpt>
   <trkpt lat="54.68081" lon="25.32852">
    <ele>152.81</ele>
   </trkpt>
   <trkpt lat="54.680890000000005" lon="25.329480000000004">
    <ele>152.65</ele>
   </trkpt>
   <trkpt lat="54.680890000000005" lon="25.33004">
    <ele>153.67</ele>
   </trkpt>
   <trkpt lat="54.68081" lon="25.33123">
    <ele>156.81</ele>
   </trkpt>
   <trkpt lat="54.680780000000006" lon="25.331840000000003">
    <ele>158.13000000000002</ele>
   </trkpt>
   <trkpt lat="54.68085000000001" lon="25.33247">
    <ele>155.13000000000002</ele>
   </trkpt>
   <trkpt lat="54.68084" lon="25.33283">
    <ele>152.54</ele>
   </trkpt>
   <trkpt lat="54.680780000000006" lon="25.3333">
    <ele>148.59</ele>
   </trkpt>
   <trkpt lat="54.68077" lon="25.33351">
    <ele>148.59</ele>
   </trkpt>
   <trkpt lat="54.680780000000006" lon="25.333730000000003">
    <ele>144.63</ele>
   </trkpt>
   <trkpt lat="54.68081" lon="25.333920000000003">
    <ele>144.63</ele>
   </trkpt>
   <trkpt lat="54.68081" lon="25.334370000000003">
    <ele>141.42000000000002</ele>
   </trkpt>
   <trkpt lat="54.680780000000006" lon="25.33462">
    <ele>141.42000000000002</ele>
   </trkpt>
   <trkpt lat="54.680800000000005" lon="25.334940000000003">
    <ele>138.77</ele>
   </trkpt>
   <trkpt lat="54.68083000000001" lon="25.335130000000003">
    <ele>138.19</ele>
   </trkpt>
   <trkpt lat="54.68083000000001" lon="25.335120000000003">
    <ele>138.20000000000002</ele>
   </trkpt>
   <trkpt lat="54.68086" lon="25.33527">
    <ele>137.59</ele>
   </trkpt>
   <trkpt lat="54.681180000000005" lon="25.335880000000003">
    <ele>135.34</ele>
   </trkpt>
   <trkpt lat="54.681400000000004" lon="25.33585">
    <ele>135.75</ele>
   </trkpt>
   <trkpt lat="54.681580000000004" lon="25.335890000000003">
    <ele>136.12</ele>
   </trkpt>
   <trkpt lat="54.681940000000004" lon="25.33604">
    <ele>137.81</ele>
   </trkpt>
   <trkpt lat="54.682190000000006" lon="25.336240000000004">
    <ele>139.44</ele>
   </trkpt>
   <trkpt lat="54.68229" lon="25.336260000000003">
    <ele>139.44</ele>
   </trkpt>
   <trkpt lat="54.6824" lon="25.336250000000003">
    <ele>139.44</ele>
   </trkpt>
   <trkpt lat="54.68251000000001" lon="25.33622">
    <ele>139.44</ele>
   </trkpt>
   <trkpt lat="54.68265" lon="25.336150000000004">
    <ele>141.45000000000002</ele>
   </trkpt>
   <trkpt lat="54.68285" lon="25.335970000000003">
    <ele>142.77</ele>
   </trkpt>
   <trkpt lat="54.683040000000005" lon="25.335720000000002">
    <ele>143.78000000000003</ele>
   </trkpt>
   <trkpt lat="54.68318000000001" lon="25.335430000000002">
    <ele>144.32</ele>
   </trkpt>
   <trkpt lat="54.68321" lon="25.33526">
    <ele>144.32</ele>
   </trkpt>
   <trkpt lat="54.683310000000006" lon="25.33499">
    <ele>145.54</ele>
   </trkpt>
   <trkpt lat="54.68338000000001" lon="25.33491">
    <ele>146.01</ele>
   </trkpt>
   <trkpt lat="54.68347000000001" lon="25.334850000000003">
    <ele>146.53000000000003</ele>
   </trkpt>
   <trkpt lat="54.68372" lon="25.334580000000003">
    <ele>149.33</ele>
   </trkpt>
   <trkpt lat="54.68406" lon="25.33453">
    <ele>150.59</ele>
   </trkpt>
   <trkpt lat="54.684180000000005" lon="25.334490000000002">
    <ele>151.09</ele>
   </trkpt>
   <trkpt lat="54.684270000000005" lon="25.334400000000002">
    <ele>151.55</ele>
   </trkpt>
   <trkpt lat="54.68479000000001" lon="25.334120000000002">
    <ele>155.29000000000002</ele>
   </trkpt>
   <trkpt lat="54.684940000000005" lon="25.334080000000004">
    <ele>156.23000000000002</ele>
   </trkpt>
   <trkpt lat="54.68522" lon="25.33405">
    <ele>158.47</ele>
   </trkpt>
   <trkpt lat="54.685300000000005" lon="25.334080000000004">
    <ele>158.69000000000003</ele>
   </trkpt>
   <trkpt lat="54.685570000000006" lon="25.334300000000002">
    <ele>159.44000000000003</ele>
   </trkpt>
   <trkpt lat="54.685750000000006" lon="25.334490000000002">
    <ele>160.07000000000002</ele>
   </trkpt>
   <trkpt lat="54.68591000000001" lon="25.33472">
    <ele>161.37</ele>
   </trkpt>
   <trkpt lat="54.6861" lon="25.335040000000003">
    <ele>163.68</ele>
   </trkpt>
   <trkpt lat="54.686170000000004" lon="25.3351">
    <ele>164.35000000000002</ele>
   </trkpt>
   <trkpt lat="54.68627000000001" lon="25.335110000000004">
    <ele>166.96</ele>
   </trkpt>
   <trkpt lat="54.68636000000001" lon="25.33509">
    <ele>169.05</ele>
   </trkpt>
   <trkpt lat="54.68645000000001" lon="25.33501">
    <ele>171.36</ele>
   </trkpt>
   <trkpt lat="54.68656000000001" lon="25.33482">
    <ele>175.36</ele>
   </trkpt>
   <trkpt lat="54.68659" lon="25.33479">
    <ele>176.22</ele>
   </trkpt>
   <trkpt lat="54.68672" lon="25.334750000000003">
    <ele>179.17000000000002</ele>
   </trkpt>
   <trkpt lat="54.686820000000004" lon="25.334960000000002">
    <ele>181.79</ele>
   </trkpt>
   <trkpt lat="54.687110000000004" lon="25.335340000000002">
    <ele>189.81</ele>
   </trkpt>
   <trkpt lat="54.687250000000006" lon="25.335680000000004">
    <ele>190.77</ele>
   </trkpt>
   <trkpt lat="54.687380000000005" lon="25.33612">
    <ele>189.26000000000002</ele>
   </trkpt>
   <trkpt lat="54.68746" lon="25.336640000000003">
    <ele>186.89000000000001</ele>
   </trkpt>
   <trkpt lat="54.687380000000005" lon="25.33736">
    <ele>185.8</ele>
   </trkpt>
   <trkpt lat="54.68724" lon="25.338310000000003">
    <ele>182.14000000000001</ele>
   </trkpt>
   <trkpt lat="54.6871" lon="25.339070000000003">
    <ele>180.62</ele>
   </trkpt>
   <trkpt lat="54.687110000000004" lon="25.339370000000002">
    <ele>180.31000000000003</ele>
   </trkpt>
   <trkpt lat="54.686890000000005" lon="25.339900000000004">
    <ele>179.86</ele>
   </trkpt>
   <trkpt lat="54.68681" lon="25.340230000000002">
    <ele>179.8</ele>
   </trkpt>
   <trkpt lat="54.68679" lon="25.340480000000003">
    <ele>179.78000000000003</ele>
   </trkpt>
   <trkpt lat="54.686820000000004" lon="25.340880000000002">
    <ele>179.74</ele>
   </trkpt>
   <trkpt lat="54.6869" lon="25.341220000000003">
    <ele>179.99</ele>
   </trkpt>
   <trkpt lat="54.68694000000001" lon="25.34128">
    <ele>180.49</ele>
   </trkpt>
   <trkpt lat="54.687020000000004" lon="25.34136">
    <ele>180.91000000000003</ele>
   </trkpt>
   <trkpt lat="54.687020000000004" lon="25.341350000000002">
    <ele>180.84000000000003</ele>
   </trkpt>
   <trkpt lat="54.687160000000006" lon="25.34148">
    <ele>182.38000000000002</ele>
   </trkpt>
   <trkpt lat="54.68733" lon="25.341520000000003">
    <ele>184.68</ele>
   </trkpt>
   <trkpt lat="54.68751" lon="25.341530000000002">
    <ele>186.08</ele>
   </trkpt>
   <trkpt lat="54.68757000000001" lon="25.34165">
    <ele>186.28000000000003</ele>
   </trkpt>
   <trkpt lat="54.687830000000005" lon="25.342470000000002">
    <ele>188.3</ele>
   </trkpt>
   <trkpt lat="54.68806000000001" lon="25.34296">
    <ele>188.77</ele>
   </trkpt>
   <trkpt lat="54.688770000000005" lon="25.3439">
    <ele>191.17000000000002</ele>
   </trkpt>
   <trkpt lat="54.68923" lon="25.34446">
    <ele>193.84</ele>
   </trkpt>
   <trkpt lat="54.688930000000006" lon="25.344450000000002">
    <ele>190.41000000000003</ele>
   </trkpt>
   <trkpt lat="54.688570000000006" lon="25.344350000000002">
    <ele>186.78</ele>
   </trkpt>
   <trkpt lat="54.688340000000004" lon="25.34438">
    <ele>185.45</ele>
   </trkpt>
   <trkpt lat="54.68813" lon="25.34449">
    <ele>184.25000000000003</ele>
   </trkpt>
   <trkpt lat="54.688" lon="25.34467">
    <ele>182.49</ele>
   </trkpt>
   <trkpt lat="54.68773" lon="25.345250000000004">
    <ele>180.04</ele>
   </trkpt>
   <trkpt lat="54.68746500178061" lon="25.345910004340222">
    <ele>177.63</ele>
   </trkpt>
   <trkpt lat="54.687200000000004" lon="25.346570000000003">
    <ele>176.43</ele>
   </trkpt>
   <trkpt lat="54.68685000000001" lon="25.347510000000003">
    <ele>175.53000000000003</ele>
   </trkpt>
   <trkpt lat="54.68663" lon="25.34794">
    <ele>176.50000000000003</ele>
   </trkpt>
   <trkpt lat="54.686510000000006" lon="25.34812">
    <ele>177.29</ele>
   </trkpt>
   <trkpt lat="54.68614" lon="25.348630000000004">
    <ele>180.69000000000003</ele>
   </trkpt>
   <trkpt lat="54.68620000000001" lon="25.348930000000003">
    <ele>182.22000000000003</ele>
   </trkpt>
   <trkpt lat="54.68629000000001" lon="25.34916">
    <ele>183.76</ele>
   </trkpt>
   <trkpt lat="54.68641" lon="25.34937">
    <ele>185.69000000000003</ele>
   </trkpt>
   <trkpt lat="54.68657" lon="25.34954">
    <ele>186.02</ele>
   </trkpt>
   <trkpt lat="54.68672" lon="25.349610000000002">
    <ele>186.29000000000002</ele>
   </trkpt>
   <trkpt lat="54.686960000000006" lon="25.349690000000002">
    <ele>185.28000000000003</ele>
   </trkpt>
   <trkpt lat="54.687380000000005" lon="25.349940000000004">
    <ele>185.04</ele>
   </trkpt>
   <trkpt lat="54.68759000000001" lon="25.350130000000004">
    <ele>183.60000000000002</ele>
   </trkpt>
   <trkpt lat="54.68768000000001" lon="25.3503">
    <ele>183.52</ele>
   </trkpt>
   <trkpt lat="54.687720000000006" lon="25.350340000000003">
    <ele>183.41000000000003</ele>
   </trkpt>
   <trkpt lat="54.687850000000005" lon="25.35031">
    <ele>182.32</ele>
   </trkpt>
   <trkpt lat="54.687920000000005" lon="25.350320000000004">
    <ele>181.71</ele>
   </trkpt>
   <trkpt lat="54.68797000000001" lon="25.350350000000002">
    <ele>180.6</ele>
   </trkpt>
   <trkpt lat="54.687960000000004" lon="25.350350000000002">
    <ele>180.77</ele>
   </trkpt>
   <trkpt lat="54.688230000000004" lon="25.350530000000003">
    <ele>178.05</ele>
   </trkpt>
   <trkpt lat="54.68865" lon="25.350610000000003">
    <ele>176.73000000000002</ele>
   </trkpt>
   <trkpt lat="54.68883" lon="25.35078">
    <ele>177.06000000000003</ele>
   </trkpt>
   <trkpt lat="54.68901" lon="25.350600000000004">
    <ele>178.14000000000001</ele>
   </trkpt>
   <trkpt lat="54.689130000000006" lon="25.350360000000002">
    <ele>179.45000000000002</ele>
   </trkpt>
   <trkpt lat="54.68957" lon="25.349230000000002">
    <ele>183.95</ele>
   </trkpt>
   <trkpt lat="54.68974000000001" lon="25.348860000000002">
    <ele>183.11</ele>
   </trkpt>
   <trkpt lat="54.689980000000006" lon="25.348570000000002">
    <ele>176.66</ele>
   </trkpt>
   <trkpt lat="54.690200000000004" lon="25.348480000000002">
    <ele>173.16</ele>
   </trkpt>
   <trkpt lat="54.69033" lon="25.34851">
    <ele>173.46</ele>
   </trkpt>
   <trkpt lat="54.690430000000006" lon="25.348580000000002">
    <ele>173.11</ele>
   </trkpt>
   <trkpt lat="54.69042" lon="25.348580000000002">
    <ele>173.1</ele>
   </trkpt>
   <trkpt lat="54.690540000000006" lon="25.348660000000002">
    <ele>173.1</ele>
   </trkpt>
   <trkpt lat="54.690630000000006" lon="25.34868">
    <ele>173.42000000000002</ele>
   </trkpt>
   <trkpt lat="54.69075" lon="25.348660000000002">
    <ele>174.04000000000002</ele>
   </trkpt>
   <trkpt lat="54.69086000000001" lon="25.3486">
    <ele>174.45000000000002</ele>
   </trkpt>
   <trkpt lat="54.690920000000006" lon="25.34862">
    <ele>174.43</ele>
   </trkpt>
   <trkpt lat="54.690920000000006" lon="25.3487">
    <ele>174.3</ele>
   </trkpt>
   <trkpt lat="54.69088000000001" lon="25.34879">
    <ele>174.08</ele>
   </trkpt>
   <trkpt lat="54.69077000000001" lon="25.348910000000004">
    <ele>173.58</ele>
   </trkpt>
   <trkpt lat="54.690690000000004" lon="25.34916">
    <ele>172.65000000000003</ele>
   </trkpt>
   <trkpt lat="54.690560000000005" lon="25.349300000000003">
    <ele>171.46</ele>
   </trkpt>
   <trkpt lat="54.69037" lon="25.349380000000004">
    <ele>172.08</ele>
   </trkpt>
   <trkpt lat="54.690340000000006" lon="25.34962">
    <ele>173.99</ele>
   </trkpt>
   <trkpt lat="54.69035" lon="25.349760000000003">
    <ele>177.94</ele>
   </trkpt>
   <trkpt lat="54.690270000000005" lon="25.349980000000002">
    <ele>182.50000000000003</ele>
   </trkpt>
   <trkpt lat="54.69042" lon="25.350430000000003">
    <ele>186.45</ele>
   </trkpt>
   <trkpt lat="54.69070000000001" lon="25.350450000000002">
    <ele>186.62</ele>
   </trkpt>
   <trkpt lat="54.690960000000004" lon="25.35038">
    <ele>186.87</ele>
   </trkpt>
   <trkpt lat="54.69107" lon="25.350250000000003">
    <ele>185.67</ele>
   </trkpt>
   <trkpt lat="54.6912" lon="25.35018">
    <ele>185.25000000000003</ele>
   </trkpt>
   <trkpt lat="54.691390000000006" lon="25.350040000000003">
    <ele>188.62</ele>
   </trkpt>
   <trkpt lat="54.692080000000004" lon="25.349960000000003">
    <ele>199.36</ele>
   </trkpt>
   <trkpt lat="54.69221" lon="25.35012">
    <ele>201.31</ele>
   </trkpt>
   <trkpt lat="54.6925" lon="25.350610000000003">
    <ele>199.06</ele>
   </trkpt>
   <trkpt lat="54.692530000000005" lon="25.35077">
    <ele>197.5</ele>
   </trkpt>
   <trkpt lat="54.692660000000004" lon="25.35047">
    <ele>198.45000000000002</ele>
   </trkpt>
   <trkpt lat="54.69279" lon="25.350410000000004">
    <ele>198.13000000000002</ele>
   </trkpt>
   <trkpt lat="54.692890000000006" lon="25.350240000000003">
    <ele>197.47</ele>
   </trkpt>
   <trkpt lat="54.692980000000006" lon="25.349960000000003">
    <ele>195.45000000000002</ele>
   </trkpt>
   <trkpt lat="54.693110000000004" lon="25.349410000000002">
    <ele>191.75</ele>
   </trkpt>
   <trkpt lat="54.69319" lon="25.349580000000003">
    <ele>191.79000000000002</ele>
   </trkpt>
   <trkpt lat="54.693290000000005" lon="25.349680000000003">
    <ele>191.85999999999999</ele>
   </trkpt>
   <trkpt lat="54.69384" lon="25.34984">
    <ele>192.69000000000003</ele>
   </trkpt>
   <trkpt lat="54.69417000000001" lon="25.349890000000002">
    <ele>195.16000000000003</ele>
   </trkpt>
   <trkpt lat="54.694160000000004" lon="25.349890000000002">
    <ele>195.13000000000002</ele>
   </trkpt>
   <trkpt lat="54.69426000000001" lon="25.34993">
    <ele>196.20000000000002</ele>
   </trkpt>
   <trkpt lat="54.69429" lon="25.3499">
    <ele>196.19</ele>
   </trkpt>
   <trkpt lat="54.69436" lon="25.35002">
    <ele>196.61</ele>
   </trkpt>
   <trkpt lat="54.694770000000005" lon="25.35038">
    <ele>197.94</ele>
   </trkpt>
   <trkpt lat="54.694880000000005" lon="25.3504">
    <ele>198.03</ele>
   </trkpt>
   <trkpt lat="54.69496" lon="25.350350000000002">
    <ele>197.96</ele>
   </trkpt>
   <trkpt lat="54.695190000000004" lon="25.350050000000003">
    <ele>197.86</ele>
   </trkpt>
   <trkpt lat="54.6959" lon="25.34927">
    <ele>197.36</ele>
   </trkpt>
   <trkpt lat="54.695980000000006" lon="25.34927">
    <ele>197.36</ele>
   </trkpt>
   <trkpt lat="54.69608" lon="25.349310000000003">
    <ele>197.35000000000002</ele>
   </trkpt>
   <trkpt lat="54.696310000000004" lon="25.34946">
    <ele>197.64000000000001</ele>
   </trkpt>
   <trkpt lat="54.696400000000004" lon="25.349570000000003">
    <ele>197.84</ele>
   </trkpt>
   <trkpt lat="54.69653" lon="25.35">
    <ele>199.07000000000002</ele>
   </trkpt>
   <trkpt lat="54.696690000000004" lon="25.3501">
    <ele>200.20000000000002</ele>
   </trkpt>
   <trkpt lat="54.69679000000001" lon="25.350140000000003">
    <ele>201.02</ele>
   </trkpt>
   <trkpt lat="54.69684" lon="25.350130000000004">
    <ele>201.02</ele>
   </trkpt>
   <trkpt lat="54.69693" lon="25.35018">
    <ele>202.44</ele>
   </trkpt>
   <trkpt lat="54.69708000000001" lon="25.350330000000003">
    <ele>203.98000000000002</ele>
   </trkpt>
   <trkpt lat="54.69718" lon="25.35047">
    <ele>204.34</ele>
   </trkpt>
   <trkpt lat="54.69718" lon="25.35046">
    <ele>204.32000000000002</ele>
   </trkpt>
   <trkpt lat="54.69758" lon="25.35094">
    <ele>206.72</ele>
   </trkpt>
   <trkpt lat="54.697970000000005" lon="25.351260000000003">
    <ele>207.47</ele>
   </trkpt>
   <trkpt lat="54.69807" lon="25.351250000000004">
    <ele>207.46</ele>
   </trkpt>
   <trkpt lat="54.69816" lon="25.351210000000002">
    <ele>207.55</ele>
   </trkpt>
   <trkpt lat="54.698570000000004" lon="25.350740000000002">
    <ele>208.90000000000003</ele>
   </trkpt>
   <trkpt lat="54.698570000000004" lon="25.35075">
    <ele>208.88</ele>
   </trkpt>
   <trkpt lat="54.698710000000005" lon="25.350600000000004">
    <ele>209.1</ele>
   </trkpt>
   <trkpt lat="54.69885000000001" lon="25.35031">
    <ele>209.03000000000003</ele>
   </trkpt>
   <trkpt lat="54.699070000000006" lon="25.350260000000002">
    <ele>209.08</ele>
   </trkpt>
   <trkpt lat="54.699220000000004" lon="25.350240000000003">
    <ele>208.62000000000003</ele>
   </trkpt>
   <trkpt lat="54.69932000000001" lon="25.350240000000003">
    <ele>208.31000000000003</ele>
   </trkpt>
   <trkpt lat="54.69946" lon="25.350350000000002">
    <ele>207.11</ele>
   </trkpt>
   <trkpt lat="54.69970000000001" lon="25.350420000000003">
    <ele>206.39000000000001</ele>
   </trkpt>
   <trkpt lat="54.69975" lon="25.350150000000003">
    <ele>206.26000000000002</ele>
   </trkpt>
   <trkpt lat="54.69975" lon="25.349950000000003">
    <ele>205.67000000000002</ele>
   </trkpt>
   <trkpt lat="54.69975" lon="25.34908">
    <ele>203.65000000000003</ele>
   </trkpt>
   <trkpt lat="54.69986" lon="25.34899">
    <ele>205.24</ele>
   </trkpt>
   <trkpt lat="54.69999000000001" lon="25.348920000000003">
    <ele>204.48000000000002</ele>
   </trkpt>
   <trkpt lat="54.69995" lon="25.3486">
    <ele>203.44</ele>
   </trkpt>
   <trkpt lat="54.699940000000005" lon="25.347820000000002">
    <ele>202.49</ele>
   </trkpt>
   <trkpt lat="54.69997000000001" lon="25.347360000000002">
    <ele>202.33</ele>
   </trkpt>
   <trkpt lat="54.700160000000004" lon="25.347360000000002">
    <ele>202.31</ele>
   </trkpt>
   <trkpt lat="54.70011" lon="25.34738">
    <ele>201.79000000000002</ele>
   </trkpt>
   <trkpt lat="54.700210000000006" lon="25.347350000000002">
    <ele>198.69</ele>
   </trkpt>
   <trkpt lat="54.70028000000001" lon="25.347260000000002">
    <ele>198.69</ele>
   </trkpt>
   <trkpt lat="54.700430000000004" lon="25.346850000000003">
    <ele>195.39000000000001</ele>
   </trkpt>
   <trkpt lat="54.700590000000005" lon="25.346220000000002">
    <ele>191.82000000000002</ele>
   </trkpt>
   <trkpt lat="54.70073000000001" lon="25.3459">
    <ele>190.13000000000002</ele>
   </trkpt>
   <trkpt lat="54.700990000000004" lon="25.34542">
    <ele>187.12</ele>
   </trkpt>
   <trkpt lat="54.701220000000006" lon="25.345180000000003">
    <ele>184.38000000000002</ele>
   </trkpt>
   <trkpt lat="54.701370000000004" lon="25.344970000000004">
    <ele>181.89000000000001</ele>
   </trkpt>
   <trkpt lat="54.70154" lon="25.344520000000003">
    <ele>180.52</ele>
   </trkpt>
   <trkpt lat="54.701480000000004" lon="25.344420000000003">
    <ele>180.51</ele>
   </trkpt>
   <trkpt lat="54.701480000000004" lon="25.344220000000004">
    <ele>180.53000000000003</ele>
   </trkpt>
   <trkpt lat="54.70156000000001" lon="25.3438">
    <ele>181.42000000000002</ele>
   </trkpt>
   <trkpt lat="54.701640000000005" lon="25.343580000000003">
    <ele>182.72000000000003</ele>
   </trkpt>
   <trkpt lat="54.701660000000004" lon="25.34346">
    <ele>182.72000000000003</ele>
   </trkpt>
   <trkpt lat="54.70165000000001" lon="25.343370000000004">
    <ele>182.56000000000003</ele>
   </trkpt>
   <trkpt lat="54.70136" lon="25.342760000000002">
    <ele>184.74</ele>
   </trkpt>
   <trkpt lat="54.70087" lon="25.34223">
    <ele>196.25</ele>
   </trkpt>
   <trkpt lat="54.70073000000001" lon="25.34203">
    <ele>196.62</ele>
   </trkpt>
   <trkpt lat="54.700610000000005" lon="25.34156">
    <ele>196.93</ele>
   </trkpt>
   <trkpt lat="54.700590000000005" lon="25.341240000000003">
    <ele>197.72</ele>
   </trkpt>
   <trkpt lat="54.70062000000001" lon="25.340970000000002">
    <ele>199.37</ele>
   </trkpt>
   <trkpt lat="54.70069" lon="25.34053">
    <ele>204.19</ele>
   </trkpt>
   <trkpt lat="54.70078" lon="25.340280000000003">
    <ele>206.72</ele>
   </trkpt>
   <trkpt lat="54.70096" lon="25.339940000000002">
    <ele>207.04000000000002</ele>
   </trkpt>
   <trkpt lat="54.700700000000005" lon="25.33958">
    <ele>205.68000000000004</ele>
   </trkpt>
   <trkpt lat="54.700630000000004" lon="25.3394">
    <ele>205.20000000000002</ele>
   </trkpt>
   <trkpt lat="54.70062000000001" lon="25.339190000000002">
    <ele>204.33</ele>
   </trkpt>
   <trkpt lat="54.700540000000004" lon="25.33913">
    <ele>203.54000000000002</ele>
   </trkpt>
   <trkpt lat="54.70047" lon="25.33904">
    <ele>202.52</ele>
   </trkpt>
   <trkpt lat="54.70046000000001" lon="25.33874">
    <ele>200.81</ele>
   </trkpt>
   <trkpt lat="54.70042" lon="25.338610000000003">
    <ele>199.92000000000002</ele>
   </trkpt>
   <trkpt lat="54.700300000000006" lon="25.33857">
    <ele>199.25</ele>
   </trkpt>
   <trkpt lat="54.70013" lon="25.33856">
    <ele>198.88000000000002</ele>
   </trkpt>
   <trkpt lat="54.700050000000005" lon="25.33846">
    <ele>198.41</ele>
   </trkpt>
   <trkpt lat="54.69993" lon="25.3382">
    <ele>198.32000000000002</ele>
   </trkpt>
   <trkpt lat="54.69986" lon="25.337930000000004">
    <ele>198.01000000000002</ele>
   </trkpt>
   <trkpt lat="54.69977000000001" lon="25.337850000000003">
    <ele>197.03</ele>
   </trkpt>
   <trkpt lat="54.69962" lon="25.33753">
    <ele>196.3</ele>
   </trkpt>
   <trkpt lat="54.699560000000005" lon="25.337200000000003">
    <ele>195.63000000000002</ele>
   </trkpt>
   <trkpt lat="54.69959000000001" lon="25.337030000000002">
    <ele>195.63000000000002</ele>
   </trkpt>
   <trkpt lat="54.699560000000005" lon="25.336380000000002">
    <ele>193.65</ele>
   </trkpt>
   <trkpt lat="54.69948" lon="25.33603">
    <ele>193.22</ele>
   </trkpt>
   <trkpt lat="54.699510000000004" lon="25.33573">
    <ele>191.87</ele>
   </trkpt>
   <trkpt lat="54.69957" lon="25.33537">
    <ele>189.64</ele>
   </trkpt>
   <trkpt lat="54.699540000000006" lon="25.33519">
    <ele>189.42</ele>
   </trkpt>
   <trkpt lat="54.69952000000001" lon="25.334830000000004">
    <ele>188.8</ele>
   </trkpt>
   <trkpt lat="54.699630000000006" lon="25.334470000000003">
    <ele>185.79000000000002</ele>
   </trkpt>
   <trkpt lat="54.69991" lon="25.33407">
    <ele>177.70000000000002</ele>
   </trkpt>
   <trkpt lat="54.700010000000006" lon="25.33404">
    <ele>174.61</ele>
   </trkpt>
   <trkpt lat="54.70006000000001" lon="25.333940000000002">
    <ele>173.76000000000002</ele>
   </trkpt>
   <trkpt lat="54.70011" lon="25.33301">
    <ele>170.21</ele>
   </trkpt>
   <trkpt lat="54.700100000000006" lon="25.33276">
    <ele>168.65</ele>
   </trkpt>
   <trkpt lat="54.70018" lon="25.33208">
    <ele>164.73000000000002</ele>
   </trkpt>
   <trkpt lat="54.700190000000006" lon="25.331770000000002">
    <ele>164.25</ele>
   </trkpt>
   <trkpt lat="54.70033" lon="25.331450000000004">
    <ele>163.27</ele>
   </trkpt>
   <trkpt lat="54.70031" lon="25.330900000000003">
    <ele>159.96</ele>
   </trkpt>
   <trkpt lat="54.700430000000004" lon="25.33058">
    <ele>158.4</ele>
   </trkpt>
   <trkpt lat="54.700450000000004" lon="25.330180000000002">
    <ele>155.84</ele>
   </trkpt>
   <trkpt lat="54.700520000000004" lon="25.32982">
    <ele>152.94000000000003</ele>
   </trkpt>
   <trkpt lat="54.70051" lon="25.329710000000002">
    <ele>151.7</ele>
   </trkpt>
   <trkpt lat="54.70051" lon="25.329700000000003">
    <ele>151.63000000000002</ele>
   </trkpt>
   <trkpt lat="54.700500000000005" lon="25.329300000000003">
    <ele>148.82</ele>
   </trkpt>
   <trkpt lat="54.70064000000001" lon="25.32947">
    <ele>149.68</ele>
   </trkpt>
   <trkpt lat="54.700630000000004" lon="25.32947">
    <ele>149.65</ele>
   </trkpt>
   <trkpt lat="54.700720000000004" lon="25.32957">
    <ele>150.71</ele>
   </trkpt>
   <trkpt lat="54.70087" lon="25.32966">
    <ele>150.71</ele>
   </trkpt>
   <trkpt lat="54.70098" lon="25.329770000000003">
    <ele>152.17</ele>
   </trkpt>
   <trkpt lat="54.701130000000006" lon="25.330240000000003">
    <ele>153.84</ele>
   </trkpt>
   <trkpt lat="54.70131000000001" lon="25.330050000000004">
    <ele>153.84</ele>
   </trkpt>
   <trkpt lat="54.70131000000001" lon="25.330060000000003">
    <ele>153.85000000000002</ele>
   </trkpt>
   <trkpt lat="54.70141" lon="25.329950000000004">
    <ele>153.71</ele>
   </trkpt>
   <trkpt lat="54.7015" lon="25.32957">
    <ele>152.45</ele>
   </trkpt>
   <trkpt lat="54.70156000000001" lon="25.328540000000004">
    <ele>147.51</ele>
   </trkpt>
   <trkpt lat="54.701600000000006" lon="25.32813">
    <ele>145.08</ele>
   </trkpt>
   <trkpt lat="54.7017" lon="25.327790000000004">
    <ele>143.73000000000002</ele>
   </trkpt>
   <trkpt lat="54.70181" lon="25.32749">
    <ele>142.54</ele>
   </trkpt>
   <trkpt lat="54.702020000000005" lon="25.326960000000003">
    <ele>139.85</ele>
   </trkpt>
   <trkpt lat="54.70185000000001" lon="25.326810000000002">
    <ele>139.5</ele>
   </trkpt>
   <trkpt lat="54.701840000000004" lon="25.326800000000002">
    <ele>139.27</ele>
   </trkpt>
   <trkpt lat="54.70168" lon="25.32653">
    <ele>139.8</ele>
   </trkpt>
   <trkpt lat="54.70159" lon="25.326420000000002">
    <ele>140.37000000000003</ele>
   </trkpt>
   <trkpt lat="54.70129000000001" lon="25.326">
    <ele>141.26000000000002</ele>
   </trkpt>
   <trkpt lat="54.701260000000005" lon="25.325930000000003">
    <ele>141.26000000000002</ele>
   </trkpt>
   <trkpt lat="54.701240000000006" lon="25.32579">
    <ele>141.37000000000003</ele>
   </trkpt>
   <trkpt lat="54.70118000000001" lon="25.325830000000003">
    <ele>141.6</ele>
   </trkpt>
   <trkpt lat="54.700990000000004" lon="25.326200000000004">
    <ele>143.95000000000002</ele>
   </trkpt>
   <trkpt lat="54.700990000000004" lon="25.32619">
    <ele>143.95000000000002</ele>
   </trkpt>
   <trkpt lat="54.70089" lon="25.326410000000003">
    <ele>145.55</ele>
   </trkpt>
   <trkpt lat="54.70078" lon="25.32653">
    <ele>146.68</ele>
   </trkpt>
   <trkpt lat="54.700790000000005" lon="25.32653">
    <ele>146.66</ele>
   </trkpt>
   <trkpt lat="54.70076" lon="25.326570000000004">
    <ele>146.66</ele>
   </trkpt>
   <trkpt lat="54.700660000000006" lon="25.32663">
    <ele>148.59</ele>
   </trkpt>
   <trkpt lat="54.70053000000001" lon="25.32666">
    <ele>150.62</ele>
   </trkpt>
   <trkpt lat="54.70038" lon="25.326780000000003">
    <ele>152.31</ele>
   </trkpt>
   <trkpt lat="54.700300000000006" lon="25.32693">
    <ele>156.0</ele>
   </trkpt>
   <trkpt lat="54.700030000000005" lon="25.32663">
    <ele>162.43</ele>
   </trkpt>
   <trkpt lat="54.700030000000005" lon="25.32664">
    <ele>162.72</ele>
   </trkpt>
   <trkpt lat="54.699920000000006" lon="25.326490000000003">
    <ele>165.95000000000002</ele>
   </trkpt>
   <trkpt lat="54.699850000000005" lon="25.326330000000002">
    <ele>168.52</ele>
   </trkpt>
   <trkpt lat="54.69977000000001" lon="25.32625">
    <ele>169.01000000000002</ele>
   </trkpt>
   <trkpt lat="54.69962" lon="25.32628">
    <ele>168.5</ele>
   </trkpt>
   <trkpt lat="54.699540000000006" lon="25.32626">
    <ele>168.17000000000002</ele>
   </trkpt>
   <trkpt lat="54.69941000000001" lon="25.326340000000002">
    <ele>167.89000000000001</ele>
   </trkpt>
   <trkpt lat="54.699200000000005" lon="25.32636">
    <ele>166.81</ele>
   </trkpt>
   <trkpt lat="54.69906" lon="25.326290000000004">
    <ele>166.56</ele>
   </trkpt>
   <trkpt lat="54.69899" lon="25.326210000000003">
    <ele>167.52</ele>
   </trkpt>
   <trkpt lat="54.6989" lon="25.32617">
    <ele>169.1</ele>
   </trkpt>
   <trkpt lat="54.69867000000001" lon="25.32617">
    <ele>172.73000000000002</ele>
   </trkpt>
   <trkpt lat="54.69858000000001" lon="25.326050000000002">
    <ele>174.84000000000003</ele>
   </trkpt>
   <trkpt lat="54.698510000000006" lon="25.32627">
    <ele>179.32</ele>
   </trkpt>
   <trkpt lat="54.698420000000006" lon="25.326310000000003">
    <ele>181.31000000000003</ele>
   </trkpt>
   <trkpt lat="54.6983" lon="25.32644">
    <ele>184.11</ele>
   </trkpt>
   <trkpt lat="54.698280000000004" lon="25.326400000000003">
    <ele>184.11</ele>
   </trkpt>
   <trkpt lat="54.698330000000006" lon="25.32619">
    <ele>189.75</ele>
   </trkpt>
   <trkpt lat="54.69832" lon="25.326110000000003">
    <ele>189.75</ele>
   </trkpt>
   <trkpt lat="54.69829000000001" lon="25.326050000000002">
    <ele>190.8</ele>
   </trkpt>
   <trkpt lat="54.698240000000006" lon="25.326030000000003">
    <ele>192.64000000000001</ele>
   </trkpt>
   <trkpt lat="54.69816" lon="25.326040000000003">
    <ele>194.05</ele>
   </trkpt>
   <trkpt lat="54.69807" lon="25.326240000000002">
    <ele>194.02</ele>
   </trkpt>
   <trkpt lat="54.69802000000001" lon="25.326610000000002">
    <ele>194.78</ele>
   </trkpt>
   <trkpt lat="54.698040000000006" lon="25.32694">
    <ele>194.37</ele>
   </trkpt>
   <trkpt lat="54.69807" lon="25.327090000000002">
    <ele>193.05</ele>
   </trkpt>
   <trkpt lat="54.69784000000001" lon="25.326980000000002">
    <ele>191.76000000000002</ele>
   </trkpt>
   <trkpt lat="54.69765" lon="25.326860000000003">
    <ele>189.59</ele>
   </trkpt>
   <trkpt lat="54.6976" lon="25.326760000000004">
    <ele>189.01000000000002</ele>
   </trkpt>
   <trkpt lat="54.697590000000005" lon="25.326760000000004">
    <ele>188.98000000000002</ele>
   </trkpt>
   <trkpt lat="54.697520000000004" lon="25.326620000000002">
    <ele>188.98000000000002</ele>
   </trkpt>
   <trkpt lat="54.697390000000006" lon="25.32645">
    <ele>186.87</ele>
   </trkpt>
   <trkpt lat="54.697230000000005" lon="25.32637">
    <ele>185.83</ele>
   </trkpt>
   <trkpt lat="54.697160000000004" lon="25.32636">
    <ele>185.83</ele>
   </trkpt>
   <trkpt lat="54.697100000000006" lon="25.32625">
    <ele>184.52</ele>
   </trkpt>
   <trkpt lat="54.697100000000006" lon="25.326240000000002">
    <ele>184.49</ele>
   </trkpt>
   <trkpt lat="54.69704" lon="25.326130000000003">
    <ele>184.04</ele>
   </trkpt>
   <trkpt lat="54.69684" lon="25.325920000000004">
    <ele>182.35</ele>
   </trkpt>
   <trkpt lat="54.69662" lon="25.325870000000002">
    <ele>181.21</ele>
   </trkpt>
   <trkpt lat="54.69643000000001" lon="25.325930000000003">
    <ele>179.71</ele>
   </trkpt>
   <trkpt lat="54.69632000000001" lon="25.326020000000003">
    <ele>179.71</ele>
   </trkpt>
   <trkpt lat="54.6961" lon="25.326010000000004">
    <ele>178.77</ele>
   </trkpt>
   <trkpt lat="54.69594000000001" lon="25.32609">
    <ele>177.33</ele>
   </trkpt>
   <trkpt lat="54.69585000000001" lon="25.326130000000003">
    <ele>176.86</ele>
   </trkpt>
   <trkpt lat="54.695800000000006" lon="25.326100000000004">
    <ele>176.6</ele>
   </trkpt>
   <trkpt lat="54.695780000000006" lon="25.326060000000002">
    <ele>176.6</ele>
   </trkpt>
   <trkpt lat="54.69576000000001" lon="25.325920000000004">
    <ele>177.09000000000003</ele>
   </trkpt>
   <trkpt lat="54.695660000000004" lon="25.32571">
    <ele>177.29</ele>
   </trkpt>
   <trkpt lat="54.695460000000004" lon="25.325390000000002">
    <ele>177.23000000000002</ele>
   </trkpt>
   <trkpt lat="54.695240000000005" lon="25.325100000000003">
    <ele>177.47</ele>
   </trkpt>
   <trkpt lat="54.695130000000006" lon="25.324880000000004">
    <ele>177.39000000000001</ele>
   </trkpt>
   <trkpt lat="54.69501" lon="25.324700000000004">
    <ele>177.41</ele>
   </trkpt>
   <trkpt lat="54.69500000000001" lon="25.324700000000004">
    <ele>177.41</ele>
   </trkpt>
   <trkpt lat="54.694810000000004" lon="25.32429">
    <ele>177.05</ele>
   </trkpt>
   <trkpt lat="54.69469" lon="25.323780000000003">
    <ele>175.68</ele>
   </trkpt>
   <trkpt lat="54.69462000000001" lon="25.323590000000003">
    <ele>176.66</ele>
   </trkpt>
   <trkpt lat="54.69446000000001" lon="25.32327">
    <ele>179.34000000000003</ele>
   </trkpt>
   <trkpt lat="54.69426000000001" lon="25.322940000000003">
    <ele>178.99</ele>
   </trkpt>
   <trkpt lat="54.694120000000005" lon="25.322830000000003">
    <ele>178.97000000000003</ele>
   </trkpt>
   <trkpt lat="54.69397000000001" lon="25.3228">
    <ele>178.59000000000003</ele>
   </trkpt>
   <trkpt lat="54.693760000000005" lon="25.322660000000003">
    <ele>178.1</ele>
   </trkpt>
   <trkpt lat="54.693580000000004" lon="25.322300000000002">
    <ele>177.11</ele>
   </trkpt>
   <trkpt lat="54.69350000000001" lon="25.322190000000003">
    <ele>176.77</ele>
   </trkpt>
   <trkpt lat="54.69341000000001" lon="25.32212">
    <ele>176.27</ele>
   </trkpt>
   <trkpt lat="54.69337" lon="25.32206">
    <ele>175.93</ele>
   </trkpt>
   <trkpt lat="54.693250000000006" lon="25.321690000000004">
    <ele>173.45000000000002</ele>
   </trkpt>
   <trkpt lat="54.693220000000004" lon="25.32166">
    <ele>173.45000000000002</ele>
   </trkpt>
   <trkpt lat="54.69319" lon="25.321410000000004">
    <ele>173.08</ele>
   </trkpt>
   <trkpt lat="54.69319" lon="25.3214">
    <ele>173.07</ele>
   </trkpt>
   <trkpt lat="54.69321000000001" lon="25.32119">
    <ele>173.04000000000002</ele>
   </trkpt>
   <trkpt lat="54.69317" lon="25.321130000000004">
    <ele>173.01000000000002</ele>
   </trkpt>
   <trkpt lat="54.6931" lon="25.321060000000003">
    <ele>173.01000000000002</ele>
   </trkpt>
   <trkpt lat="54.693000000000005" lon="25.321070000000002">
    <ele>173.29000000000002</ele>
   </trkpt>
   <trkpt lat="54.69292000000001" lon="25.321">
    <ele>173.82</ele>
   </trkpt>
   <trkpt lat="54.692780000000006" lon="25.320940000000004">
    <ele>174.51000000000002</ele>
   </trkpt>
   <trkpt lat="54.692710000000005" lon="25.320850000000004">
    <ele>175.07</ele>
   </trkpt>
   <trkpt lat="54.692690000000006" lon="25.32075">
    <ele>175.32</ele>
   </trkpt>
   <trkpt lat="54.69249000000001" lon="25.320500000000003">
    <ele>175.64000000000001</ele>
   </trkpt>
   <trkpt lat="54.69249000000001" lon="25.319930000000003">
    <ele>176.03000000000003</ele>
   </trkpt>
   <trkpt lat="54.692510000000006" lon="25.319860000000002">
    <ele>176.03000000000003</ele>
   </trkpt>
   <trkpt lat="54.69257" lon="25.319770000000002">
    <ele>176.03000000000003</ele>
   </trkpt>
   <trkpt lat="54.69254" lon="25.319560000000003">
    <ele>175.95000000000002</ele>
   </trkpt>
   <trkpt lat="54.69239" lon="25.31933">
    <ele>175.54</ele>
   </trkpt>
   <trkpt lat="54.692310000000006" lon="25.319180000000003">
    <ele>175.64000000000001</ele>
   </trkpt>
   <trkpt lat="54.69223" lon="25.31885">
    <ele>176.23000000000002</ele>
   </trkpt>
   <trkpt lat="54.69211000000001" lon="25.318710000000003">
    <ele>175.63</ele>
   </trkpt>
   <trkpt lat="54.691930000000006" lon="25.318640000000002">
    <ele>175.1</ele>
   </trkpt>
   <trkpt lat="54.691770000000005" lon="25.31847">
    <ele>175.15000000000003</ele>
   </trkpt>
   <trkpt lat="54.691770000000005" lon="25.31846">
    <ele>175.16</ele>
   </trkpt>
   <trkpt lat="54.69163" lon="25.318260000000002">
    <ele>175.43</ele>
   </trkpt>
   <trkpt lat="54.69155000000001" lon="25.318220000000004">
    <ele>175.43</ele>
   </trkpt>
   <trkpt lat="54.691300000000005" lon="25.317970000000003">
    <ele>176.8</ele>
   </trkpt>
   <trkpt lat="54.691190000000006" lon="25.317980000000002">
    <ele>177.1</ele>
   </trkpt>
   <trkpt lat="54.69115000000001" lon="25.318030000000004">
    <ele>177.20000000000002</ele>
   </trkpt>
   <trkpt lat="54.69089" lon="25.31821">
    <ele>177.24</ele>
   </trkpt>
   <trkpt lat="54.690830000000005" lon="25.31828">
    <ele>177.17000000000002</ele>
   </trkpt>
   <trkpt lat="54.69053" lon="25.31812">
    <ele>176.83</ele>
   </trkpt>
   <trkpt lat="54.69037" lon="25.31809">
    <ele>176.49</ele>
   </trkpt>
   <trkpt lat="54.690290000000005" lon="25.318130000000004">
    <ele>176.39000000000001</ele>
   </trkpt>
   <trkpt lat="54.69037" lon="25.31809">
    <ele>176.55</ele>
   </trkpt>
   <trkpt lat="54.690430000000006" lon="25.3181">
    <ele>176.61</ele>
   </trkpt>
   <trkpt lat="54.690400000000004" lon="25.31809">
    <ele>176.59000000000003</ele>
   </trkpt>
   <trkpt lat="54.69037" lon="25.31809">
    <ele>176.59000000000003</ele>
   </trkpt>
   <trkpt lat="54.69026" lon="25.318160000000002">
    <ele>176.36</ele>
   </trkpt>
   <trkpt lat="54.690180000000005" lon="25.318150000000003">
    <ele>175.86</ele>
   </trkpt>
   <trkpt lat="54.69008" lon="25.318170000000002">
    <ele>174.86</ele>
   </trkpt>
   <trkpt lat="54.69005000000001" lon="25.318220000000004">
    <ele>174.86</ele>
   </trkpt>
   <trkpt lat="54.68995" lon="25.318640000000002">
    <ele>170.39000000000001</ele>
   </trkpt>
   <trkpt lat="54.68979" lon="25.31906">
    <ele>164.59</ele>
   </trkpt>
   <trkpt lat="54.689730000000004" lon="25.31912">
    <ele>163.07000000000002</ele>
   </trkpt>
   <trkpt lat="54.68986" lon="25.31818">
    <ele>164.49</ele>
   </trkpt>
   <trkpt lat="54.689870000000006" lon="25.317480000000003">
    <ele>162.24</ele>
   </trkpt>
   <trkpt lat="54.689910000000005" lon="25.317220000000002">
    <ele>160.17000000000002</ele>
   </trkpt>
   <trkpt lat="54.689960000000006" lon="25.317010000000003">
    <ele>159.12</ele>
   </trkpt>
   <trkpt lat="54.69005000000001" lon="25.316840000000003">
    <ele>156.46</ele>
   </trkpt>
   <trkpt lat="54.69014000000001" lon="25.31671">
    <ele>156.46</ele>
   </trkpt>
   <trkpt lat="54.69014000000001" lon="25.3167">
    <ele>156.42</ele>
   </trkpt>
   <trkpt lat="54.69053000120666" lon="25.316150005339836">
    <ele>152.28</ele>
   </trkpt>
   <trkpt lat="54.690920000000006" lon="25.315600000000003">
    <ele>148.52</ele>
   </trkpt>
   <trkpt lat="54.69084" lon="25.31555">
    <ele>149.63000000000002</ele>
   </trkpt>
   <trkpt lat="54.69082" lon="25.315540000000002">
    <ele>149.63000000000002</ele>
   </trkpt>
   <trkpt lat="54.69070000000001" lon="25.315130000000003">
    <ele>154.09</ele>
   </trkpt>
   <trkpt lat="54.690630000000006" lon="25.315">
    <ele>155.15</ele>
   </trkpt>
   <trkpt lat="54.69052000000001" lon="25.31499">
    <ele>156.79000000000002</ele>
   </trkpt>
   <trkpt lat="54.69039000000001" lon="25.314940000000004">
    <ele>158.22</ele>
   </trkpt>
   <trkpt lat="54.690340000000006" lon="25.314950000000003">
    <ele>158.58</ele>
   </trkpt>
   <trkpt lat="54.690250000000006" lon="25.31491">
    <ele>159.05</ele>
   </trkpt>
   <trkpt lat="54.69017" lon="25.3148">
    <ele>159.62</ele>
   </trkpt>
   <trkpt lat="54.69015" lon="25.314660000000003">
    <ele>160.14000000000001</ele>
   </trkpt>
   <trkpt lat="54.690220000000004" lon="25.31425">
    <ele>161.45000000000002</ele>
   </trkpt>
   <trkpt lat="54.690220000000004" lon="25.31417">
    <ele>162.04999999999998</ele>
   </trkpt>
   <trkpt lat="54.690180000000005" lon="25.313940000000002">
    <ele>164.76000000000002</ele>
   </trkpt>
   <trkpt lat="54.68994000000001" lon="25.314290000000003">
    <ele>173.02</ele>
   </trkpt>
   <trkpt lat="54.689840000000004" lon="25.31434">
    <ele>175.87000000000003</ele>
   </trkpt>
   <trkpt lat="54.689780000000006" lon="25.314400000000003">
    <ele>176.20000000000002</ele>
   </trkpt>
   <trkpt lat="54.68974000000001" lon="25.314500000000002">
    <ele>176.16</ele>
   </trkpt>
   <trkpt lat="54.68972" lon="25.314610000000002">
    <ele>175.98000000000002</ele>
   </trkpt>
   <trkpt lat="54.689600000000006" lon="25.31436">
    <ele>174.02</ele>
   </trkpt>
   <trkpt lat="54.68952" lon="25.31433">
    <ele>173.36</ele>
   </trkpt>
   <trkpt lat="54.689420000000005" lon="25.31434">
    <ele>173.06</ele>
   </trkpt>
   <trkpt lat="54.6893" lon="25.314280000000004">
    <ele>172.02</ele>
   </trkpt>
   <trkpt lat="54.68920000000001" lon="25.31416">
    <ele>171.59</ele>
   </trkpt>
   <trkpt lat="54.688990000000004" lon="25.313760000000002">
    <ele>170.83</ele>
   </trkpt>
   <trkpt lat="54.688900000000004" lon="25.313340000000004">
    <ele>171.06</ele>
   </trkpt>
   <trkpt lat="54.688990000000004" lon="25.3133">
    <ele>171.17000000000002</ele>
   </trkpt>
   <trkpt lat="54.688930000000006" lon="25.313170000000003">
    <ele>171.34</ele>
   </trkpt>
   <trkpt lat="54.68891000000001" lon="25.312920000000002">
    <ele>171.77</ele>
   </trkpt>
   <trkpt lat="54.68896" lon="25.31227">
    <ele>172.98000000000002</ele>
   </trkpt>
   <trkpt lat="54.688950000000006" lon="25.311890000000002">
    <ele>172.58</ele>
   </trkpt>
   <trkpt lat="54.688950000000006" lon="25.311880000000002">
    <ele>172.58</ele>
   </trkpt>
   <trkpt lat="54.68887" lon="25.311470000000003">
    <ele>172.1</ele>
   </trkpt>
   <trkpt lat="54.68887" lon="25.311310000000002">
    <ele>172.1</ele>
   </trkpt>
   <trkpt lat="54.68882000000001" lon="25.31106">
    <ele>171.82</ele>
   </trkpt>
   <trkpt lat="54.688810000000004" lon="25.31058">
    <ele>171.94</ele>
   </trkpt>
   <trkpt lat="54.68882000000001" lon="25.310090000000002">
    <ele>171.42000000000002</ele>
   </trkpt>
   <trkpt lat="54.688810000000004" lon="25.309980000000003">
    <ele>171.54000000000002</ele>
   </trkpt>
   <trkpt lat="54.688810000000004" lon="25.309900000000003">
    <ele>171.65000000000003</ele>
   </trkpt>
   <trkpt lat="54.68885" lon="25.30957">
    <ele>173.37000000000003</ele>
   </trkpt>
   <trkpt lat="54.68883" lon="25.309420000000003">
    <ele>174.17000000000002</ele>
   </trkpt>
   <trkpt lat="54.68883" lon="25.309410000000003">
    <ele>174.17000000000002</ele>
   </trkpt>
   <trkpt lat="54.68878" lon="25.30892">
    <ele>173.39000000000001</ele>
   </trkpt>
   <trkpt lat="54.68873000000001" lon="25.308870000000002">
    <ele>172.35</ele>
   </trkpt>
   <trkpt lat="54.688680000000005" lon="25.30882">
    <ele>172.35</ele>
   </trkpt>
   <trkpt lat="54.68865" lon="25.30873">
    <ele>167.9</ele>
   </trkpt>
   <trkpt lat="54.68864000000001" lon="25.30855">
    <ele>167.9</ele>
   </trkpt>
   <trkpt lat="54.6886" lon="25.308320000000002">
    <ele>156.49</ele>
   </trkpt>
   <trkpt lat="54.688660000000006" lon="25.30789">
    <ele>155.07000000000002</ele>
   </trkpt>
   <trkpt lat="54.688680000000005" lon="25.307730000000003">
    <ele>154.56</ele>
   </trkpt>
   <trkpt lat="54.688590000000005" lon="25.30741">
    <ele>154.03</ele>
   </trkpt>
   <trkpt lat="54.68849" lon="25.307240000000004">
    <ele>153.75000000000003</ele>
   </trkpt>
   <trkpt lat="54.688030000000005" lon="25.307340000000003">
    <ele>153.69000000000003</ele>
   </trkpt>
   <trkpt lat="54.687990000000006" lon="25.30733">
    <ele>153.61</ele>
   </trkpt>
   <trkpt lat="54.68798" lon="25.30733">
    <ele>148.4</ele>
   </trkpt>
   <trkpt lat="54.687940000000005" lon="25.307340000000003">
    <ele>148.02</ele>
   </trkpt>
   <trkpt lat="54.68793" lon="25.306780000000003">
    <ele>144.81000000000003</ele>
   </trkpt>
   <trkpt lat="54.687900000000006" lon="25.30664">
    <ele>144.17000000000002</ele>
   </trkpt>
   <trkpt lat="54.687580000000004" lon="25.305740000000004">
    <ele>140.48000000000002</ele>
   </trkpt>
   <trkpt lat="54.68769" lon="25.30563">
    <ele>140.07</ele>
   </trkpt>
   <trkpt lat="54.687580000000004" lon="25.305300000000003">
    <ele>139.55</ele>
   </trkpt>
   <trkpt lat="54.68802" lon="25.30486">
    <ele>137.27</ele>
   </trkpt>
   <trkpt lat="54.688480000000006" lon="25.304430000000004">
    <ele>134.5</ele>
   </trkpt>
   <trkpt lat="54.68869" lon="25.3043">
    <ele>133.56</ele>
   </trkpt>
   <trkpt lat="54.688840000000006" lon="25.304240000000004">
    <ele>132.44</ele>
   </trkpt>
   <trkpt lat="54.68858" lon="25.30373">
    <ele>135.12</ele>
   </trkpt>
   <trkpt lat="54.688570000000006" lon="25.30373">
    <ele>135.13</ele>
   </trkpt>
   <trkpt lat="54.68851000000001" lon="25.303590000000003">
    <ele>136.36</ele>
   </trkpt>
   <trkpt lat="54.68824000000001" lon="25.303150000000002">
    <ele>138.65000000000003</ele>
   </trkpt>
   <trkpt lat="54.688100000000006" lon="25.30291">
    <ele>141.48000000000002</ele>
   </trkpt>
   <trkpt lat="54.688010000000006" lon="25.30281">
    <ele>141.48000000000002</ele>
   </trkpt>
   <trkpt lat="54.68786000000001" lon="25.302690000000002">
    <ele>146.02</ele>
   </trkpt>
   <trkpt lat="54.68770000000001" lon="25.302690000000002">
    <ele>146.02</ele>
   </trkpt>
   <trkpt lat="54.687760000000004" lon="25.302650000000003">
    <ele>144.89000000000001</ele>
   </trkpt>
   <trkpt lat="54.687960000000004" lon="25.30234">
    <ele>141.68</ele>
   </trkpt>
   <trkpt lat="54.687960000000004" lon="25.30235">
    <ele>141.75</ele>
   </trkpt>
   <trkpt lat="54.68835500150387" lon="25.301740005979788">
    <ele>138.35</ele>
   </trkpt>
   <trkpt lat="54.688750000000006" lon="25.30113">
    <ele>137.21</ele>
   </trkpt>
   <trkpt lat="54.68883" lon="25.30101">
    <ele>137.22</ele>
   </trkpt>
   <trkpt lat="54.68894" lon="25.300490000000003">
    <ele>132.29000000000002</ele>
   </trkpt>
   <trkpt lat="54.689060000000005" lon="25.300050000000002">
    <ele>132.29000000000002</ele>
   </trkpt>
   <trkpt lat="54.68919" lon="25.3001">
    <ele>130.73000000000002</ele>
   </trkpt>
   <trkpt lat="54.68943" lon="25.30027">
    <ele>127.25</ele>
   </trkpt>
   <trkpt lat="54.68977" lon="25.300410000000003">
    <ele>122.60000000000001</ele>
   </trkpt>
   <trkpt lat="54.689980000000006" lon="25.30047">
    <ele>120.63000000000001</ele>
   </trkpt>
   <trkpt lat="54.690110000000004" lon="25.300520000000002">
    <ele>119.89000000000001</ele>
   </trkpt>
   <trkpt lat="54.690200000000004" lon="25.30045">
    <ele>119.56000000000002</ele>
   </trkpt>
   <trkpt lat="54.69033" lon="25.300410000000003">
    <ele>118.94</ele>
   </trkpt>
   <trkpt lat="54.690380000000005" lon="25.30038">
    <ele>118.69</ele>
   </trkpt>
   <trkpt lat="54.690450000000006" lon="25.300300000000004">
    <ele>118.21000000000001</ele>
   </trkpt>
   <trkpt lat="54.69051" lon="25.30017">
    <ele>117.55000000000001</ele>
   </trkpt>
   <trkpt lat="54.690560000000005" lon="25.29998">
    <ele>116.37000000000002</ele>
   </trkpt>
   <trkpt lat="54.690560000000005" lon="25.29981">
    <ele>115.22</ele>
   </trkpt>
   <trkpt lat="54.690540000000006" lon="25.299580000000002">
    <ele>113.76</ele>
   </trkpt>
   <trkpt lat="54.690490000000004" lon="25.29943">
    <ele>112.87</ele>
   </trkpt>
   <trkpt lat="54.69041000000001" lon="25.29932">
    <ele>112.64</ele>
   </trkpt>
   <trkpt lat="54.69030000000001" lon="25.29926">
    <ele>113.33000000000001</ele>
   </trkpt>
   <trkpt lat="54.69013" lon="25.299190000000003">
    <ele>114.64</ele>
   </trkpt>
   <trkpt lat="54.68981" lon="25.29904">
    <ele>117.85000000000001</ele>
   </trkpt>
   <trkpt lat="54.689780000000006" lon="25.29904">
    <ele>118.17</ele>
   </trkpt>
  </trkseg>
 </trk>
</gpx>
